<?xml version="1.0" encoding="UTF-8"?>
<gpx xmlns="http://www.topografix.com/GPX/1/1" version="1.1" creator="MotoMap">
  <trk>
    <name>alghero_bosa</name>
    <trkseg>
      <trkpt lat="40.558183" lon="8.318854"><ele>0</ele></trkpt>
      <trkpt lat="40.557899" lon="8.318238"><ele>0</ele></trkpt>
      <trkpt lat="40.557862" lon="8.318159"><ele>0</ele></trkpt>
      <trkpt lat="40.557833" lon="8.318097"><ele>0</ele></trkpt>
      <trkpt lat="40.557663" lon="8.317734"><ele>0</ele></trkpt>
      <trkpt lat="40.557643" lon="8.317693"><ele>0</ele></trkpt>
      <trkpt lat="40.557506" lon="8.317397"><ele>0</ele></trkpt>
      <trkpt lat="40.557456" lon="8.317278"><ele>0</ele></trkpt>
      <trkpt lat="40.557375" lon="8.317282"><ele>0</ele></trkpt>
      <trkpt lat="40.556707" lon="8.317798"><ele>0</ele></trkpt>
      <trkpt lat="40.556701" lon="8.317803"><ele>0</ele></trkpt>
      <trkpt lat="40.556635" lon="8.317854"><ele>0</ele></trkpt>
      <trkpt lat="40.556423" lon="8.318015"><ele>0</ele></trkpt>
      <trkpt lat="40.556344" lon="8.318086"><ele>0</ele></trkpt>
      <trkpt lat="40.556184" lon="8.318227"><ele>0</ele></trkpt>
      <trkpt lat="40.555929" lon="8.318454"><ele>0</ele></trkpt>
      <trkpt lat="40.555793" lon="8.318576"><ele>0</ele></trkpt>
      <trkpt lat="40.555712" lon="8.318710"><ele>0</ele></trkpt>
      <trkpt lat="40.555661" lon="8.318789"><ele>0</ele></trkpt>
      <trkpt lat="40.555461" lon="8.319141"><ele>0</ele></trkpt>
      <trkpt lat="40.555370" lon="8.319302"><ele>0</ele></trkpt>
      <trkpt lat="40.555021" lon="8.319942"><ele>0</ele></trkpt>
      <trkpt lat="40.554968" lon="8.320040"><ele>0</ele></trkpt>
      <trkpt lat="40.554949" lon="8.320022"><ele>0</ele></trkpt>
      <trkpt lat="40.554196" lon="8.319341"><ele>0</ele></trkpt>
      <trkpt lat="40.554153" lon="8.319301"><ele>0</ele></trkpt>
      <trkpt lat="40.553704" lon="8.318892"><ele>0</ele></trkpt>
      <trkpt lat="40.553414" lon="8.318626"><ele>0</ele></trkpt>
      <trkpt lat="40.553366" lon="8.318583"><ele>0</ele></trkpt>
      <trkpt lat="40.552635" lon="8.317882"><ele>0</ele></trkpt>
      <trkpt lat="40.552606" lon="8.317854"><ele>0</ele></trkpt>
      <trkpt lat="40.552315" lon="8.318106"><ele>0</ele></trkpt>
      <trkpt lat="40.552269" lon="8.318147"><ele>0</ele></trkpt>
      <trkpt lat="40.552254" lon="8.318168"><ele>0</ele></trkpt>
      <trkpt lat="40.552149" lon="8.318315"><ele>0</ele></trkpt>
      <trkpt lat="40.552001" lon="8.318635"><ele>0</ele></trkpt>
      <trkpt lat="40.551818" lon="8.318777"><ele>0</ele></trkpt>
      <trkpt lat="40.551678" lon="8.318836"><ele>0</ele></trkpt>
      <trkpt lat="40.551459" lon="8.318855"><ele>0</ele></trkpt>
      <trkpt lat="40.551323" lon="8.318933"><ele>0</ele></trkpt>
      <trkpt lat="40.551260" lon="8.319023"><ele>0</ele></trkpt>
      <trkpt lat="40.551185" lon="8.319131"><ele>0</ele></trkpt>
      <trkpt lat="40.551069" lon="8.319296"><ele>0</ele></trkpt>
      <trkpt lat="40.550842" lon="8.319744"><ele>0</ele></trkpt>
      <trkpt lat="40.550766" lon="8.319923"><ele>0</ele></trkpt>
      <trkpt lat="40.550565" lon="8.320398"><ele>0</ele></trkpt>
      <trkpt lat="40.550401" lon="8.320627"><ele>0</ele></trkpt>
      <trkpt lat="40.550346" lon="8.320675"><ele>0</ele></trkpt>
      <trkpt lat="40.550283" lon="8.320731"><ele>0</ele></trkpt>
      <trkpt lat="40.549961" lon="8.320880"><ele>0</ele></trkpt>
      <trkpt lat="40.549854" lon="8.320916"><ele>0</ele></trkpt>
      <trkpt lat="40.549825" lon="8.320926"><ele>0</ele></trkpt>
      <trkpt lat="40.549749" lon="8.320952"><ele>0</ele></trkpt>
      <trkpt lat="40.549619" lon="8.320997"><ele>0</ele></trkpt>
      <trkpt lat="40.549428" lon="8.321040"><ele>0</ele></trkpt>
      <trkpt lat="40.549241" lon="8.321036"><ele>0</ele></trkpt>
      <trkpt lat="40.549124" lon="8.321012"><ele>0</ele></trkpt>
      <trkpt lat="40.548880" lon="8.320962"><ele>0</ele></trkpt>
      <trkpt lat="40.548639" lon="8.320950"><ele>0</ele></trkpt>
      <trkpt lat="40.548481" lon="8.321024"><ele>0</ele></trkpt>
      <trkpt lat="40.548371" lon="8.321179"><ele>0</ele></trkpt>
      <trkpt lat="40.548268" lon="8.321505"><ele>0</ele></trkpt>
      <trkpt lat="40.548102" lon="8.322138"><ele>0</ele></trkpt>
      <trkpt lat="40.548008" lon="8.322344"><ele>0</ele></trkpt>
      <trkpt lat="40.547990" lon="8.322364"><ele>0</ele></trkpt>
      <trkpt lat="40.547748" lon="8.322640"><ele>0</ele></trkpt>
      <trkpt lat="40.547426" lon="8.322822"><ele>0</ele></trkpt>
      <trkpt lat="40.547229" lon="8.322843"><ele>0</ele></trkpt>
      <trkpt lat="40.547025" lon="8.322820"><ele>0</ele></trkpt>
      <trkpt lat="40.546926" lon="8.322741"><ele>0</ele></trkpt>
      <trkpt lat="40.546812" lon="8.322658"><ele>0</ele></trkpt>
      <trkpt lat="40.546582" lon="8.322491"><ele>0</ele></trkpt>
      <trkpt lat="40.546224" lon="8.322293"><ele>0</ele></trkpt>
      <trkpt lat="40.545266" lon="8.321892"><ele>0</ele></trkpt>
      <trkpt lat="40.545018" lon="8.321701"><ele>0</ele></trkpt>
      <trkpt lat="40.544651" lon="8.321408"><ele>0</ele></trkpt>
      <trkpt lat="40.544549" lon="8.321358"><ele>0</ele></trkpt>
      <trkpt lat="40.544424" lon="8.321344"><ele>0</ele></trkpt>
      <trkpt lat="40.544289" lon="8.321363"><ele>0</ele></trkpt>
      <trkpt lat="40.544183" lon="8.321426"><ele>0</ele></trkpt>
      <trkpt lat="40.544080" lon="8.321515"><ele>0</ele></trkpt>
      <trkpt lat="40.543989" lon="8.321650"><ele>0</ele></trkpt>
      <trkpt lat="40.543920" lon="8.321866"><ele>0</ele></trkpt>
      <trkpt lat="40.543870" lon="8.322233"><ele>0</ele></trkpt>
      <trkpt lat="40.543818" lon="8.322455"><ele>0</ele></trkpt>
      <trkpt lat="40.543729" lon="8.322670"><ele>0</ele></trkpt>
      <trkpt lat="40.543628" lon="8.322803"><ele>0</ele></trkpt>
      <trkpt lat="40.543518" lon="8.322907"><ele>0</ele></trkpt>
      <trkpt lat="40.543336" lon="8.323021"><ele>0</ele></trkpt>
      <trkpt lat="40.543244" lon="8.323051"><ele>0</ele></trkpt>
      <trkpt lat="40.543187" lon="8.323077"><ele>0</ele></trkpt>
      <trkpt lat="40.542951" lon="8.323090"><ele>0</ele></trkpt>
      <trkpt lat="40.542724" lon="8.323006"><ele>0</ele></trkpt>
      <trkpt lat="40.542523" lon="8.322813"><ele>0</ele></trkpt>
      <trkpt lat="40.542378" lon="8.322548"><ele>0</ele></trkpt>
      <trkpt lat="40.542281" lon="8.322251"><ele>0</ele></trkpt>
      <trkpt lat="40.542207" lon="8.322077"><ele>0</ele></trkpt>
      <trkpt lat="40.542075" lon="8.321944"><ele>0</ele></trkpt>
      <trkpt lat="40.541932" lon="8.321918"><ele>0</ele></trkpt>
      <trkpt lat="40.541837" lon="8.321934"><ele>0</ele></trkpt>
      <trkpt lat="40.541704" lon="8.321985"><ele>0</ele></trkpt>
      <trkpt lat="40.541588" lon="8.322093"><ele>0</ele></trkpt>
      <trkpt lat="40.541496" lon="8.322263"><ele>0</ele></trkpt>
      <trkpt lat="40.540930" lon="8.323130"><ele>0</ele></trkpt>
      <trkpt lat="40.540620" lon="8.323392"><ele>0</ele></trkpt>
      <trkpt lat="40.540062" lon="8.323783"><ele>0</ele></trkpt>
      <trkpt lat="40.539709" lon="8.324041"><ele>0</ele></trkpt>
      <trkpt lat="40.539370" lon="8.324271"><ele>0</ele></trkpt>
      <trkpt lat="40.539256" lon="8.324321"><ele>0</ele></trkpt>
      <trkpt lat="40.539093" lon="8.324350"><ele>0</ele></trkpt>
      <trkpt lat="40.538922" lon="8.324319"><ele>0</ele></trkpt>
      <trkpt lat="40.538503" lon="8.324198"><ele>0</ele></trkpt>
      <trkpt lat="40.538063" lon="8.324036"><ele>0</ele></trkpt>
      <trkpt lat="40.537599" lon="8.323883"><ele>0</ele></trkpt>
      <trkpt lat="40.537503" lon="8.323844"><ele>0</ele></trkpt>
      <trkpt lat="40.537374" lon="8.323833"><ele>0</ele></trkpt>
      <trkpt lat="40.537259" lon="8.323847"><ele>0</ele></trkpt>
      <trkpt lat="40.537165" lon="8.323882"><ele>0</ele></trkpt>
      <trkpt lat="40.537006" lon="8.323989"><ele>0</ele></trkpt>
      <trkpt lat="40.536904" lon="8.324091"><ele>0</ele></trkpt>
      <trkpt lat="40.536802" lon="8.324253"><ele>0</ele></trkpt>
      <trkpt lat="40.536452" lon="8.325224"><ele>0</ele></trkpt>
      <trkpt lat="40.536318" lon="8.325449"><ele>0</ele></trkpt>
      <trkpt lat="40.536119" lon="8.325606"><ele>0</ele></trkpt>
      <trkpt lat="40.532884" lon="8.326818"><ele>0</ele></trkpt>
      <trkpt lat="40.532599" lon="8.326899"><ele>0</ele></trkpt>
      <trkpt lat="40.532428" lon="8.326899"><ele>0</ele></trkpt>
      <trkpt lat="40.531981" lon="8.326832"><ele>0</ele></trkpt>
      <trkpt lat="40.531827" lon="8.326834"><ele>0</ele></trkpt>
      <trkpt lat="40.531675" lon="8.326855"><ele>0</ele></trkpt>
      <trkpt lat="40.531227" lon="8.326987"><ele>0</ele></trkpt>
      <trkpt lat="40.530962" lon="8.327093"><ele>0</ele></trkpt>
      <trkpt lat="40.530831" lon="8.327155"><ele>0</ele></trkpt>
      <trkpt lat="40.530705" lon="8.327247"><ele>0</ele></trkpt>
      <trkpt lat="40.530591" lon="8.327363"><ele>0</ele></trkpt>
      <trkpt lat="40.530460" lon="8.327532"><ele>0</ele></trkpt>
      <trkpt lat="40.529608" lon="8.328737"><ele>0</ele></trkpt>
      <trkpt lat="40.529514" lon="8.328824"><ele>0</ele></trkpt>
      <trkpt lat="40.529412" lon="8.328841"><ele>0</ele></trkpt>
      <trkpt lat="40.529312" lon="8.328827"><ele>0</ele></trkpt>
      <trkpt lat="40.529009" lon="8.328730"><ele>0</ele></trkpt>
      <trkpt lat="40.528910" lon="8.328702"><ele>0</ele></trkpt>
      <trkpt lat="40.528825" lon="8.328707"><ele>0</ele></trkpt>
      <trkpt lat="40.528738" lon="8.328765"><ele>0</ele></trkpt>
      <trkpt lat="40.528658" lon="8.328857"><ele>0</ele></trkpt>
      <trkpt lat="40.528393" lon="8.329310"><ele>0</ele></trkpt>
      <trkpt lat="40.528324" lon="8.329402"><ele>0</ele></trkpt>
      <trkpt lat="40.528236" lon="8.329495"><ele>0</ele></trkpt>
      <trkpt lat="40.527756" lon="8.329958"><ele>0</ele></trkpt>
      <trkpt lat="40.527507" lon="8.330175"><ele>0</ele></trkpt>
      <trkpt lat="40.527241" lon="8.330340"><ele>0</ele></trkpt>
      <trkpt lat="40.526783" lon="8.330575"><ele>0</ele></trkpt>
      <trkpt lat="40.526568" lon="8.330640"><ele>0</ele></trkpt>
      <trkpt lat="40.526347" lon="8.330670"><ele>0</ele></trkpt>
      <trkpt lat="40.526134" lon="8.330716"><ele>0</ele></trkpt>
      <trkpt lat="40.525956" lon="8.330843"><ele>0</ele></trkpt>
      <trkpt lat="40.525675" lon="8.331181"><ele>0</ele></trkpt>
      <trkpt lat="40.525316" lon="8.331623"><ele>0</ele></trkpt>
      <trkpt lat="40.525082" lon="8.331874"><ele>0</ele></trkpt>
      <trkpt lat="40.524796" lon="8.332095"><ele>0</ele></trkpt>
      <trkpt lat="40.524567" lon="8.332259"><ele>0</ele></trkpt>
      <trkpt lat="40.524335" lon="8.332410"><ele>0</ele></trkpt>
      <trkpt lat="40.524153" lon="8.332496"><ele>0</ele></trkpt>
      <trkpt lat="40.523977" lon="8.332572"><ele>0</ele></trkpt>
      <trkpt lat="40.523780" lon="8.332679"><ele>0</ele></trkpt>
      <trkpt lat="40.523676" lon="8.332741"><ele>0</ele></trkpt>
      <trkpt lat="40.523570" lon="8.332817"><ele>0</ele></trkpt>
      <trkpt lat="40.523458" lon="8.332915"><ele>0</ele></trkpt>
      <trkpt lat="40.523362" lon="8.333067"><ele>0</ele></trkpt>
      <trkpt lat="40.523046" lon="8.333721"><ele>0</ele></trkpt>
      <trkpt lat="40.523017" lon="8.333833"><ele>0</ele></trkpt>
      <trkpt lat="40.523010" lon="8.333991"><ele>0</ele></trkpt>
      <trkpt lat="40.523023" lon="8.334053"><ele>0</ele></trkpt>
      <trkpt lat="40.523037" lon="8.334142"><ele>0</ele></trkpt>
      <trkpt lat="40.523088" lon="8.334256"><ele>0</ele></trkpt>
      <trkpt lat="40.523453" lon="8.334826"><ele>0</ele></trkpt>
      <trkpt lat="40.523507" lon="8.334927"><ele>0</ele></trkpt>
      <trkpt lat="40.523556" lon="8.335057"><ele>0</ele></trkpt>
      <trkpt lat="40.523581" lon="8.335187"><ele>0</ele></trkpt>
      <trkpt lat="40.523601" lon="8.335371"><ele>0</ele></trkpt>
      <trkpt lat="40.523591" lon="8.336921"><ele>0</ele></trkpt>
      <trkpt lat="40.523554" lon="8.337193"><ele>0</ele></trkpt>
      <trkpt lat="40.523465" lon="8.337475"><ele>0</ele></trkpt>
      <trkpt lat="40.523284" lon="8.337817"><ele>0</ele></trkpt>
      <trkpt lat="40.523247" lon="8.337884"><ele>0</ele></trkpt>
      <trkpt lat="40.522683" lon="8.338882"><ele>0</ele></trkpt>
      <trkpt lat="40.522065" lon="8.339992"><ele>0</ele></trkpt>
      <trkpt lat="40.521915" lon="8.340261"><ele>0</ele></trkpt>
      <trkpt lat="40.521183" lon="8.341558"><ele>0</ele></trkpt>
      <trkpt lat="40.521092" lon="8.341706"><ele>0</ele></trkpt>
      <trkpt lat="40.520984" lon="8.341822"><ele>0</ele></trkpt>
      <trkpt lat="40.520276" lon="8.342316"><ele>0</ele></trkpt>
      <trkpt lat="40.520012" lon="8.342456"><ele>0</ele></trkpt>
      <trkpt lat="40.519966" lon="8.342474"><ele>0</ele></trkpt>
      <trkpt lat="40.519838" lon="8.342501"><ele>0</ele></trkpt>
      <trkpt lat="40.519718" lon="8.342489"><ele>0</ele></trkpt>
      <trkpt lat="40.519134" lon="8.342386"><ele>0</ele></trkpt>
      <trkpt lat="40.518727" lon="8.342318"><ele>0</ele></trkpt>
      <trkpt lat="40.518394" lon="8.342293"><ele>0</ele></trkpt>
      <trkpt lat="40.517945" lon="8.342285"><ele>0</ele></trkpt>
      <trkpt lat="40.516565" lon="8.342269"><ele>0</ele></trkpt>
      <trkpt lat="40.515894" lon="8.342264"><ele>0</ele></trkpt>
      <trkpt lat="40.515680" lon="8.342274"><ele>0</ele></trkpt>
      <trkpt lat="40.515468" lon="8.342306"><ele>0</ele></trkpt>
      <trkpt lat="40.515265" lon="8.342396"><ele>0</ele></trkpt>
      <trkpt lat="40.515093" lon="8.342496"><ele>0</ele></trkpt>
      <trkpt lat="40.514685" lon="8.342739"><ele>0</ele></trkpt>
      <trkpt lat="40.514337" lon="8.342954"><ele>0</ele></trkpt>
      <trkpt lat="40.514191" lon="8.343063"><ele>0</ele></trkpt>
      <trkpt lat="40.514087" lon="8.343178"><ele>0</ele></trkpt>
      <trkpt lat="40.514032" lon="8.343246"><ele>0</ele></trkpt>
      <trkpt lat="40.513511" lon="8.344159"><ele>0</ele></trkpt>
      <trkpt lat="40.512981" lon="8.345120"><ele>0</ele></trkpt>
      <trkpt lat="40.512587" lon="8.345835"><ele>0</ele></trkpt>
      <trkpt lat="40.512483" lon="8.346065"><ele>0</ele></trkpt>
      <trkpt lat="40.512466" lon="8.346102"><ele>0</ele></trkpt>
      <trkpt lat="40.512428" lon="8.346241"><ele>0</ele></trkpt>
      <trkpt lat="40.512398" lon="8.346408"><ele>0</ele></trkpt>
      <trkpt lat="40.512357" lon="8.346735"><ele>0</ele></trkpt>
      <trkpt lat="40.512160" lon="8.348277"><ele>0</ele></trkpt>
      <trkpt lat="40.512151" lon="8.348456"><ele>0</ele></trkpt>
      <trkpt lat="40.512156" lon="8.348636"><ele>0</ele></trkpt>
      <trkpt lat="40.512533" lon="8.351127"><ele>0</ele></trkpt>
      <trkpt lat="40.512553" lon="8.351291"><ele>0</ele></trkpt>
      <trkpt lat="40.512724" lon="8.352438"><ele>0</ele></trkpt>
      <trkpt lat="40.512746" lon="8.352642"><ele>0</ele></trkpt>
      <trkpt lat="40.512755" lon="8.352840"><ele>0</ele></trkpt>
      <trkpt lat="40.512723" lon="8.353008"><ele>0</ele></trkpt>
      <trkpt lat="40.512649" lon="8.353229"><ele>0</ele></trkpt>
      <trkpt lat="40.512370" lon="8.353787"><ele>0</ele></trkpt>
      <trkpt lat="40.512223" lon="8.354010"><ele>0</ele></trkpt>
      <trkpt lat="40.512197" lon="8.354062"><ele>0</ele></trkpt>
      <trkpt lat="40.511875" lon="8.354705"><ele>0</ele></trkpt>
      <trkpt lat="40.511711" lon="8.354981"><ele>0</ele></trkpt>
      <trkpt lat="40.511653" lon="8.355071"><ele>0</ele></trkpt>
      <trkpt lat="40.510386" lon="8.356306"><ele>0</ele></trkpt>
      <trkpt lat="40.510117" lon="8.356538"><ele>0</ele></trkpt>
      <trkpt lat="40.509972" lon="8.356599"><ele>0</ele></trkpt>
      <trkpt lat="40.509819" lon="8.356619"><ele>0</ele></trkpt>
      <trkpt lat="40.509383" lon="8.356615"><ele>0</ele></trkpt>
      <trkpt lat="40.507341" lon="8.356499"><ele>0</ele></trkpt>
      <trkpt lat="40.506678" lon="8.356445"><ele>0</ele></trkpt>
      <trkpt lat="40.506458" lon="8.356445"><ele>0</ele></trkpt>
      <trkpt lat="40.506243" lon="8.356496"><ele>0</ele></trkpt>
      <trkpt lat="40.506045" lon="8.356579"><ele>0</ele></trkpt>
      <trkpt lat="40.505210" lon="8.357139"><ele>0</ele></trkpt>
      <trkpt lat="40.504798" lon="8.357423"><ele>0</ele></trkpt>
      <trkpt lat="40.503871" lon="8.357847"><ele>0</ele></trkpt>
      <trkpt lat="40.503332" lon="8.358093"><ele>0</ele></trkpt>
      <trkpt lat="40.503237" lon="8.358149"><ele>0</ele></trkpt>
      <trkpt lat="40.503147" lon="8.358234"><ele>0</ele></trkpt>
      <trkpt lat="40.503019" lon="8.358412"><ele>0</ele></trkpt>
      <trkpt lat="40.502752" lon="8.358995"><ele>0</ele></trkpt>
      <trkpt lat="40.502518" lon="8.359662"><ele>0</ele></trkpt>
      <trkpt lat="40.502437" lon="8.360040"><ele>0</ele></trkpt>
      <trkpt lat="40.502367" lon="8.360601"><ele>0</ele></trkpt>
      <trkpt lat="40.502287" lon="8.361072"><ele>0</ele></trkpt>
      <trkpt lat="40.501518" lon="8.364326"><ele>0</ele></trkpt>
      <trkpt lat="40.501404" lon="8.364733"><ele>0</ele></trkpt>
      <trkpt lat="40.501297" lon="8.364956"><ele>0</ele></trkpt>
      <trkpt lat="40.501183" lon="8.365131"><ele>0</ele></trkpt>
      <trkpt lat="40.500949" lon="8.365366"><ele>0</ele></trkpt>
      <trkpt lat="40.500700" lon="8.365562"><ele>0</ele></trkpt>
      <trkpt lat="40.499859" lon="8.366145"><ele>0</ele></trkpt>
      <trkpt lat="40.499602" lon="8.366438"><ele>0</ele></trkpt>
      <trkpt lat="40.499513" lon="8.366645"><ele>0</ele></trkpt>
      <trkpt lat="40.499466" lon="8.366918"><ele>0</ele></trkpt>
      <trkpt lat="40.499459" lon="8.367157"><ele>0</ele></trkpt>
      <trkpt lat="40.499427" lon="8.367431"><ele>0</ele></trkpt>
      <trkpt lat="40.499376" lon="8.367626"><ele>0</ele></trkpt>
      <trkpt lat="40.499288" lon="8.367789"><ele>0</ele></trkpt>
      <trkpt lat="40.499183" lon="8.367913"><ele>0</ele></trkpt>
      <trkpt lat="40.499072" lon="8.368029"><ele>0</ele></trkpt>
      <trkpt lat="40.498956" lon="8.368085"><ele>0</ele></trkpt>
      <trkpt lat="40.498685" lon="8.368127"><ele>0</ele></trkpt>
      <trkpt lat="40.498106" lon="8.367924"><ele>0</ele></trkpt>
      <trkpt lat="40.497984" lon="8.367916"><ele>0</ele></trkpt>
      <trkpt lat="40.497855" lon="8.367956"><ele>0</ele></trkpt>
      <trkpt lat="40.497767" lon="8.368033"><ele>0</ele></trkpt>
      <trkpt lat="40.497730" lon="8.368111"><ele>0</ele></trkpt>
      <trkpt lat="40.497680" lon="8.368268"><ele>0</ele></trkpt>
      <trkpt lat="40.497605" lon="8.368755"><ele>0</ele></trkpt>
      <trkpt lat="40.497585" lon="8.368916"><ele>0</ele></trkpt>
      <trkpt lat="40.497510" lon="8.369385"><ele>0</ele></trkpt>
      <trkpt lat="40.497495" lon="8.369493"><ele>0</ele></trkpt>
      <trkpt lat="40.497320" lon="8.370583"><ele>0</ele></trkpt>
      <trkpt lat="40.497288" lon="8.370730"><ele>0</ele></trkpt>
      <trkpt lat="40.497216" lon="8.370878"><ele>0</ele></trkpt>
      <trkpt lat="40.497144" lon="8.370962"><ele>0</ele></trkpt>
      <trkpt lat="40.496976" lon="8.371048"><ele>0</ele></trkpt>
      <trkpt lat="40.496034" lon="8.371435"><ele>0</ele></trkpt>
      <trkpt lat="40.495263" lon="8.371752"><ele>0</ele></trkpt>
      <trkpt lat="40.494335" lon="8.372232"><ele>0</ele></trkpt>
      <trkpt lat="40.494154" lon="8.372357"><ele>0</ele></trkpt>
      <trkpt lat="40.494060" lon="8.372471"><ele>0</ele></trkpt>
      <trkpt lat="40.493852" lon="8.372770"><ele>0</ele></trkpt>
      <trkpt lat="40.493262" lon="8.373610"><ele>0</ele></trkpt>
      <trkpt lat="40.493134" lon="8.373755"><ele>0</ele></trkpt>
      <trkpt lat="40.493014" lon="8.373873"><ele>0</ele></trkpt>
      <trkpt lat="40.492872" lon="8.373934"><ele>0</ele></trkpt>
      <trkpt lat="40.492581" lon="8.374004"><ele>0</ele></trkpt>
      <trkpt lat="40.492091" lon="8.374122"><ele>0</ele></trkpt>
      <trkpt lat="40.491939" lon="8.374232"><ele>0</ele></trkpt>
      <trkpt lat="40.490819" lon="8.375153"><ele>0</ele></trkpt>
      <trkpt lat="40.490587" lon="8.375341"><ele>0</ele></trkpt>
      <trkpt lat="40.490513" lon="8.375424"><ele>0</ele></trkpt>
      <trkpt lat="40.490435" lon="8.375560"><ele>0</ele></trkpt>
      <trkpt lat="40.490366" lon="8.375742"><ele>0</ele></trkpt>
      <trkpt lat="40.490329" lon="8.375888"><ele>0</ele></trkpt>
      <trkpt lat="40.490306" lon="8.376039"><ele>0</ele></trkpt>
      <trkpt lat="40.490312" lon="8.376213"><ele>0</ele></trkpt>
      <trkpt lat="40.490354" lon="8.376445"><ele>0</ele></trkpt>
      <trkpt lat="40.490425" lon="8.376637"><ele>0</ele></trkpt>
      <trkpt lat="40.490599" lon="8.377009"><ele>0</ele></trkpt>
      <trkpt lat="40.490720" lon="8.377279"><ele>0</ele></trkpt>
      <trkpt lat="40.490803" lon="8.377491"><ele>0</ele></trkpt>
      <trkpt lat="40.490831" lon="8.377644"><ele>0</ele></trkpt>
      <trkpt lat="40.490834" lon="8.377794"><ele>0</ele></trkpt>
      <trkpt lat="40.490806" lon="8.378013"><ele>0</ele></trkpt>
      <trkpt lat="40.490743" lon="8.378179"><ele>0</ele></trkpt>
      <trkpt lat="40.490677" lon="8.378297"><ele>0</ele></trkpt>
      <trkpt lat="40.490598" lon="8.378389"><ele>0</ele></trkpt>
      <trkpt lat="40.490457" lon="8.378486"><ele>0</ele></trkpt>
      <trkpt lat="40.490307" lon="8.378529"><ele>0</ele></trkpt>
      <trkpt lat="40.490191" lon="8.378545"><ele>0</ele></trkpt>
      <trkpt lat="40.490062" lon="8.378526"><ele>0</ele></trkpt>
      <trkpt lat="40.489926" lon="8.378440"><ele>0</ele></trkpt>
      <trkpt lat="40.489769" lon="8.378281"><ele>0</ele></trkpt>
      <trkpt lat="40.489554" lon="8.377992"><ele>0</ele></trkpt>
      <trkpt lat="40.489388" lon="8.377742"><ele>0</ele></trkpt>
      <trkpt lat="40.489318" lon="8.377583"><ele>0</ele></trkpt>
      <trkpt lat="40.489268" lon="8.377376"><ele>0</ele></trkpt>
      <trkpt lat="40.489167" lon="8.376682"><ele>0</ele></trkpt>
      <trkpt lat="40.489112" lon="8.376406"><ele>0</ele></trkpt>
      <trkpt lat="40.489059" lon="8.376267"><ele>0</ele></trkpt>
      <trkpt lat="40.489004" lon="8.376155"><ele>0</ele></trkpt>
      <trkpt lat="40.488945" lon="8.376067"><ele>0</ele></trkpt>
      <trkpt lat="40.488853" lon="8.375982"><ele>0</ele></trkpt>
      <trkpt lat="40.488646" lon="8.375869"><ele>0</ele></trkpt>
      <trkpt lat="40.488498" lon="8.375855"><ele>0</ele></trkpt>
      <trkpt lat="40.488388" lon="8.375871"><ele>0</ele></trkpt>
      <trkpt lat="40.488261" lon="8.375916"><ele>0</ele></trkpt>
      <trkpt lat="40.488148" lon="8.375984"><ele>0</ele></trkpt>
      <trkpt lat="40.487737" lon="8.376299"><ele>0</ele></trkpt>
      <trkpt lat="40.487502" lon="8.376494"><ele>0</ele></trkpt>
      <trkpt lat="40.487335" lon="8.376674"><ele>0</ele></trkpt>
      <trkpt lat="40.487233" lon="8.376839"><ele>0</ele></trkpt>
      <trkpt lat="40.487112" lon="8.377121"><ele>0</ele></trkpt>
      <trkpt lat="40.486990" lon="8.377570"><ele>0</ele></trkpt>
      <trkpt lat="40.486936" lon="8.377818"><ele>0</ele></trkpt>
      <trkpt lat="40.486875" lon="8.377974"><ele>0</ele></trkpt>
      <trkpt lat="40.486746" lon="8.378147"><ele>0</ele></trkpt>
      <trkpt lat="40.486363" lon="8.378373"><ele>0</ele></trkpt>
      <trkpt lat="40.486230" lon="8.378451"><ele>0</ele></trkpt>
      <trkpt lat="40.486080" lon="8.378482"><ele>0</ele></trkpt>
      <trkpt lat="40.485864" lon="8.378481"><ele>0</ele></trkpt>
      <trkpt lat="40.485740" lon="8.378439"><ele>0</ele></trkpt>
      <trkpt lat="40.485659" lon="8.378368"><ele>0</ele></trkpt>
      <trkpt lat="40.485524" lon="8.378195"><ele>0</ele></trkpt>
      <trkpt lat="40.485448" lon="8.378068"><ele>0</ele></trkpt>
      <trkpt lat="40.485411" lon="8.377980"><ele>0</ele></trkpt>
      <trkpt lat="40.485383" lon="8.377913"><ele>0</ele></trkpt>
      <trkpt lat="40.485277" lon="8.377693"><ele>0</ele></trkpt>
      <trkpt lat="40.485117" lon="8.377459"><ele>0</ele></trkpt>
      <trkpt lat="40.485036" lon="8.377378"><ele>0</ele></trkpt>
      <trkpt lat="40.484914" lon="8.377280"><ele>0</ele></trkpt>
      <trkpt lat="40.484744" lon="8.377197"><ele>0</ele></trkpt>
      <trkpt lat="40.484638" lon="8.377171"><ele>0</ele></trkpt>
      <trkpt lat="40.484514" lon="8.377149"><ele>0</ele></trkpt>
      <trkpt lat="40.484478" lon="8.377151"><ele>0</ele></trkpt>
      <trkpt lat="40.484314" lon="8.377160"><ele>0</ele></trkpt>
      <trkpt lat="40.484226" lon="8.377183"><ele>0</ele></trkpt>
      <trkpt lat="40.484126" lon="8.377224"><ele>0</ele></trkpt>
      <trkpt lat="40.483751" lon="8.377460"><ele>0</ele></trkpt>
      <trkpt lat="40.483686" lon="8.377500"><ele>0</ele></trkpt>
      <trkpt lat="40.483471" lon="8.377632"><ele>0</ele></trkpt>
      <trkpt lat="40.483256" lon="8.377754"><ele>0</ele></trkpt>
      <trkpt lat="40.483174" lon="8.377785"><ele>0</ele></trkpt>
      <trkpt lat="40.482967" lon="8.377865"><ele>0</ele></trkpt>
      <trkpt lat="40.482760" lon="8.377899"><ele>0</ele></trkpt>
      <trkpt lat="40.482551" lon="8.377903"><ele>0</ele></trkpt>
      <trkpt lat="40.482432" lon="8.377895"><ele>0</ele></trkpt>
      <trkpt lat="40.482318" lon="8.377876"><ele>0</ele></trkpt>
      <trkpt lat="40.481803" lon="8.377809"><ele>0</ele></trkpt>
      <trkpt lat="40.481104" lon="8.377703"><ele>0</ele></trkpt>
      <trkpt lat="40.480866" lon="8.377664"><ele>0</ele></trkpt>
      <trkpt lat="40.480642" lon="8.377642"><ele>0</ele></trkpt>
      <trkpt lat="40.480344" lon="8.377648"><ele>0</ele></trkpt>
      <trkpt lat="40.480068" lon="8.377704"><ele>0</ele></trkpt>
      <trkpt lat="40.479762" lon="8.377785"><ele>0</ele></trkpt>
      <trkpt lat="40.479344" lon="8.377929"><ele>0</ele></trkpt>
      <trkpt lat="40.479074" lon="8.378030"><ele>0</ele></trkpt>
      <trkpt lat="40.478919" lon="8.378101"><ele>0</ele></trkpt>
      <trkpt lat="40.478787" lon="8.378179"><ele>0</ele></trkpt>
      <trkpt lat="40.478518" lon="8.378361"><ele>0</ele></trkpt>
      <trkpt lat="40.478336" lon="8.378538"><ele>0</ele></trkpt>
      <trkpt lat="40.477865" lon="8.379067"><ele>0</ele></trkpt>
      <trkpt lat="40.477367" lon="8.379622"><ele>0</ele></trkpt>
      <trkpt lat="40.477245" lon="8.379735"><ele>0</ele></trkpt>
      <trkpt lat="40.477183" lon="8.379787"><ele>0</ele></trkpt>
      <trkpt lat="40.477078" lon="8.379849"><ele>0</ele></trkpt>
      <trkpt lat="40.476962" lon="8.379890"><ele>0</ele></trkpt>
      <trkpt lat="40.476871" lon="8.379914"><ele>0</ele></trkpt>
      <trkpt lat="40.476151" lon="8.380049"><ele>0</ele></trkpt>
      <trkpt lat="40.476016" lon="8.380091"><ele>0</ele></trkpt>
      <trkpt lat="40.475841" lon="8.380188"><ele>0</ele></trkpt>
      <trkpt lat="40.475268" lon="8.380665"><ele>0</ele></trkpt>
      <trkpt lat="40.475111" lon="8.380778"><ele>0</ele></trkpt>
      <trkpt lat="40.474968" lon="8.380832"><ele>0</ele></trkpt>
      <trkpt lat="40.474207" lon="8.381057"><ele>0</ele></trkpt>
      <trkpt lat="40.473980" lon="8.381116"><ele>0</ele></trkpt>
      <trkpt lat="40.473831" lon="8.381129"><ele>0</ele></trkpt>
      <trkpt lat="40.473582" lon="8.381127"><ele>0</ele></trkpt>
      <trkpt lat="40.473215" lon="8.381038"><ele>0</ele></trkpt>
      <trkpt lat="40.473078" lon="8.381006"><ele>0</ele></trkpt>
      <trkpt lat="40.472899" lon="8.381025"><ele>0</ele></trkpt>
      <trkpt lat="40.471259" lon="8.381316"><ele>0</ele></trkpt>
      <trkpt lat="40.471055" lon="8.381387"><ele>0</ele></trkpt>
      <trkpt lat="40.470895" lon="8.381507"><ele>0</ele></trkpt>
      <trkpt lat="40.470710" lon="8.381683"><ele>0</ele></trkpt>
      <trkpt lat="40.470579" lon="8.381744"><ele>0</ele></trkpt>
      <trkpt lat="40.470316" lon="8.381821"><ele>0</ele></trkpt>
      <trkpt lat="40.470196" lon="8.381821"><ele>0</ele></trkpt>
      <trkpt lat="40.470105" lon="8.381730"><ele>0</ele></trkpt>
      <trkpt lat="40.469969" lon="8.381504"><ele>0</ele></trkpt>
      <trkpt lat="40.469890" lon="8.381258"><ele>0</ele></trkpt>
      <trkpt lat="40.469806" lon="8.381068"><ele>0</ele></trkpt>
      <trkpt lat="40.469712" lon="8.380946"><ele>0</ele></trkpt>
      <trkpt lat="40.469698" lon="8.380927"><ele>0</ele></trkpt>
      <trkpt lat="40.469515" lon="8.380790"><ele>0</ele></trkpt>
      <trkpt lat="40.469362" lon="8.380771"><ele>0</ele></trkpt>
      <trkpt lat="40.469236" lon="8.380756"><ele>0</ele></trkpt>
      <trkpt lat="40.469050" lon="8.380798"><ele>0</ele></trkpt>
      <trkpt lat="40.468856" lon="8.380886"><ele>0</ele></trkpt>
      <trkpt lat="40.468712" lon="8.380982"><ele>0</ele></trkpt>
      <trkpt lat="40.468602" lon="8.381085"><ele>0</ele></trkpt>
      <trkpt lat="40.468476" lon="8.381232"><ele>0</ele></trkpt>
      <trkpt lat="40.468375" lon="8.381405"><ele>0</ele></trkpt>
      <trkpt lat="40.467985" lon="8.382265"><ele>0</ele></trkpt>
      <trkpt lat="40.467869" lon="8.382446"><ele>0</ele></trkpt>
      <trkpt lat="40.467683" lon="8.382668"><ele>0</ele></trkpt>
      <trkpt lat="40.467193" lon="8.383144"><ele>0</ele></trkpt>
      <trkpt lat="40.466949" lon="8.383414"><ele>0</ele></trkpt>
      <trkpt lat="40.466499" lon="8.384099"><ele>0</ele></trkpt>
      <trkpt lat="40.466259" lon="8.384463"><ele>0</ele></trkpt>
      <trkpt lat="40.466153" lon="8.384614"><ele>0</ele></trkpt>
      <trkpt lat="40.466063" lon="8.384705"><ele>0</ele></trkpt>
      <trkpt lat="40.465907" lon="8.384832"><ele>0</ele></trkpt>
      <trkpt lat="40.465856" lon="8.384873"><ele>0</ele></trkpt>
      <trkpt lat="40.465339" lon="8.385114"><ele>0</ele></trkpt>
      <trkpt lat="40.464846" lon="8.385327"><ele>0</ele></trkpt>
      <trkpt lat="40.464719" lon="8.385367"><ele>0</ele></trkpt>
      <trkpt lat="40.464521" lon="8.385426"><ele>0</ele></trkpt>
      <trkpt lat="40.463378" lon="8.385716"><ele>0</ele></trkpt>
      <trkpt lat="40.463159" lon="8.385758"><ele>0</ele></trkpt>
      <trkpt lat="40.462893" lon="8.385786"><ele>0</ele></trkpt>
      <trkpt lat="40.461466" lon="8.385733"><ele>0</ele></trkpt>
      <trkpt lat="40.461389" lon="8.385732"><ele>0</ele></trkpt>
      <trkpt lat="40.461340" lon="8.385744"><ele>0</ele></trkpt>
      <trkpt lat="40.461225" lon="8.385809"><ele>0</ele></trkpt>
      <trkpt lat="40.460794" lon="8.386202"><ele>0</ele></trkpt>
      <trkpt lat="40.460701" lon="8.386247"><ele>0</ele></trkpt>
      <trkpt lat="40.460611" lon="8.386255"><ele>0</ele></trkpt>
      <trkpt lat="40.460497" lon="8.386230"><ele>0</ele></trkpt>
      <trkpt lat="40.460404" lon="8.386181"><ele>0</ele></trkpt>
      <trkpt lat="40.460132" lon="8.385890"><ele>0</ele></trkpt>
      <trkpt lat="40.460037" lon="8.385814"><ele>0</ele></trkpt>
      <trkpt lat="40.459920" lon="8.385775"><ele>0</ele></trkpt>
      <trkpt lat="40.459203" lon="8.385642"><ele>0</ele></trkpt>
      <trkpt lat="40.459048" lon="8.385644"><ele>0</ele></trkpt>
      <trkpt lat="40.458897" lon="8.385706"><ele>0</ele></trkpt>
      <trkpt lat="40.458366" lon="8.386130"><ele>0</ele></trkpt>
      <trkpt lat="40.458214" lon="8.386248"><ele>0</ele></trkpt>
      <trkpt lat="40.458103" lon="8.386299"><ele>0</ele></trkpt>
      <trkpt lat="40.457983" lon="8.386345"><ele>0</ele></trkpt>
      <trkpt lat="40.457683" lon="8.386403"><ele>0</ele></trkpt>
      <trkpt lat="40.457074" lon="8.386472"><ele>0</ele></trkpt>
      <trkpt lat="40.456868" lon="8.386529"><ele>0</ele></trkpt>
      <trkpt lat="40.455594" lon="8.387053"><ele>0</ele></trkpt>
      <trkpt lat="40.454844" lon="8.387271"><ele>0</ele></trkpt>
      <trkpt lat="40.454369" lon="8.387458"><ele>0</ele></trkpt>
      <trkpt lat="40.454155" lon="8.387551"><ele>0</ele></trkpt>
      <trkpt lat="40.453977" lon="8.387671"><ele>0</ele></trkpt>
      <trkpt lat="40.453895" lon="8.387790"><ele>0</ele></trkpt>
      <trkpt lat="40.453890" lon="8.387797"><ele>0</ele></trkpt>
      <trkpt lat="40.453698" lon="8.388087"><ele>0</ele></trkpt>
      <trkpt lat="40.453541" lon="8.388319"><ele>0</ele></trkpt>
      <trkpt lat="40.453419" lon="8.388447"><ele>0</ele></trkpt>
      <trkpt lat="40.453388" lon="8.388479"><ele>0</ele></trkpt>
      <trkpt lat="40.453230" lon="8.388590"><ele>0</ele></trkpt>
      <trkpt lat="40.453115" lon="8.388662"><ele>0</ele></trkpt>
      <trkpt lat="40.452791" lon="8.388814"><ele>0</ele></trkpt>
      <trkpt lat="40.452505" lon="8.388810"><ele>0</ele></trkpt>
      <trkpt lat="40.452266" lon="8.388753"><ele>0</ele></trkpt>
      <trkpt lat="40.452111" lon="8.388729"><ele>0</ele></trkpt>
      <trkpt lat="40.452001" lon="8.388732"><ele>0</ele></trkpt>
      <trkpt lat="40.451893" lon="8.388807"><ele>0</ele></trkpt>
      <trkpt lat="40.451795" lon="8.388979"><ele>0</ele></trkpt>
      <trkpt lat="40.451768" lon="8.389118"><ele>0</ele></trkpt>
      <trkpt lat="40.451726" lon="8.389412"><ele>0</ele></trkpt>
      <trkpt lat="40.451697" lon="8.389690"><ele>0</ele></trkpt>
      <trkpt lat="40.451640" lon="8.389872"><ele>0</ele></trkpt>
      <trkpt lat="40.451519" lon="8.390022"><ele>0</ele></trkpt>
      <trkpt lat="40.451244" lon="8.390197"><ele>0</ele></trkpt>
      <trkpt lat="40.450719" lon="8.390454"><ele>0</ele></trkpt>
      <trkpt lat="40.450294" lon="8.390762"><ele>0</ele></trkpt>
      <trkpt lat="40.449875" lon="8.391001"><ele>0</ele></trkpt>
      <trkpt lat="40.449777" lon="8.391096"><ele>0</ele></trkpt>
      <trkpt lat="40.449660" lon="8.391269"><ele>0</ele></trkpt>
      <trkpt lat="40.449569" lon="8.391381"><ele>0</ele></trkpt>
      <trkpt lat="40.449431" lon="8.391452"><ele>0</ele></trkpt>
      <trkpt lat="40.449309" lon="8.391507"><ele>0</ele></trkpt>
      <trkpt lat="40.449220" lon="8.391582"><ele>0</ele></trkpt>
      <trkpt lat="40.449160" lon="8.391690"><ele>0</ele></trkpt>
      <trkpt lat="40.448921" lon="8.392357"><ele>0</ele></trkpt>
      <trkpt lat="40.448833" lon="8.392566"><ele>0</ele></trkpt>
      <trkpt lat="40.448744" lon="8.392687"><ele>0</ele></trkpt>
      <trkpt lat="40.448581" lon="8.392753"><ele>0</ele></trkpt>
      <trkpt lat="40.448470" lon="8.392743"><ele>0</ele></trkpt>
      <trkpt lat="40.448364" lon="8.392727"><ele>0</ele></trkpt>
      <trkpt lat="40.448108" lon="8.392696"><ele>0</ele></trkpt>
      <trkpt lat="40.447969" lon="8.392711"><ele>0</ele></trkpt>
      <trkpt lat="40.447780" lon="8.392761"><ele>0</ele></trkpt>
      <trkpt lat="40.447659" lon="8.392773"><ele>0</ele></trkpt>
      <trkpt lat="40.447542" lon="8.392767"><ele>0</ele></trkpt>
      <trkpt lat="40.447317" lon="8.392718"><ele>0</ele></trkpt>
      <trkpt lat="40.447047" lon="8.392643"><ele>0</ele></trkpt>
      <trkpt lat="40.446533" lon="8.392562"><ele>0</ele></trkpt>
      <trkpt lat="40.446267" lon="8.392549"><ele>0</ele></trkpt>
      <trkpt lat="40.446209" lon="8.392564"><ele>0</ele></trkpt>
      <trkpt lat="40.446022" lon="8.392613"><ele>0</ele></trkpt>
      <trkpt lat="40.445849" lon="8.392688"><ele>0</ele></trkpt>
      <trkpt lat="40.445706" lon="8.392798"><ele>0</ele></trkpt>
      <trkpt lat="40.445660" lon="8.392846"><ele>0</ele></trkpt>
      <trkpt lat="40.445504" lon="8.393005"><ele>0</ele></trkpt>
      <trkpt lat="40.445393" lon="8.393095"><ele>0</ele></trkpt>
      <trkpt lat="40.445263" lon="8.393156"><ele>0</ele></trkpt>
      <trkpt lat="40.445075" lon="8.393198"><ele>0</ele></trkpt>
      <trkpt lat="40.444669" lon="8.393278"><ele>0</ele></trkpt>
      <trkpt lat="40.444373" lon="8.393321"><ele>0</ele></trkpt>
      <trkpt lat="40.444142" lon="8.393396"><ele>0</ele></trkpt>
      <trkpt lat="40.443893" lon="8.393571"><ele>0</ele></trkpt>
      <trkpt lat="40.443450" lon="8.393984"><ele>0</ele></trkpt>
      <trkpt lat="40.443383" lon="8.394057"><ele>0</ele></trkpt>
      <trkpt lat="40.443256" lon="8.394193"><ele>0</ele></trkpt>
      <trkpt lat="40.443122" lon="8.394469"><ele>0</ele></trkpt>
      <trkpt lat="40.443043" lon="8.394792"><ele>0</ele></trkpt>
      <trkpt lat="40.442995" lon="8.394990"><ele>0</ele></trkpt>
      <trkpt lat="40.442878" lon="8.395232"><ele>0</ele></trkpt>
      <trkpt lat="40.442756" lon="8.395389"><ele>0</ele></trkpt>
      <trkpt lat="40.442619" lon="8.395458"><ele>0</ele></trkpt>
      <trkpt lat="40.442494" lon="8.395467"><ele>0</ele></trkpt>
      <trkpt lat="40.442238" lon="8.395458"><ele>0</ele></trkpt>
      <trkpt lat="40.442025" lon="8.395415"><ele>0</ele></trkpt>
      <trkpt lat="40.441838" lon="8.395409"><ele>0</ele></trkpt>
      <trkpt lat="40.441660" lon="8.395456"><ele>0</ele></trkpt>
      <trkpt lat="40.441456" lon="8.395521"><ele>0</ele></trkpt>
      <trkpt lat="40.441274" lon="8.395631"><ele>0</ele></trkpt>
      <trkpt lat="40.441109" lon="8.395816"><ele>0</ele></trkpt>
      <trkpt lat="40.441045" lon="8.395958"><ele>0</ele></trkpt>
      <trkpt lat="40.440966" lon="8.396175"><ele>0</ele></trkpt>
      <trkpt lat="40.440892" lon="8.396472"><ele>0</ele></trkpt>
      <trkpt lat="40.440868" lon="8.396717"><ele>0</ele></trkpt>
      <trkpt lat="40.440870" lon="8.396918"><ele>0</ele></trkpt>
      <trkpt lat="40.440910" lon="8.397199"><ele>0</ele></trkpt>
      <trkpt lat="40.441138" lon="8.398267"><ele>0</ele></trkpt>
      <trkpt lat="40.441163" lon="8.398704"><ele>0</ele></trkpt>
      <trkpt lat="40.441160" lon="8.398902"><ele>0</ele></trkpt>
      <trkpt lat="40.441126" lon="8.399106"><ele>0</ele></trkpt>
      <trkpt lat="40.441076" lon="8.399278"><ele>0</ele></trkpt>
      <trkpt lat="40.440992" lon="8.399477"><ele>0</ele></trkpt>
      <trkpt lat="40.440872" lon="8.399603"><ele>0</ele></trkpt>
      <trkpt lat="40.440754" lon="8.399700"><ele>0</ele></trkpt>
      <trkpt lat="40.440507" lon="8.399807"><ele>0</ele></trkpt>
      <trkpt lat="40.440278" lon="8.399817"><ele>0</ele></trkpt>
      <trkpt lat="40.439918" lon="8.399762"><ele>0</ele></trkpt>
      <trkpt lat="40.438195" lon="8.399380"><ele>0</ele></trkpt>
      <trkpt lat="40.437773" lon="8.399296"><ele>0</ele></trkpt>
      <trkpt lat="40.437317" lon="8.399189"><ele>0</ele></trkpt>
      <trkpt lat="40.437065" lon="8.399177"><ele>0</ele></trkpt>
      <trkpt lat="40.436976" lon="8.399194"><ele>0</ele></trkpt>
      <trkpt lat="40.436835" lon="8.399235"><ele>0</ele></trkpt>
      <trkpt lat="40.436782" lon="8.399261"><ele>0</ele></trkpt>
      <trkpt lat="40.436581" lon="8.399434"><ele>0</ele></trkpt>
      <trkpt lat="40.436457" lon="8.399594"><ele>0</ele></trkpt>
      <trkpt lat="40.436354" lon="8.399847"><ele>0</ele></trkpt>
      <trkpt lat="40.435990" lon="8.401372"><ele>0</ele></trkpt>
      <trkpt lat="40.435886" lon="8.401796"><ele>0</ele></trkpt>
      <trkpt lat="40.435838" lon="8.402052"><ele>0</ele></trkpt>
      <trkpt lat="40.435792" lon="8.402588"><ele>0</ele></trkpt>
      <trkpt lat="40.435658" lon="8.404635"><ele>0</ele></trkpt>
      <trkpt lat="40.435646" lon="8.404923"><ele>0</ele></trkpt>
      <trkpt lat="40.435651" lon="8.405128"><ele>0</ele></trkpt>
      <trkpt lat="40.435697" lon="8.405528"><ele>0</ele></trkpt>
      <trkpt lat="40.435683" lon="8.405790"><ele>0</ele></trkpt>
      <trkpt lat="40.435627" lon="8.406005"><ele>0</ele></trkpt>
      <trkpt lat="40.435507" lon="8.406204"><ele>0</ele></trkpt>
      <trkpt lat="40.435411" lon="8.406356"><ele>0</ele></trkpt>
      <trkpt lat="40.435144" lon="8.406536"><ele>0</ele></trkpt>
      <trkpt lat="40.434884" lon="8.406589"><ele>0</ele></trkpt>
      <trkpt lat="40.434794" lon="8.406600"><ele>0</ele></trkpt>
      <trkpt lat="40.434679" lon="8.406596"><ele>0</ele></trkpt>
      <trkpt lat="40.434625" lon="8.406582"><ele>0</ele></trkpt>
      <trkpt lat="40.434371" lon="8.406490"><ele>0</ele></trkpt>
      <trkpt lat="40.434071" lon="8.406315"><ele>0</ele></trkpt>
      <trkpt lat="40.433906" lon="8.406112"><ele>0</ele></trkpt>
      <trkpt lat="40.433807" lon="8.405863"><ele>0</ele></trkpt>
      <trkpt lat="40.433533" lon="8.404690"><ele>0</ele></trkpt>
      <trkpt lat="40.433445" lon="8.404440"><ele>0</ele></trkpt>
      <trkpt lat="40.433235" lon="8.404038"><ele>0</ele></trkpt>
      <trkpt lat="40.432737" lon="8.403188"><ele>0</ele></trkpt>
      <trkpt lat="40.432636" lon="8.403037"><ele>0</ele></trkpt>
      <trkpt lat="40.432444" lon="8.402800"><ele>0</ele></trkpt>
      <trkpt lat="40.432198" lon="8.402590"><ele>0</ele></trkpt>
      <trkpt lat="40.431703" lon="8.402245"><ele>0</ele></trkpt>
      <trkpt lat="40.431431" lon="8.402087"><ele>0</ele></trkpt>
      <trkpt lat="40.431020" lon="8.401930"><ele>0</ele></trkpt>
      <trkpt lat="40.430611" lon="8.401831"><ele>0</ele></trkpt>
      <trkpt lat="40.428860" lon="8.401554"><ele>0</ele></trkpt>
      <trkpt lat="40.428610" lon="8.401560"><ele>0</ele></trkpt>
      <trkpt lat="40.428394" lon="8.401579"><ele>0</ele></trkpt>
      <trkpt lat="40.428016" lon="8.401680"><ele>0</ele></trkpt>
      <trkpt lat="40.427761" lon="8.401777"><ele>0</ele></trkpt>
      <trkpt lat="40.427043" lon="8.402112"><ele>0</ele></trkpt>
      <trkpt lat="40.426901" lon="8.402150"><ele>0</ele></trkpt>
      <trkpt lat="40.426710" lon="8.402171"><ele>0</ele></trkpt>
      <trkpt lat="40.425514" lon="8.402127"><ele>0</ele></trkpt>
      <trkpt lat="40.425161" lon="8.402162"><ele>0</ele></trkpt>
      <trkpt lat="40.424888" lon="8.402245"><ele>0</ele></trkpt>
      <trkpt lat="40.424656" lon="8.402377"><ele>0</ele></trkpt>
      <trkpt lat="40.424447" lon="8.402543"><ele>0</ele></trkpt>
      <trkpt lat="40.423278" lon="8.404022"><ele>0</ele></trkpt>
      <trkpt lat="40.423159" lon="8.404175"><ele>0</ele></trkpt>
      <trkpt lat="40.423069" lon="8.404340"><ele>0</ele></trkpt>
      <trkpt lat="40.422914" lon="8.404797"><ele>0</ele></trkpt>
      <trkpt lat="40.422440" lon="8.406562"><ele>0</ele></trkpt>
      <trkpt lat="40.422326" lon="8.406828"><ele>0</ele></trkpt>
      <trkpt lat="40.422164" lon="8.407053"><ele>0</ele></trkpt>
      <trkpt lat="40.421913" lon="8.407201"><ele>0</ele></trkpt>
      <trkpt lat="40.421749" lon="8.407227"><ele>0</ele></trkpt>
      <trkpt lat="40.420917" lon="8.407056"><ele>0</ele></trkpt>
      <trkpt lat="40.420702" lon="8.406941"><ele>0</ele></trkpt>
      <trkpt lat="40.420365" lon="8.406764"><ele>0</ele></trkpt>
      <trkpt lat="40.420275" lon="8.406732"><ele>0</ele></trkpt>
      <trkpt lat="40.420174" lon="8.406703"><ele>0</ele></trkpt>
      <trkpt lat="40.420104" lon="8.406684"><ele>0</ele></trkpt>
      <trkpt lat="40.419950" lon="8.406679"><ele>0</ele></trkpt>
      <trkpt lat="40.419827" lon="8.406701"><ele>0</ele></trkpt>
      <trkpt lat="40.419692" lon="8.406753"><ele>0</ele></trkpt>
      <trkpt lat="40.419274" lon="8.406952"><ele>0</ele></trkpt>
      <trkpt lat="40.419082" lon="8.406990"><ele>0</ele></trkpt>
      <trkpt lat="40.418947" lon="8.406963"><ele>0</ele></trkpt>
      <trkpt lat="40.418745" lon="8.406839"><ele>0</ele></trkpt>
      <trkpt lat="40.418575" lon="8.406760"><ele>0</ele></trkpt>
      <trkpt lat="40.418330" lon="8.406714"><ele>0</ele></trkpt>
      <trkpt lat="40.418107" lon="8.406708"><ele>0</ele></trkpt>
      <trkpt lat="40.417924" lon="8.406727"><ele>0</ele></trkpt>
      <trkpt lat="40.417748" lon="8.406793"><ele>0</ele></trkpt>
      <trkpt lat="40.417505" lon="8.406946"><ele>0</ele></trkpt>
      <trkpt lat="40.417318" lon="8.407138"><ele>0</ele></trkpt>
      <trkpt lat="40.417158" lon="8.407388"><ele>0</ele></trkpt>
      <trkpt lat="40.416980" lon="8.407820"><ele>0</ele></trkpt>
      <trkpt lat="40.416867" lon="8.408085"><ele>0</ele></trkpt>
      <trkpt lat="40.416796" lon="8.408197"><ele>0</ele></trkpt>
      <trkpt lat="40.416686" lon="8.408300"><ele>0</ele></trkpt>
      <trkpt lat="40.416594" lon="8.408337"><ele>0</ele></trkpt>
      <trkpt lat="40.416426" lon="8.408379"><ele>0</ele></trkpt>
      <trkpt lat="40.416216" lon="8.408371"><ele>0</ele></trkpt>
      <trkpt lat="40.415120" lon="8.408083"><ele>0</ele></trkpt>
      <trkpt lat="40.414636" lon="8.407936"><ele>0</ele></trkpt>
      <trkpt lat="40.414440" lon="8.407838"><ele>0</ele></trkpt>
      <trkpt lat="40.413945" lon="8.407498"><ele>0</ele></trkpt>
      <trkpt lat="40.413805" lon="8.407441"><ele>0</ele></trkpt>
      <trkpt lat="40.413531" lon="8.407426"><ele>0</ele></trkpt>
      <trkpt lat="40.412744" lon="8.407572"><ele>0</ele></trkpt>
      <trkpt lat="40.412433" lon="8.407615"><ele>0</ele></trkpt>
      <trkpt lat="40.412239" lon="8.407573"><ele>0</ele></trkpt>
      <trkpt lat="40.410779" lon="8.407028"><ele>0</ele></trkpt>
      <trkpt lat="40.410044" lon="8.406876"><ele>0</ele></trkpt>
      <trkpt lat="40.409668" lon="8.406823"><ele>0</ele></trkpt>
      <trkpt lat="40.409356" lon="8.406897"><ele>0</ele></trkpt>
      <trkpt lat="40.408067" lon="8.407668"><ele>0</ele></trkpt>
      <trkpt lat="40.407888" lon="8.407828"><ele>0</ele></trkpt>
      <trkpt lat="40.407719" lon="8.408031"><ele>0</ele></trkpt>
      <trkpt lat="40.407599" lon="8.408275"><ele>0</ele></trkpt>
      <trkpt lat="40.407540" lon="8.408503"><ele>0</ele></trkpt>
      <trkpt lat="40.407520" lon="8.408755"><ele>0</ele></trkpt>
      <trkpt lat="40.407538" lon="8.408994"><ele>0</ele></trkpt>
      <trkpt lat="40.407565" lon="8.409183"><ele>0</ele></trkpt>
      <trkpt lat="40.407655" lon="8.409465"><ele>0</ele></trkpt>
      <trkpt lat="40.407929" lon="8.410038"><ele>0</ele></trkpt>
      <trkpt lat="40.407992" lon="8.410348"><ele>0</ele></trkpt>
      <trkpt lat="40.408005" lon="8.410574"><ele>0</ele></trkpt>
      <trkpt lat="40.407976" lon="8.410832"><ele>0</ele></trkpt>
      <trkpt lat="40.407908" lon="8.411086"><ele>0</ele></trkpt>
      <trkpt lat="40.406977" lon="8.412887"><ele>0</ele></trkpt>
      <trkpt lat="40.406828" lon="8.413168"><ele>0</ele></trkpt>
      <trkpt lat="40.406690" lon="8.413328"><ele>0</ele></trkpt>
      <trkpt lat="40.406488" lon="8.413478"><ele>0</ele></trkpt>
      <trkpt lat="40.406344" lon="8.413528"><ele>0</ele></trkpt>
      <trkpt lat="40.406207" lon="8.413547"><ele>0</ele></trkpt>
      <trkpt lat="40.406006" lon="8.413537"><ele>0</ele></trkpt>
      <trkpt lat="40.405814" lon="8.413450"><ele>0</ele></trkpt>
      <trkpt lat="40.405655" lon="8.413313"><ele>0</ele></trkpt>
      <trkpt lat="40.405492" lon="8.413112"><ele>0</ele></trkpt>
      <trkpt lat="40.405296" lon="8.412859"><ele>0</ele></trkpt>
      <trkpt lat="40.404314" lon="8.411936"><ele>0</ele></trkpt>
      <trkpt lat="40.404136" lon="8.411751"><ele>0</ele></trkpt>
      <trkpt lat="40.403952" lon="8.411477"><ele>0</ele></trkpt>
      <trkpt lat="40.403827" lon="8.411181"><ele>0</ele></trkpt>
      <trkpt lat="40.403714" lon="8.410839"><ele>0</ele></trkpt>
      <trkpt lat="40.403356" lon="8.410075"><ele>0</ele></trkpt>
      <trkpt lat="40.403140" lon="8.409634"><ele>0</ele></trkpt>
      <trkpt lat="40.403044" lon="8.409499"><ele>0</ele></trkpt>
      <trkpt lat="40.402933" lon="8.409401"><ele>0</ele></trkpt>
      <trkpt lat="40.402511" lon="8.409089"><ele>0</ele></trkpt>
      <trkpt lat="40.402341" lon="8.409014"><ele>0</ele></trkpt>
      <trkpt lat="40.402192" lon="8.409003"><ele>0</ele></trkpt>
      <trkpt lat="40.402048" lon="8.409047"><ele>0</ele></trkpt>
      <trkpt lat="40.401871" lon="8.409171"><ele>0</ele></trkpt>
      <trkpt lat="40.401697" lon="8.409370"><ele>0</ele></trkpt>
      <trkpt lat="40.401160" lon="8.409987"><ele>0</ele></trkpt>
      <trkpt lat="40.401094" lon="8.410059"><ele>0</ele></trkpt>
      <trkpt lat="40.400488" lon="8.410718"><ele>0</ele></trkpt>
      <trkpt lat="40.400352" lon="8.410845"><ele>0</ele></trkpt>
      <trkpt lat="40.400229" lon="8.410982"><ele>0</ele></trkpt>
      <trkpt lat="40.400074" lon="8.411077"><ele>0</ele></trkpt>
      <trkpt lat="40.399884" lon="8.411099"><ele>0</ele></trkpt>
      <trkpt lat="40.399321" lon="8.411054"><ele>0</ele></trkpt>
      <trkpt lat="40.399025" lon="8.410967"><ele>0</ele></trkpt>
      <trkpt lat="40.398836" lon="8.410833"><ele>0</ele></trkpt>
      <trkpt lat="40.398692" lon="8.410642"><ele>0</ele></trkpt>
      <trkpt lat="40.398562" lon="8.410435"><ele>0</ele></trkpt>
      <trkpt lat="40.398154" lon="8.409770"><ele>0</ele></trkpt>
      <trkpt lat="40.398016" lon="8.409538"><ele>0</ele></trkpt>
      <trkpt lat="40.397949" lon="8.409334"><ele>0</ele></trkpt>
      <trkpt lat="40.397902" lon="8.409099"><ele>0</ele></trkpt>
      <trkpt lat="40.397896" lon="8.408835"><ele>0</ele></trkpt>
      <trkpt lat="40.397914" lon="8.408669"><ele>0</ele></trkpt>
      <trkpt lat="40.398016" lon="8.408417"><ele>0</ele></trkpt>
      <trkpt lat="40.398141" lon="8.408254"><ele>0</ele></trkpt>
      <trkpt lat="40.398313" lon="8.408077"><ele>0</ele></trkpt>
      <trkpt lat="40.398873" lon="8.407717"><ele>0</ele></trkpt>
      <trkpt lat="40.399019" lon="8.407581"><ele>0</ele></trkpt>
      <trkpt lat="40.399119" lon="8.407376"><ele>0</ele></trkpt>
      <trkpt lat="40.399177" lon="8.407178"><ele>0</ele></trkpt>
      <trkpt lat="40.399209" lon="8.407033"><ele>0</ele></trkpt>
      <trkpt lat="40.399217" lon="8.406751"><ele>0</ele></trkpt>
      <trkpt lat="40.399156" lon="8.406241"><ele>0</ele></trkpt>
      <trkpt lat="40.398991" lon="8.405426"><ele>0</ele></trkpt>
      <trkpt lat="40.398862" lon="8.404793"><ele>0</ele></trkpt>
      <trkpt lat="40.398793" lon="8.404235"><ele>0</ele></trkpt>
      <trkpt lat="40.398703" lon="8.403887"><ele>0</ele></trkpt>
      <trkpt lat="40.398545" lon="8.403618"><ele>0</ele></trkpt>
      <trkpt lat="40.398349" lon="8.403439"><ele>0</ele></trkpt>
      <trkpt lat="40.398114" lon="8.403294"><ele>0</ele></trkpt>
      <trkpt lat="40.397871" lon="8.403251"><ele>0</ele></trkpt>
      <trkpt lat="40.397549" lon="8.403248"><ele>0</ele></trkpt>
      <trkpt lat="40.397222" lon="8.403366"><ele>0</ele></trkpt>
      <trkpt lat="40.396934" lon="8.403613"><ele>0</ele></trkpt>
      <trkpt lat="40.396717" lon="8.403916"><ele>0</ele></trkpt>
      <trkpt lat="40.396513" lon="8.404251"><ele>0</ele></trkpt>
      <trkpt lat="40.396325" lon="8.404616"><ele>0</ele></trkpt>
      <trkpt lat="40.396129" lon="8.404823"><ele>0</ele></trkpt>
      <trkpt lat="40.395995" lon="8.404901"><ele>0</ele></trkpt>
      <trkpt lat="40.395822" lon="8.404939"><ele>0</ele></trkpt>
      <trkpt lat="40.395577" lon="8.404898"><ele>0</ele></trkpt>
      <trkpt lat="40.395394" lon="8.404836"><ele>0</ele></trkpt>
      <trkpt lat="40.395148" lon="8.404825"><ele>0</ele></trkpt>
      <trkpt lat="40.394209" lon="8.404855"><ele>0</ele></trkpt>
      <trkpt lat="40.393951" lon="8.404864"><ele>0</ele></trkpt>
      <trkpt lat="40.393503" lon="8.404892"><ele>0</ele></trkpt>
      <trkpt lat="40.393188" lon="8.404907"><ele>0</ele></trkpt>
      <trkpt lat="40.392951" lon="8.404898"><ele>0</ele></trkpt>
      <trkpt lat="40.392712" lon="8.404824"><ele>0</ele></trkpt>
      <trkpt lat="40.392341" lon="8.404680"><ele>0</ele></trkpt>
      <trkpt lat="40.391835" lon="8.404461"><ele>0</ele></trkpt>
      <trkpt lat="40.391680" lon="8.404413"><ele>0</ele></trkpt>
      <trkpt lat="40.391529" lon="8.404410"><ele>0</ele></trkpt>
      <trkpt lat="40.391353" lon="8.404468"><ele>0</ele></trkpt>
      <trkpt lat="40.391201" lon="8.404555"><ele>0</ele></trkpt>
      <trkpt lat="40.391090" lon="8.404739"><ele>0</ele></trkpt>
      <trkpt lat="40.390991" lon="8.404861"><ele>0</ele></trkpt>
      <trkpt lat="40.390897" lon="8.404951"><ele>0</ele></trkpt>
      <trkpt lat="40.390750" lon="8.405040"><ele>0</ele></trkpt>
      <trkpt lat="40.390606" lon="8.405058"><ele>0</ele></trkpt>
      <trkpt lat="40.390441" lon="8.405037"><ele>0</ele></trkpt>
      <trkpt lat="40.390311" lon="8.404992"><ele>0</ele></trkpt>
      <trkpt lat="40.390184" lon="8.404893"><ele>0</ele></trkpt>
      <trkpt lat="40.390072" lon="8.404729"><ele>0</ele></trkpt>
      <trkpt lat="40.390021" lon="8.404630"><ele>0</ele></trkpt>
      <trkpt lat="40.389956" lon="8.404413"><ele>0</ele></trkpt>
      <trkpt lat="40.389924" lon="8.404105"><ele>0</ele></trkpt>
      <trkpt lat="40.389957" lon="8.403519"><ele>0</ele></trkpt>
      <trkpt lat="40.389940" lon="8.403324"><ele>0</ele></trkpt>
      <trkpt lat="40.389895" lon="8.403171"><ele>0</ele></trkpt>
      <trkpt lat="40.389809" lon="8.403037"><ele>0</ele></trkpt>
      <trkpt lat="40.389733" lon="8.402972"><ele>0</ele></trkpt>
      <trkpt lat="40.389636" lon="8.402890"><ele>0</ele></trkpt>
      <trkpt lat="40.389456" lon="8.402809"><ele>0</ele></trkpt>
      <trkpt lat="40.389203" lon="8.402778"><ele>0</ele></trkpt>
      <trkpt lat="40.388397" lon="8.402759"><ele>0</ele></trkpt>
      <trkpt lat="40.387521" lon="8.402742"><ele>0</ele></trkpt>
      <trkpt lat="40.387074" lon="8.402733"><ele>0</ele></trkpt>
      <trkpt lat="40.386669" lon="8.402784"><ele>0</ele></trkpt>
      <trkpt lat="40.385521" lon="8.402914"><ele>0</ele></trkpt>
      <trkpt lat="40.385192" lon="8.402963"><ele>0</ele></trkpt>
      <trkpt lat="40.385058" lon="8.403026"><ele>0</ele></trkpt>
      <trkpt lat="40.384932" lon="8.403177"><ele>0</ele></trkpt>
      <trkpt lat="40.384806" lon="8.403439"><ele>0</ele></trkpt>
      <trkpt lat="40.384538" lon="8.404110"><ele>0</ele></trkpt>
      <trkpt lat="40.384434" lon="8.404275"><ele>0</ele></trkpt>
      <trkpt lat="40.384279" lon="8.404429"><ele>0</ele></trkpt>
      <trkpt lat="40.384132" lon="8.404512"><ele>0</ele></trkpt>
      <trkpt lat="40.383991" lon="8.404545"><ele>0</ele></trkpt>
      <trkpt lat="40.383888" lon="8.404538"><ele>0</ele></trkpt>
      <trkpt lat="40.383794" lon="8.404519"><ele>0</ele></trkpt>
      <trkpt lat="40.383617" lon="8.404435"><ele>0</ele></trkpt>
      <trkpt lat="40.383488" lon="8.404314"><ele>0</ele></trkpt>
      <trkpt lat="40.383307" lon="8.404009"><ele>0</ele></trkpt>
      <trkpt lat="40.383208" lon="8.403846"><ele>0</ele></trkpt>
      <trkpt lat="40.383128" lon="8.403756"><ele>0</ele></trkpt>
      <trkpt lat="40.382929" lon="8.403646"><ele>0</ele></trkpt>
      <trkpt lat="40.382734" lon="8.403607"><ele>0</ele></trkpt>
      <trkpt lat="40.382580" lon="8.403628"><ele>0</ele></trkpt>
      <trkpt lat="40.382409" lon="8.403713"><ele>0</ele></trkpt>
      <trkpt lat="40.382287" lon="8.403835"><ele>0</ele></trkpt>
      <trkpt lat="40.382180" lon="8.403994"><ele>0</ele></trkpt>
      <trkpt lat="40.381479" lon="8.405405"><ele>0</ele></trkpt>
      <trkpt lat="40.381174" lon="8.406107"><ele>0</ele></trkpt>
      <trkpt lat="40.380837" lon="8.407013"><ele>0</ele></trkpt>
      <trkpt lat="40.380722" lon="8.407279"><ele>0</ele></trkpt>
      <trkpt lat="40.380645" lon="8.407377"><ele>0</ele></trkpt>
      <trkpt lat="40.380545" lon="8.407480"><ele>0</ele></trkpt>
      <trkpt lat="40.380325" lon="8.407567"><ele>0</ele></trkpt>
      <trkpt lat="40.380203" lon="8.407575"><ele>0</ele></trkpt>
      <trkpt lat="40.380065" lon="8.407548"><ele>0</ele></trkpt>
      <trkpt lat="40.379958" lon="8.407486"><ele>0</ele></trkpt>
      <trkpt lat="40.379827" lon="8.407367"><ele>0</ele></trkpt>
      <trkpt lat="40.379351" lon="8.406664"><ele>0</ele></trkpt>
      <trkpt lat="40.379228" lon="8.406483"><ele>0</ele></trkpt>
      <trkpt lat="40.379025" lon="8.406321"><ele>0</ele></trkpt>
      <trkpt lat="40.378656" lon="8.406241"><ele>0</ele></trkpt>
      <trkpt lat="40.378552" lon="8.406222"><ele>0</ele></trkpt>
      <trkpt lat="40.378423" lon="8.406172"><ele>0</ele></trkpt>
      <trkpt lat="40.378226" lon="8.405994"><ele>0</ele></trkpt>
      <trkpt lat="40.378139" lon="8.405858"><ele>0</ele></trkpt>
      <trkpt lat="40.378048" lon="8.405608"><ele>0</ele></trkpt>
      <trkpt lat="40.377957" lon="8.405324"><ele>0</ele></trkpt>
      <trkpt lat="40.377836" lon="8.404770"><ele>0</ele></trkpt>
      <trkpt lat="40.377741" lon="8.404510"><ele>0</ele></trkpt>
      <trkpt lat="40.377592" lon="8.404277"><ele>0</ele></trkpt>
      <trkpt lat="40.377322" lon="8.404124"><ele>0</ele></trkpt>
      <trkpt lat="40.376809" lon="8.404076"><ele>0</ele></trkpt>
      <trkpt lat="40.376015" lon="8.404071"><ele>0</ele></trkpt>
      <trkpt lat="40.375760" lon="8.404133"><ele>0</ele></trkpt>
      <trkpt lat="40.375617" lon="8.404230"><ele>0</ele></trkpt>
      <trkpt lat="40.375453" lon="8.404399"><ele>0</ele></trkpt>
      <trkpt lat="40.375359" lon="8.404589"><ele>0</ele></trkpt>
      <trkpt lat="40.375266" lon="8.404858"><ele>0</ele></trkpt>
      <trkpt lat="40.375161" lon="8.405079"><ele>0</ele></trkpt>
      <trkpt lat="40.375075" lon="8.405187"><ele>0</ele></trkpt>
      <trkpt lat="40.374960" lon="8.405269"><ele>0</ele></trkpt>
      <trkpt lat="40.374761" lon="8.405338"><ele>0</ele></trkpt>
      <trkpt lat="40.374647" lon="8.405338"><ele>0</ele></trkpt>
      <trkpt lat="40.374373" lon="8.405283"><ele>0</ele></trkpt>
      <trkpt lat="40.373628" lon="8.405138"><ele>0</ele></trkpt>
      <trkpt lat="40.373396" lon="8.405067"><ele>0</ele></trkpt>
      <trkpt lat="40.373169" lon="8.404921"><ele>0</ele></trkpt>
      <trkpt lat="40.373044" lon="8.404702"><ele>0</ele></trkpt>
      <trkpt lat="40.372969" lon="8.404447"><ele>0</ele></trkpt>
      <trkpt lat="40.372961" lon="8.404088"><ele>0</ele></trkpt>
      <trkpt lat="40.373008" lon="8.403586"><ele>0</ele></trkpt>
      <trkpt lat="40.372994" lon="8.403298"><ele>0</ele></trkpt>
      <trkpt lat="40.372952" lon="8.402918"><ele>0</ele></trkpt>
      <trkpt lat="40.372859" lon="8.402502"><ele>0</ele></trkpt>
      <trkpt lat="40.372641" lon="8.402168"><ele>0</ele></trkpt>
      <trkpt lat="40.372581" lon="8.402133"><ele>0</ele></trkpt>
      <trkpt lat="40.372398" lon="8.402056"><ele>0</ele></trkpt>
      <trkpt lat="40.370273" lon="8.401790"><ele>0</ele></trkpt>
      <trkpt lat="40.368941" lon="8.401649"><ele>0</ele></trkpt>
      <trkpt lat="40.367943" lon="8.401700"><ele>0</ele></trkpt>
      <trkpt lat="40.367630" lon="8.401649"><ele>0</ele></trkpt>
      <trkpt lat="40.366925" lon="8.401305"><ele>0</ele></trkpt>
      <trkpt lat="40.366682" lon="8.401238"><ele>0</ele></trkpt>
      <trkpt lat="40.366409" lon="8.401291"><ele>0</ele></trkpt>
      <trkpt lat="40.366243" lon="8.401447"><ele>0</ele></trkpt>
      <trkpt lat="40.366117" lon="8.401674"><ele>0</ele></trkpt>
      <trkpt lat="40.366009" lon="8.401798"><ele>0</ele></trkpt>
      <trkpt lat="40.365741" lon="8.401928"><ele>0</ele></trkpt>
      <trkpt lat="40.365157" lon="8.401993"><ele>0</ele></trkpt>
      <trkpt lat="40.364980" lon="8.402073"><ele>0</ele></trkpt>
      <trkpt lat="40.364831" lon="8.402178"><ele>0</ele></trkpt>
      <trkpt lat="40.364719" lon="8.402395"><ele>0</ele></trkpt>
      <trkpt lat="40.364662" lon="8.402599"><ele>0</ele></trkpt>
      <trkpt lat="40.364637" lon="8.402835"><ele>0</ele></trkpt>
      <trkpt lat="40.364661" lon="8.403016"><ele>0</ele></trkpt>
      <trkpt lat="40.364736" lon="8.403223"><ele>0</ele></trkpt>
      <trkpt lat="40.364866" lon="8.403379"><ele>0</ele></trkpt>
      <trkpt lat="40.365148" lon="8.403558"><ele>0</ele></trkpt>
      <trkpt lat="40.365716" lon="8.403833"><ele>0</ele></trkpt>
      <trkpt lat="40.365921" lon="8.403983"><ele>0</ele></trkpt>
      <trkpt lat="40.366084" lon="8.404176"><ele>0</ele></trkpt>
      <trkpt lat="40.366526" lon="8.404744"><ele>0</ele></trkpt>
      <trkpt lat="40.366707" lon="8.404913"><ele>0</ele></trkpt>
      <trkpt lat="40.366885" lon="8.405056"><ele>0</ele></trkpt>
      <trkpt lat="40.367091" lon="8.405185"><ele>0</ele></trkpt>
      <trkpt lat="40.367188" lon="8.405281"><ele>0</ele></trkpt>
      <trkpt lat="40.367311" lon="8.405477"><ele>0</ele></trkpt>
      <trkpt lat="40.367351" lon="8.405656"><ele>0</ele></trkpt>
      <trkpt lat="40.367371" lon="8.405926"><ele>0</ele></trkpt>
      <trkpt lat="40.367324" lon="8.406129"><ele>0</ele></trkpt>
      <trkpt lat="40.367253" lon="8.406279"><ele>0</ele></trkpt>
      <trkpt lat="40.366724" lon="8.407129"><ele>0</ele></trkpt>
      <trkpt lat="40.366461" lon="8.407544"><ele>0</ele></trkpt>
      <trkpt lat="40.366357" lon="8.407820"><ele>0</ele></trkpt>
      <trkpt lat="40.366318" lon="8.408146"><ele>0</ele></trkpt>
      <trkpt lat="40.366374" lon="8.409068"><ele>0</ele></trkpt>
      <trkpt lat="40.366342" lon="8.409368"><ele>0</ele></trkpt>
      <trkpt lat="40.366249" lon="8.409644"><ele>0</ele></trkpt>
      <trkpt lat="40.366098" lon="8.409868"><ele>0</ele></trkpt>
      <trkpt lat="40.365899" lon="8.410029"><ele>0</ele></trkpt>
      <trkpt lat="40.365643" lon="8.410167"><ele>0</ele></trkpt>
      <trkpt lat="40.365097" lon="8.410472"><ele>0</ele></trkpt>
      <trkpt lat="40.364897" lon="8.410609"><ele>0</ele></trkpt>
      <trkpt lat="40.364757" lon="8.410748"><ele>0</ele></trkpt>
      <trkpt lat="40.364400" lon="8.411229"><ele>0</ele></trkpt>
      <trkpt lat="40.364124" lon="8.411617"><ele>0</ele></trkpt>
      <trkpt lat="40.363263" lon="8.412807"><ele>0</ele></trkpt>
      <trkpt lat="40.362215" lon="8.414283"><ele>0</ele></trkpt>
      <trkpt lat="40.361270" lon="8.415592"><ele>0</ele></trkpt>
      <trkpt lat="40.360531" lon="8.416629"><ele>0</ele></trkpt>
      <trkpt lat="40.360313" lon="8.417003"><ele>0</ele></trkpt>
      <trkpt lat="40.359499" lon="8.418658"><ele>0</ele></trkpt>
      <trkpt lat="40.358470" lon="8.420758"><ele>0</ele></trkpt>
      <trkpt lat="40.358369" lon="8.420895"><ele>0</ele></trkpt>
      <trkpt lat="40.358271" lon="8.420998"><ele>0</ele></trkpt>
      <trkpt lat="40.358017" lon="8.421169"><ele>0</ele></trkpt>
      <trkpt lat="40.357815" lon="8.421217"><ele>0</ele></trkpt>
      <trkpt lat="40.357522" lon="8.421227"><ele>0</ele></trkpt>
      <trkpt lat="40.357400" lon="8.421225"><ele>0</ele></trkpt>
      <trkpt lat="40.357215" lon="8.421246"><ele>0</ele></trkpt>
      <trkpt lat="40.357056" lon="8.421330"><ele>0</ele></trkpt>
      <trkpt lat="40.356858" lon="8.421459"><ele>0</ele></trkpt>
      <trkpt lat="40.356654" lon="8.421661"><ele>0</ele></trkpt>
      <trkpt lat="40.356489" lon="8.421900"><ele>0</ele></trkpt>
      <trkpt lat="40.356358" lon="8.422123"><ele>0</ele></trkpt>
      <trkpt lat="40.355433" lon="8.423775"><ele>0</ele></trkpt>
      <trkpt lat="40.354397" lon="8.425675"><ele>0</ele></trkpt>
      <trkpt lat="40.352279" lon="8.429531"><ele>0</ele></trkpt>
      <trkpt lat="40.352166" lon="8.429698"><ele>0</ele></trkpt>
      <trkpt lat="40.351995" lon="8.429833"><ele>0</ele></trkpt>
      <trkpt lat="40.351902" lon="8.429889"><ele>0</ele></trkpt>
      <trkpt lat="40.351737" lon="8.429944"><ele>0</ele></trkpt>
      <trkpt lat="40.351560" lon="8.429968"><ele>0</ele></trkpt>
      <trkpt lat="40.351366" lon="8.429966"><ele>0</ele></trkpt>
      <trkpt lat="40.351024" lon="8.429902"><ele>0</ele></trkpt>
      <trkpt lat="40.349387" lon="8.429558"><ele>0</ele></trkpt>
      <trkpt lat="40.349213" lon="8.429526"><ele>0</ele></trkpt>
      <trkpt lat="40.349051" lon="8.429474"><ele>0</ele></trkpt>
      <trkpt lat="40.348837" lon="8.429282"><ele>0</ele></trkpt>
      <trkpt lat="40.348746" lon="8.429157"><ele>0</ele></trkpt>
      <trkpt lat="40.348622" lon="8.428910"><ele>0</ele></trkpt>
      <trkpt lat="40.348513" lon="8.428557"><ele>0</ele></trkpt>
      <trkpt lat="40.348128" lon="8.427410"><ele>0</ele></trkpt>
      <trkpt lat="40.347578" lon="8.426247"><ele>0</ele></trkpt>
      <trkpt lat="40.347302" lon="8.425785"><ele>0</ele></trkpt>
      <trkpt lat="40.345432" lon="8.423072"><ele>0</ele></trkpt>
      <trkpt lat="40.345216" lon="8.422876"><ele>0</ele></trkpt>
      <trkpt lat="40.345067" lon="8.422812"><ele>0</ele></trkpt>
      <trkpt lat="40.344920" lon="8.422794"><ele>0</ele></trkpt>
      <trkpt lat="40.344730" lon="8.422816"><ele>0</ele></trkpt>
      <trkpt lat="40.344510" lon="8.422875"><ele>0</ele></trkpt>
      <trkpt lat="40.344213" lon="8.423046"><ele>0</ele></trkpt>
      <trkpt lat="40.343968" lon="8.423217"><ele>0</ele></trkpt>
      <trkpt lat="40.343721" lon="8.423481"><ele>0</ele></trkpt>
      <trkpt lat="40.343638" lon="8.423654"><ele>0</ele></trkpt>
      <trkpt lat="40.343596" lon="8.423865"><ele>0</ele></trkpt>
      <trkpt lat="40.343534" lon="8.424674"><ele>0</ele></trkpt>
      <trkpt lat="40.343610" lon="8.425173"><ele>0</ele></trkpt>
      <trkpt lat="40.343809" lon="8.425646"><ele>0</ele></trkpt>
      <trkpt lat="40.343929" lon="8.425981"><ele>0</ele></trkpt>
      <trkpt lat="40.343976" lon="8.426244"><ele>0</ele></trkpt>
      <trkpt lat="40.343964" lon="8.426442"><ele>0</ele></trkpt>
      <trkpt lat="40.343806" lon="8.427038"><ele>0</ele></trkpt>
      <trkpt lat="40.343657" lon="8.427391"><ele>0</ele></trkpt>
      <trkpt lat="40.343542" lon="8.427574"><ele>0</ele></trkpt>
      <trkpt lat="40.343430" lon="8.427668"><ele>0</ele></trkpt>
      <trkpt lat="40.343228" lon="8.427788"><ele>0</ele></trkpt>
      <trkpt lat="40.342565" lon="8.428022"><ele>0</ele></trkpt>
      <trkpt lat="40.342380" lon="8.428125"><ele>0</ele></trkpt>
      <trkpt lat="40.342212" lon="8.428279"><ele>0</ele></trkpt>
      <trkpt lat="40.341958" lon="8.428575"><ele>0</ele></trkpt>
      <trkpt lat="40.341813" lon="8.428805"><ele>0</ele></trkpt>
      <trkpt lat="40.341712" lon="8.428936"><ele>0</ele></trkpt>
      <trkpt lat="40.341621" lon="8.429009"><ele>0</ele></trkpt>
      <trkpt lat="40.341451" lon="8.429069"><ele>0</ele></trkpt>
      <trkpt lat="40.341285" lon="8.429067"><ele>0</ele></trkpt>
      <trkpt lat="40.341191" lon="8.429046"><ele>0</ele></trkpt>
      <trkpt lat="40.340799" lon="8.428890"><ele>0</ele></trkpt>
      <trkpt lat="40.340603" lon="8.428833"><ele>0</ele></trkpt>
      <trkpt lat="40.340418" lon="8.428860"><ele>0</ele></trkpt>
      <trkpt lat="40.340238" lon="8.428949"><ele>0</ele></trkpt>
      <trkpt lat="40.340075" lon="8.429121"><ele>0</ele></trkpt>
      <trkpt lat="40.339990" lon="8.429360"><ele>0</ele></trkpt>
      <trkpt lat="40.339972" lon="8.429693"><ele>0</ele></trkpt>
      <trkpt lat="40.340101" lon="8.430508"><ele>0</ele></trkpt>
      <trkpt lat="40.340107" lon="8.430676"><ele>0</ele></trkpt>
      <trkpt lat="40.340083" lon="8.430883"><ele>0</ele></trkpt>
      <trkpt lat="40.340037" lon="8.431028"><ele>0</ele></trkpt>
      <trkpt lat="40.339928" lon="8.431191"><ele>0</ele></trkpt>
      <trkpt lat="40.339819" lon="8.431287"><ele>0</ele></trkpt>
      <trkpt lat="40.339681" lon="8.431338"><ele>0</ele></trkpt>
      <trkpt lat="40.339354" lon="8.431366"><ele>0</ele></trkpt>
      <trkpt lat="40.339223" lon="8.431362"><ele>0</ele></trkpt>
      <trkpt lat="40.339057" lon="8.431350"><ele>0</ele></trkpt>
      <trkpt lat="40.338882" lon="8.431281"><ele>0</ele></trkpt>
      <trkpt lat="40.338733" lon="8.431123"><ele>0</ele></trkpt>
      <trkpt lat="40.338311" lon="8.430559"><ele>0</ele></trkpt>
      <trkpt lat="40.338104" lon="8.430303"><ele>0</ele></trkpt>
      <trkpt lat="40.337886" lon="8.430078"><ele>0</ele></trkpt>
      <trkpt lat="40.337744" lon="8.429940"><ele>0</ele></trkpt>
      <trkpt lat="40.337635" lon="8.429857"><ele>0</ele></trkpt>
      <trkpt lat="40.337481" lon="8.429788"><ele>0</ele></trkpt>
      <trkpt lat="40.337369" lon="8.429752"><ele>0</ele></trkpt>
      <trkpt lat="40.337244" lon="8.429743"><ele>0</ele></trkpt>
      <trkpt lat="40.337076" lon="8.429774"><ele>0</ele></trkpt>
      <trkpt lat="40.336236" lon="8.430031"><ele>0</ele></trkpt>
      <trkpt lat="40.336067" lon="8.430107"><ele>0</ele></trkpt>
      <trkpt lat="40.335886" lon="8.430249"><ele>0</ele></trkpt>
      <trkpt lat="40.335696" lon="8.430554"><ele>0</ele></trkpt>
      <trkpt lat="40.335002" lon="8.432226"><ele>0</ele></trkpt>
      <trkpt lat="40.334898" lon="8.432546"><ele>0</ele></trkpt>
      <trkpt lat="40.334842" lon="8.432883"><ele>0</ele></trkpt>
      <trkpt lat="40.334831" lon="8.433158"><ele>0</ele></trkpt>
      <trkpt lat="40.334793" lon="8.433324"><ele>0</ele></trkpt>
      <trkpt lat="40.334764" lon="8.433413"><ele>0</ele></trkpt>
      <trkpt lat="40.334709" lon="8.433525"><ele>0</ele></trkpt>
      <trkpt lat="40.334592" lon="8.433667"><ele>0</ele></trkpt>
      <trkpt lat="40.334480" lon="8.433768"><ele>0</ele></trkpt>
      <trkpt lat="40.333890" lon="8.434302"><ele>0</ele></trkpt>
      <trkpt lat="40.333402" lon="8.434747"><ele>0</ele></trkpt>
      <trkpt lat="40.333211" lon="8.434951"><ele>0</ele></trkpt>
      <trkpt lat="40.333031" lon="8.435158"><ele>0</ele></trkpt>
      <trkpt lat="40.332729" lon="8.435527"><ele>0</ele></trkpt>
      <trkpt lat="40.332419" lon="8.435897"><ele>0</ele></trkpt>
      <trkpt lat="40.331942" lon="8.436493"><ele>0</ele></trkpt>
      <trkpt lat="40.331762" lon="8.436668"><ele>0</ele></trkpt>
      <trkpt lat="40.331620" lon="8.436763"><ele>0</ele></trkpt>
      <trkpt lat="40.331344" lon="8.436878"><ele>0</ele></trkpt>
      <trkpt lat="40.331069" lon="8.436885"><ele>0</ele></trkpt>
      <trkpt lat="40.330840" lon="8.436848"><ele>0</ele></trkpt>
      <trkpt lat="40.330650" lon="8.436771"><ele>0</ele></trkpt>
      <trkpt lat="40.330479" lon="8.436640"><ele>0</ele></trkpt>
      <trkpt lat="40.329970" lon="8.436179"><ele>0</ele></trkpt>
      <trkpt lat="40.329800" lon="8.436062"><ele>0</ele></trkpt>
      <trkpt lat="40.329607" lon="8.435995"><ele>0</ele></trkpt>
      <trkpt lat="40.329404" lon="8.435980"><ele>0</ele></trkpt>
      <trkpt lat="40.329171" lon="8.436037"><ele>0</ele></trkpt>
      <trkpt lat="40.328961" lon="8.436199"><ele>0</ele></trkpt>
      <trkpt lat="40.328759" lon="8.436459"><ele>0</ele></trkpt>
      <trkpt lat="40.328626" lon="8.436666"><ele>0</ele></trkpt>
      <trkpt lat="40.328052" lon="8.437503"><ele>0</ele></trkpt>
      <trkpt lat="40.327670" lon="8.438086"><ele>0</ele></trkpt>
      <trkpt lat="40.326936" lon="8.439571"><ele>0</ele></trkpt>
      <trkpt lat="40.326841" lon="8.439784"><ele>0</ele></trkpt>
      <trkpt lat="40.326806" lon="8.439933"><ele>0</ele></trkpt>
      <trkpt lat="40.326766" lon="8.440444"><ele>0</ele></trkpt>
      <trkpt lat="40.326732" lon="8.440878"><ele>0</ele></trkpt>
      <trkpt lat="40.326660" lon="8.441969"><ele>0</ele></trkpt>
      <trkpt lat="40.326634" lon="8.442437"><ele>0</ele></trkpt>
      <trkpt lat="40.326647" lon="8.442604"><ele>0</ele></trkpt>
      <trkpt lat="40.326866" lon="8.443784"><ele>0</ele></trkpt>
      <trkpt lat="40.327095" lon="8.444962"><ele>0</ele></trkpt>
      <trkpt lat="40.327119" lon="8.445128"><ele>0</ele></trkpt>
      <trkpt lat="40.327113" lon="8.445312"><ele>0</ele></trkpt>
      <trkpt lat="40.327065" lon="8.445594"><ele>0</ele></trkpt>
      <trkpt lat="40.326916" lon="8.446080"><ele>0</ele></trkpt>
      <trkpt lat="40.326875" lon="8.446217"><ele>0</ele></trkpt>
      <trkpt lat="40.326670" lon="8.446885"><ele>0</ele></trkpt>
      <trkpt lat="40.326162" lon="8.448524"><ele>0</ele></trkpt>
      <trkpt lat="40.326108" lon="8.448783"><ele>0</ele></trkpt>
      <trkpt lat="40.326096" lon="8.449118"><ele>0</ele></trkpt>
      <trkpt lat="40.326096" lon="8.449447"><ele>0</ele></trkpt>
      <trkpt lat="40.326097" lon="8.450802"><ele>0</ele></trkpt>
      <trkpt lat="40.326077" lon="8.450976"><ele>0</ele></trkpt>
      <trkpt lat="40.326029" lon="8.451111"><ele>0</ele></trkpt>
      <trkpt lat="40.325946" lon="8.451227"><ele>0</ele></trkpt>
      <trkpt lat="40.325894" lon="8.451267"><ele>0</ele></trkpt>
      <trkpt lat="40.325830" lon="8.451314"><ele>0</ele></trkpt>
      <trkpt lat="40.325593" lon="8.451438"><ele>0</ele></trkpt>
      <trkpt lat="40.324940" lon="8.451789"><ele>0</ele></trkpt>
      <trkpt lat="40.324112" lon="8.452172"><ele>0</ele></trkpt>
      <trkpt lat="40.324032" lon="8.452266"><ele>0</ele></trkpt>
      <trkpt lat="40.323883" lon="8.452530"><ele>0</ele></trkpt>
      <trkpt lat="40.323716" lon="8.452912"><ele>0</ele></trkpt>
      <trkpt lat="40.323427" lon="8.454122"><ele>0</ele></trkpt>
      <trkpt lat="40.323265" lon="8.454757"><ele>0</ele></trkpt>
      <trkpt lat="40.323152" lon="8.455089"><ele>0</ele></trkpt>
      <trkpt lat="40.323073" lon="8.455271"><ele>0</ele></trkpt>
      <trkpt lat="40.322785" lon="8.455639"><ele>0</ele></trkpt>
      <trkpt lat="40.322566" lon="8.455899"><ele>0</ele></trkpt>
      <trkpt lat="40.322494" lon="8.455992"><ele>0</ele></trkpt>
      <trkpt lat="40.322277" lon="8.456276"><ele>0</ele></trkpt>
      <trkpt lat="40.321968" lon="8.456533"><ele>0</ele></trkpt>
      <trkpt lat="40.321736" lon="8.456721"><ele>0</ele></trkpt>
      <trkpt lat="40.321612" lon="8.456915"><ele>0</ele></trkpt>
      <trkpt lat="40.321327" lon="8.457559"><ele>0</ele></trkpt>
      <trkpt lat="40.321240" lon="8.457883"><ele>0</ele></trkpt>
      <trkpt lat="40.321176" lon="8.458056"><ele>0</ele></trkpt>
      <trkpt lat="40.321026" lon="8.458275"><ele>0</ele></trkpt>
      <trkpt lat="40.320902" lon="8.458468"><ele>0</ele></trkpt>
      <trkpt lat="40.320617" lon="8.459192"><ele>0</ele></trkpt>
      <trkpt lat="40.320479" lon="8.459566"><ele>0</ele></trkpt>
      <trkpt lat="40.320387" lon="8.459726"><ele>0</ele></trkpt>
      <trkpt lat="40.320197" lon="8.459894"><ele>0</ele></trkpt>
      <trkpt lat="40.319988" lon="8.460088"><ele>0</ele></trkpt>
      <trkpt lat="40.319918" lon="8.460187"><ele>0</ele></trkpt>
      <trkpt lat="40.319689" lon="8.460708"><ele>0</ele></trkpt>
      <trkpt lat="40.319599" lon="8.460960"><ele>0</ele></trkpt>
      <trkpt lat="40.319461" lon="8.461343"><ele>0</ele></trkpt>
      <trkpt lat="40.319270" lon="8.461978"><ele>0</ele></trkpt>
      <trkpt lat="40.319162" lon="8.462321"><ele>0</ele></trkpt>
      <trkpt lat="40.318843" lon="8.463019"><ele>0</ele></trkpt>
      <trkpt lat="40.318821" lon="8.463072"><ele>0</ele></trkpt>
      <trkpt lat="40.318698" lon="8.463363"><ele>0</ele></trkpt>
      <trkpt lat="40.318600" lon="8.463755"><ele>0</ele></trkpt>
      <trkpt lat="40.318462" lon="8.464668"><ele>0</ele></trkpt>
      <trkpt lat="40.318368" lon="8.465294"><ele>0</ele></trkpt>
      <trkpt lat="40.318320" lon="8.465648"><ele>0</ele></trkpt>
      <trkpt lat="40.318214" lon="8.466178"><ele>0</ele></trkpt>
      <trkpt lat="40.317916" lon="8.466968"><ele>0</ele></trkpt>
      <trkpt lat="40.317645" lon="8.467661"><ele>0</ele></trkpt>
      <trkpt lat="40.317477" lon="8.468301"><ele>0</ele></trkpt>
      <trkpt lat="40.317346" lon="8.468877"><ele>0</ele></trkpt>
      <trkpt lat="40.316955" lon="8.470566"><ele>0</ele></trkpt>
      <trkpt lat="40.316783" lon="8.471333"><ele>0</ele></trkpt>
      <trkpt lat="40.316774" lon="8.471581"><ele>0</ele></trkpt>
      <trkpt lat="40.316823" lon="8.471945"><ele>0</ele></trkpt>
      <trkpt lat="40.316827" lon="8.471988"><ele>0</ele></trkpt>
      <trkpt lat="40.316850" lon="8.472251"><ele>0</ele></trkpt>
      <trkpt lat="40.316853" lon="8.472433"><ele>0</ele></trkpt>
      <trkpt lat="40.316713" lon="8.472992"><ele>0</ele></trkpt>
      <trkpt lat="40.316546" lon="8.473528"><ele>0</ele></trkpt>
      <trkpt lat="40.316533" lon="8.473568"><ele>0</ele></trkpt>
      <trkpt lat="40.316469" lon="8.473898"><ele>0</ele></trkpt>
      <trkpt lat="40.316453" lon="8.474327"><ele>0</ele></trkpt>
      <trkpt lat="40.316438" lon="8.474677"><ele>0</ele></trkpt>
      <trkpt lat="40.316433" lon="8.474978"><ele>0</ele></trkpt>
      <trkpt lat="40.316366" lon="8.475359"><ele>0</ele></trkpt>
      <trkpt lat="40.316275" lon="8.475768"><ele>0</ele></trkpt>
      <trkpt lat="40.316225" lon="8.475978"><ele>0</ele></trkpt>
      <trkpt lat="40.316166" lon="8.476274"><ele>0</ele></trkpt>
      <trkpt lat="40.316124" lon="8.476633"><ele>0</ele></trkpt>
      <trkpt lat="40.316092" lon="8.476904"><ele>0</ele></trkpt>
      <trkpt lat="40.316055" lon="8.477217"><ele>0</ele></trkpt>
      <trkpt lat="40.316036" lon="8.477319"><ele>0</ele></trkpt>
      <trkpt lat="40.315964" lon="8.477508"><ele>0</ele></trkpt>
      <trkpt lat="40.315531" lon="8.478526"><ele>0</ele></trkpt>
      <trkpt lat="40.315410" lon="8.478809"><ele>0</ele></trkpt>
      <trkpt lat="40.314833" lon="8.480119"><ele>0</ele></trkpt>
      <trkpt lat="40.314670" lon="8.480540"><ele>0</ele></trkpt>
      <trkpt lat="40.314604" lon="8.480908"><ele>0</ele></trkpt>
      <trkpt lat="40.314569" lon="8.481039"><ele>0</ele></trkpt>
      <trkpt lat="40.314436" lon="8.481799"><ele>0</ele></trkpt>
      <trkpt lat="40.314211" lon="8.483127"><ele>0</ele></trkpt>
      <trkpt lat="40.314043" lon="8.484007"><ele>0</ele></trkpt>
      <trkpt lat="40.313889" lon="8.484914"><ele>0</ele></trkpt>
      <trkpt lat="40.313794" lon="8.485324"><ele>0</ele></trkpt>
      <trkpt lat="40.313598" lon="8.485766"><ele>0</ele></trkpt>
      <trkpt lat="40.313452" lon="8.486063"><ele>0</ele></trkpt>
      <trkpt lat="40.312512" lon="8.487975"><ele>0</ele></trkpt>
      <trkpt lat="40.312385" lon="8.488149"><ele>0</ele></trkpt>
      <trkpt lat="40.312079" lon="8.488415"><ele>0</ele></trkpt>
      <trkpt lat="40.311844" lon="8.488592"><ele>0</ele></trkpt>
      <trkpt lat="40.311654" lon="8.488670"><ele>0</ele></trkpt>
      <trkpt lat="40.310857" lon="8.488562"><ele>0</ele></trkpt>
      <trkpt lat="40.310729" lon="8.488514"><ele>0</ele></trkpt>
      <trkpt lat="40.310638" lon="8.488459"><ele>0</ele></trkpt>
      <trkpt lat="40.310517" lon="8.488316"><ele>0</ele></trkpt>
      <trkpt lat="40.310147" lon="8.487782"><ele>0</ele></trkpt>
      <trkpt lat="40.309575" lon="8.486959"><ele>0</ele></trkpt>
      <trkpt lat="40.309436" lon="8.486767"><ele>0</ele></trkpt>
      <trkpt lat="40.309266" lon="8.486615"><ele>0</ele></trkpt>
      <trkpt lat="40.308138" lon="8.485850"><ele>0</ele></trkpt>
      <trkpt lat="40.307939" lon="8.485672"><ele>0</ele></trkpt>
      <trkpt lat="40.307598" lon="8.485028"><ele>0</ele></trkpt>
      <trkpt lat="40.307404" lon="8.484770"><ele>0</ele></trkpt>
      <trkpt lat="40.307199" lon="8.484653"><ele>0</ele></trkpt>
      <trkpt lat="40.306842" lon="8.484495"><ele>0</ele></trkpt>
      <trkpt lat="40.306376" lon="8.484308"><ele>0</ele></trkpt>
      <trkpt lat="40.306099" lon="8.484237"><ele>0</ele></trkpt>
      <trkpt lat="40.304580" lon="8.484056"><ele>0</ele></trkpt>
      <trkpt lat="40.303958" lon="8.483998"><ele>0</ele></trkpt>
      <trkpt lat="40.303606" lon="8.484041"><ele>0</ele></trkpt>
      <trkpt lat="40.302881" lon="8.484216"><ele>0</ele></trkpt>
      <trkpt lat="40.302729" lon="8.484276"><ele>0</ele></trkpt>
      <trkpt lat="40.302515" lon="8.484366"><ele>0</ele></trkpt>
      <trkpt lat="40.302304" lon="8.484516"><ele>0</ele></trkpt>
      <trkpt lat="40.302067" lon="8.484720"><ele>0</ele></trkpt>
      <trkpt lat="40.301932" lon="8.484769"><ele>0</ele></trkpt>
      <trkpt lat="40.301778" lon="8.484810"><ele>0</ele></trkpt>
      <trkpt lat="40.301576" lon="8.484836"><ele>0</ele></trkpt>
      <trkpt lat="40.300572" lon="8.484777"><ele>0</ele></trkpt>
      <trkpt lat="40.299887" lon="8.484775"><ele>0</ele></trkpt>
      <trkpt lat="40.299404" lon="8.484813"><ele>0</ele></trkpt>
      <trkpt lat="40.299200" lon="8.484822"><ele>0</ele></trkpt>
      <trkpt lat="40.299168" lon="8.484823"><ele>0</ele></trkpt>
      <trkpt lat="40.299103" lon="8.484828"><ele>0</ele></trkpt>
      <trkpt lat="40.297713" lon="8.484933"><ele>0</ele></trkpt>
      <trkpt lat="40.297382" lon="8.484954"><ele>0</ele></trkpt>
      <trkpt lat="40.297259" lon="8.484938"><ele>0</ele></trkpt>
      <trkpt lat="40.297233" lon="8.484935"><ele>0</ele></trkpt>
      <trkpt lat="40.297220" lon="8.484909"><ele>0</ele></trkpt>
      <trkpt lat="40.297202" lon="8.484889"><ele>0</ele></trkpt>
      <trkpt lat="40.297181" lon="8.484879"><ele>0</ele></trkpt>
      <trkpt lat="40.297159" lon="8.484877"><ele>0</ele></trkpt>
      <trkpt lat="40.297137" lon="8.484884"><ele>0</ele></trkpt>
      <trkpt lat="40.297121" lon="8.484896"><ele>0</ele></trkpt>
      <trkpt lat="40.297108" lon="8.484913"><ele>0</ele></trkpt>
      <trkpt lat="40.297098" lon="8.484933"><ele>0</ele></trkpt>
      <trkpt lat="40.297091" lon="8.484961"><ele>0</ele></trkpt>
      <trkpt lat="40.297092" lon="8.484991"><ele>0</ele></trkpt>
      <trkpt lat="40.297099" lon="8.485019"><ele>0</ele></trkpt>
      <trkpt lat="40.297110" lon="8.485040"><ele>0</ele></trkpt>
      <trkpt lat="40.297124" lon="8.485056"><ele>0</ele></trkpt>
      <trkpt lat="40.297141" lon="8.485067"><ele>0</ele></trkpt>
      <trkpt lat="40.297174" lon="8.485271"><ele>0</ele></trkpt>
      <trkpt lat="40.297185" lon="8.485574"><ele>0</ele></trkpt>
      <trkpt lat="40.297192" lon="8.485767"><ele>0</ele></trkpt>
      <trkpt lat="40.297203" lon="8.486163"><ele>0</ele></trkpt>
      <trkpt lat="40.297211" lon="8.486488"><ele>0</ele></trkpt>
      <trkpt lat="40.297227" lon="8.487152"><ele>0</ele></trkpt>
      <trkpt lat="40.297231" lon="8.487239"><ele>0</ele></trkpt>
      <trkpt lat="40.297289" lon="8.488625"><ele>0</ele></trkpt>
      <trkpt lat="40.297294" lon="8.488767"><ele>0</ele></trkpt>
      <trkpt lat="40.297321" lon="8.489479"><ele>0</ele></trkpt>
      <trkpt lat="40.297332" lon="8.489775"><ele>0</ele></trkpt>
      <trkpt lat="40.297346" lon="8.490166"><ele>0</ele></trkpt>
      <trkpt lat="40.297349" lon="8.490225"><ele>0</ele></trkpt>
      <trkpt lat="40.297355" lon="8.490398"><ele>0</ele></trkpt>
      <trkpt lat="40.297373" lon="8.490899"><ele>0</ele></trkpt>
      <trkpt lat="40.297378" lon="8.491026"><ele>0</ele></trkpt>
      <trkpt lat="40.297396" lon="8.491516"><ele>0</ele></trkpt>
      <trkpt lat="40.297399" lon="8.491591"><ele>0</ele></trkpt>
      <trkpt lat="40.297401" lon="8.491692"><ele>0</ele></trkpt>
      <trkpt lat="40.297405" lon="8.491818"><ele>0</ele></trkpt>
      <trkpt lat="40.297408" lon="8.491934"><ele>0</ele></trkpt>
      <trkpt lat="40.297424" lon="8.492310"><ele>0</ele></trkpt>
      <trkpt lat="40.297428" lon="8.492396"><ele>0</ele></trkpt>
      <trkpt lat="40.297439" lon="8.492696"><ele>0</ele></trkpt>
      <trkpt lat="40.297445" lon="8.492843"><ele>0</ele></trkpt>
      <trkpt lat="40.297452" lon="8.493044"><ele>0</ele></trkpt>
      <trkpt lat="40.297460" lon="8.493287"><ele>0</ele></trkpt>
      <trkpt lat="40.297466" lon="8.493505"><ele>0</ele></trkpt>
      <trkpt lat="40.297470" lon="8.493720"><ele>0</ele></trkpt>
      <trkpt lat="40.297477" lon="8.493895"><ele>0</ele></trkpt>
      <trkpt lat="40.297483" lon="8.494038"><ele>0</ele></trkpt>
      <trkpt lat="40.297509" lon="8.494614"><ele>0</ele></trkpt>
      <trkpt lat="40.297512" lon="8.494673"><ele>0</ele></trkpt>
      <trkpt lat="40.297496" lon="8.494832"><ele>0</ele></trkpt>
      <trkpt lat="40.297452" lon="8.495009"><ele>0</ele></trkpt>
      <trkpt lat="40.297420" lon="8.495140"><ele>0</ele></trkpt>
      <trkpt lat="40.297321" lon="8.495524"><ele>0</ele></trkpt>
      <trkpt lat="40.297306" lon="8.495580"><ele>0</ele></trkpt>
      <trkpt lat="40.297370" lon="8.495606"><ele>0</ele></trkpt>
      <trkpt lat="40.297585" lon="8.495695"><ele>0</ele></trkpt>
      <trkpt lat="40.298269" lon="8.495981"><ele>0</ele></trkpt>
      <trkpt lat="40.298816" lon="8.496208"><ele>0</ele></trkpt>
      <trkpt lat="40.299100" lon="8.496327"><ele>0</ele></trkpt>
      <trkpt lat="40.299193" lon="8.496365"><ele>0</ele></trkpt>
      <trkpt lat="40.299180" lon="8.496418"><ele>0</ele></trkpt>
      <trkpt lat="40.299168" lon="8.496466"><ele>0</ele></trkpt>
      <trkpt lat="40.298938" lon="8.497429"><ele>0</ele></trkpt>
      <trkpt lat="40.298923" lon="8.497491"><ele>0</ele></trkpt>
      <trkpt lat="40.298914" lon="8.497527"><ele>0</ele></trkpt>
      <trkpt lat="40.298901" lon="8.497582"><ele>0</ele></trkpt>
      <trkpt lat="40.298855" lon="8.497778"><ele>0</ele></trkpt>
      <trkpt lat="40.298813" lon="8.497949"><ele>0</ele></trkpt>
      <trkpt lat="40.298644" lon="8.498659"><ele>0</ele></trkpt>
      <trkpt lat="40.298632" lon="8.498705"><ele>0</ele></trkpt>
      <trkpt lat="40.298628" lon="8.498722"><ele>0</ele></trkpt>
      <trkpt lat="40.298624" lon="8.498741"><ele>0</ele></trkpt>
      <trkpt lat="40.298619" lon="8.498763"><ele>0</ele></trkpt>
      <trkpt lat="40.298351" lon="8.499883"><ele>0</ele></trkpt>
      <trkpt lat="40.298334" lon="8.499953"><ele>0</ele></trkpt>
      <trkpt lat="40.298316" lon="8.500029"><ele>0</ele></trkpt>
      <trkpt lat="40.298500" lon="8.500105"><ele>0</ele></trkpt>
      <trkpt lat="40.298597" lon="8.500145"><ele>0</ele></trkpt>
      <trkpt lat="40.299525" lon="8.500527"><ele>0</ele></trkpt>
      <trkpt lat="40.299733" lon="8.500613"><ele>0</ele></trkpt>
      <trkpt lat="40.299793" lon="8.500666"><ele>0</ele></trkpt>
      <trkpt lat="40.299522" lon="8.500800"><ele>0</ele></trkpt>
      <trkpt lat="40.299322" lon="8.500903"><ele>0</ele></trkpt>
      <trkpt lat="40.299266" lon="8.500841"><ele>0</ele></trkpt>
      <trkpt lat="40.298521" lon="8.500518"><ele>0</ele></trkpt>
    </trkseg>
  </trk>
</gpx>