<?xml version="1.0" encoding="UTF-8"?>
<gpx xmlns="http://www.topografix.com/GPX/1/1" version="1.1" creator="MotoMap">
  <rte>
    <name>chiantigiana</name>
    <rtept lat="43.759000" lon="11.249000"><name>Route Start - Route Start</name></rtept>
    <rtept lat="43.582917" lon="11.317723"><name>Via 1</name></rtept>
    <rtept lat="43.486923" lon="11.375926"><name>Via 2</name></rtept>
    <rtept lat="43.469396" lon="11.286092"><name>Via 3</name></rtept>
    <rtept lat="43.318800" lon="11.330800"><name>Route End - Route End</name></rtept>
  </rte>
</gpx>