<?xml version="1.0" encoding="UTF-8"?>
<gpx xmlns="http://www.topografix.com/GPX/1/1" version="1.1" creator="MotoMap">
  <trk>
    <name>forra</name>
    <trkseg>
      <trkpt lat="45.768624" lon="10.762080"><ele>0</ele></trkpt>
      <trkpt lat="45.768626" lon="10.762008"><ele>0</ele></trkpt>
      <trkpt lat="45.768617" lon="10.761917"><ele>0</ele></trkpt>
      <trkpt lat="45.768586" lon="10.761833"><ele>0</ele></trkpt>
      <trkpt lat="45.768545" lon="10.761770"><ele>0</ele></trkpt>
      <trkpt lat="45.768479" lon="10.761715"><ele>0</ele></trkpt>
      <trkpt lat="45.768440" lon="10.761702"><ele>0</ele></trkpt>
      <trkpt lat="45.768398" lon="10.761700"><ele>0</ele></trkpt>
      <trkpt lat="45.768317" lon="10.761703"><ele>0</ele></trkpt>
      <trkpt lat="45.768234" lon="10.761683"><ele>0</ele></trkpt>
      <trkpt lat="45.768157" lon="10.761638"><ele>0</ele></trkpt>
      <trkpt lat="45.768076" lon="10.761558"><ele>0</ele></trkpt>
      <trkpt lat="45.767966" lon="10.761417"><ele>0</ele></trkpt>
      <trkpt lat="45.767730" lon="10.761072"><ele>0</ele></trkpt>
      <trkpt lat="45.767673" lon="10.761004"><ele>0</ele></trkpt>
      <trkpt lat="45.767607" lon="10.760939"><ele>0</ele></trkpt>
      <trkpt lat="45.767449" lon="10.760832"><ele>0</ele></trkpt>
      <trkpt lat="45.767303" lon="10.760742"><ele>0</ele></trkpt>
      <trkpt lat="45.767211" lon="10.760634"><ele>0</ele></trkpt>
      <trkpt lat="45.767140" lon="10.760541"><ele>0</ele></trkpt>
      <trkpt lat="45.766948" lon="10.760298"><ele>0</ele></trkpt>
      <trkpt lat="45.766872" lon="10.760208"><ele>0</ele></trkpt>
      <trkpt lat="45.766820" lon="10.760153"><ele>0</ele></trkpt>
      <trkpt lat="45.766783" lon="10.760125"><ele>0</ele></trkpt>
      <trkpt lat="45.766723" lon="10.760092"><ele>0</ele></trkpt>
      <trkpt lat="45.766652" lon="10.760056"><ele>0</ele></trkpt>
      <trkpt lat="45.766599" lon="10.760024"><ele>0</ele></trkpt>
      <trkpt lat="45.766547" lon="10.759960"><ele>0</ele></trkpt>
      <trkpt lat="45.766496" lon="10.759878"><ele>0</ele></trkpt>
      <trkpt lat="45.766299" lon="10.759512"><ele>0</ele></trkpt>
      <trkpt lat="45.766244" lon="10.759435"><ele>0</ele></trkpt>
      <trkpt lat="45.766186" lon="10.759378"><ele>0</ele></trkpt>
      <trkpt lat="45.766115" lon="10.759333"><ele>0</ele></trkpt>
      <trkpt lat="45.766043" lon="10.759293"><ele>0</ele></trkpt>
      <trkpt lat="45.765931" lon="10.759239"><ele>0</ele></trkpt>
      <trkpt lat="45.765820" lon="10.759131"><ele>0</ele></trkpt>
      <trkpt lat="45.765779" lon="10.759097"><ele>0</ele></trkpt>
      <trkpt lat="45.765712" lon="10.759059"><ele>0</ele></trkpt>
      <trkpt lat="45.765684" lon="10.759025"><ele>0</ele></trkpt>
      <trkpt lat="45.765626" lon="10.758908"><ele>0</ele></trkpt>
      <trkpt lat="45.765578" lon="10.758796"><ele>0</ele></trkpt>
      <trkpt lat="45.765511" lon="10.758677"><ele>0</ele></trkpt>
      <trkpt lat="45.765454" lon="10.758542"><ele>0</ele></trkpt>
      <trkpt lat="45.765419" lon="10.758483"><ele>0</ele></trkpt>
      <trkpt lat="45.765371" lon="10.758427"><ele>0</ele></trkpt>
      <trkpt lat="45.765299" lon="10.758405"><ele>0</ele></trkpt>
      <trkpt lat="45.765102" lon="10.758403"><ele>0</ele></trkpt>
      <trkpt lat="45.765038" lon="10.758381"><ele>0</ele></trkpt>
      <trkpt lat="45.764977" lon="10.758341"><ele>0</ele></trkpt>
      <trkpt lat="45.764858" lon="10.758221"><ele>0</ele></trkpt>
      <trkpt lat="45.764682" lon="10.758022"><ele>0</ele></trkpt>
      <trkpt lat="45.764530" lon="10.757846"><ele>0</ele></trkpt>
      <trkpt lat="45.764468" lon="10.757763"><ele>0</ele></trkpt>
      <trkpt lat="45.764376" lon="10.757581"><ele>0</ele></trkpt>
      <trkpt lat="45.764339" lon="10.757492"><ele>0</ele></trkpt>
      <trkpt lat="45.764304" lon="10.757414"><ele>0</ele></trkpt>
      <trkpt lat="45.764106" lon="10.757127"><ele>0</ele></trkpt>
      <trkpt lat="45.764056" lon="10.757068"><ele>0</ele></trkpt>
      <trkpt lat="45.764002" lon="10.757021"><ele>0</ele></trkpt>
      <trkpt lat="45.763890" lon="10.756959"><ele>0</ele></trkpt>
      <trkpt lat="45.763857" lon="10.756926"><ele>0</ele></trkpt>
      <trkpt lat="45.763837" lon="10.756894"><ele>0</ele></trkpt>
      <trkpt lat="45.763821" lon="10.756829"><ele>0</ele></trkpt>
      <trkpt lat="45.763838" lon="10.756747"><ele>0</ele></trkpt>
      <trkpt lat="45.763861" lon="10.756703"><ele>0</ele></trkpt>
      <trkpt lat="45.763889" lon="10.756683"><ele>0</ele></trkpt>
      <trkpt lat="45.763928" lon="10.756689"><ele>0</ele></trkpt>
      <trkpt lat="45.763956" lon="10.756704"><ele>0</ele></trkpt>
      <trkpt lat="45.764268" lon="10.757092"><ele>0</ele></trkpt>
      <trkpt lat="45.764490" lon="10.757427"><ele>0</ele></trkpt>
      <trkpt lat="45.764782" lon="10.757832"><ele>0</ele></trkpt>
      <trkpt lat="45.764828" lon="10.757890"><ele>0</ele></trkpt>
      <trkpt lat="45.764867" lon="10.757926"><ele>0</ele></trkpt>
      <trkpt lat="45.764925" lon="10.757975"><ele>0</ele></trkpt>
      <trkpt lat="45.764998" lon="10.758019"><ele>0</ele></trkpt>
      <trkpt lat="45.765065" lon="10.758038"><ele>0</ele></trkpt>
      <trkpt lat="45.765136" lon="10.758041"><ele>0</ele></trkpt>
      <trkpt lat="45.765511" lon="10.758000"><ele>0</ele></trkpt>
      <trkpt lat="45.765749" lon="10.758014"><ele>0</ele></trkpt>
      <trkpt lat="45.766079" lon="10.758119"><ele>0</ele></trkpt>
      <trkpt lat="45.766270" lon="10.758214"><ele>0</ele></trkpt>
      <trkpt lat="45.766456" lon="10.758348"><ele>0</ele></trkpt>
      <trkpt lat="45.766832" lon="10.758604"><ele>0</ele></trkpt>
      <trkpt lat="45.767210" lon="10.758907"><ele>0</ele></trkpt>
      <trkpt lat="45.769384" lon="10.760922"><ele>0</ele></trkpt>
      <trkpt lat="45.769543" lon="10.761095"><ele>0</ele></trkpt>
      <trkpt lat="45.769782" lon="10.761356"><ele>0</ele></trkpt>
      <trkpt lat="45.769974" lon="10.761609"><ele>0</ele></trkpt>
      <trkpt lat="45.770049" lon="10.761697"><ele>0</ele></trkpt>
      <trkpt lat="45.770118" lon="10.761794"><ele>0</ele></trkpt>
      <trkpt lat="45.770181" lon="10.761899"><ele>0</ele></trkpt>
      <trkpt lat="45.770237" lon="10.762012"><ele>0</ele></trkpt>
      <trkpt lat="45.770286" lon="10.762131"><ele>0</ele></trkpt>
      <trkpt lat="45.770326" lon="10.762254"><ele>0</ele></trkpt>
      <trkpt lat="45.770360" lon="10.762381"><ele>0</ele></trkpt>
      <trkpt lat="45.770385" lon="10.762512"><ele>0</ele></trkpt>
      <trkpt lat="45.770400" lon="10.762584"><ele>0</ele></trkpt>
      <trkpt lat="45.770439" lon="10.762769"><ele>0</ele></trkpt>
      <trkpt lat="45.770462" lon="10.762843"><ele>0</ele></trkpt>
      <trkpt lat="45.770501" lon="10.762917"><ele>0</ele></trkpt>
      <trkpt lat="45.770537" lon="10.762961"><ele>0</ele></trkpt>
      <trkpt lat="45.770698" lon="10.763157"><ele>0</ele></trkpt>
      <trkpt lat="45.770759" lon="10.763244"><ele>0</ele></trkpt>
      <trkpt lat="45.770792" lon="10.763299"><ele>0</ele></trkpt>
      <trkpt lat="45.770819" lon="10.763361"><ele>0</ele></trkpt>
      <trkpt lat="45.770840" lon="10.763424"><ele>0</ele></trkpt>
      <trkpt lat="45.770854" lon="10.763491"><ele>0</ele></trkpt>
      <trkpt lat="45.770925" lon="10.763812"><ele>0</ele></trkpt>
      <trkpt lat="45.770950" lon="10.763967"><ele>0</ele></trkpt>
      <trkpt lat="45.770976" lon="10.764032"><ele>0</ele></trkpt>
      <trkpt lat="45.771001" lon="10.764089"><ele>0</ele></trkpt>
      <trkpt lat="45.771010" lon="10.764134"><ele>0</ele></trkpt>
      <trkpt lat="45.771016" lon="10.764170"><ele>0</ele></trkpt>
      <trkpt lat="45.771018" lon="10.764219"><ele>0</ele></trkpt>
      <trkpt lat="45.770996" lon="10.764322"><ele>0</ele></trkpt>
      <trkpt lat="45.770983" lon="10.764400"><ele>0</ele></trkpt>
      <trkpt lat="45.770990" lon="10.764463"><ele>0</ele></trkpt>
      <trkpt lat="45.771029" lon="10.764582"><ele>0</ele></trkpt>
      <trkpt lat="45.771113" lon="10.764775"><ele>0</ele></trkpt>
      <trkpt lat="45.771246" lon="10.764928"><ele>0</ele></trkpt>
      <trkpt lat="45.771403" lon="10.765001"><ele>0</ele></trkpt>
      <trkpt lat="45.771475" lon="10.765069"><ele>0</ele></trkpt>
      <trkpt lat="45.771592" lon="10.765180"><ele>0</ele></trkpt>
      <trkpt lat="45.771628" lon="10.765204"><ele>0</ele></trkpt>
      <trkpt lat="45.771661" lon="10.765224"><ele>0</ele></trkpt>
      <trkpt lat="45.771730" lon="10.765242"><ele>0</ele></trkpt>
      <trkpt lat="45.771821" lon="10.765255"><ele>0</ele></trkpt>
      <trkpt lat="45.771865" lon="10.765262"><ele>0</ele></trkpt>
      <trkpt lat="45.771914" lon="10.765277"><ele>0</ele></trkpt>
      <trkpt lat="45.771932" lon="10.765284"><ele>0</ele></trkpt>
      <trkpt lat="45.772003" lon="10.765320"><ele>0</ele></trkpt>
      <trkpt lat="45.772061" lon="10.765368"><ele>0</ele></trkpt>
      <trkpt lat="45.772117" lon="10.765421"><ele>0</ele></trkpt>
      <trkpt lat="45.772178" lon="10.765486"><ele>0</ele></trkpt>
      <trkpt lat="45.772238" lon="10.765581"><ele>0</ele></trkpt>
      <trkpt lat="45.772254" lon="10.765611"><ele>0</ele></trkpt>
      <trkpt lat="45.772333" lon="10.765756"><ele>0</ele></trkpt>
      <trkpt lat="45.772349" lon="10.765774"><ele>0</ele></trkpt>
      <trkpt lat="45.772367" lon="10.765790"><ele>0</ele></trkpt>
      <trkpt lat="45.772397" lon="10.765802"><ele>0</ele></trkpt>
      <trkpt lat="45.772440" lon="10.765804"><ele>0</ele></trkpt>
      <trkpt lat="45.772552" lon="10.765820"><ele>0</ele></trkpt>
      <trkpt lat="45.772709" lon="10.765849"><ele>0</ele></trkpt>
      <trkpt lat="45.772754" lon="10.765871"><ele>0</ele></trkpt>
      <trkpt lat="45.773355" lon="10.766317"><ele>0</ele></trkpt>
      <trkpt lat="45.773435" lon="10.766351"><ele>0</ele></trkpt>
      <trkpt lat="45.773598" lon="10.766373"><ele>0</ele></trkpt>
      <trkpt lat="45.773770" lon="10.766406"><ele>0</ele></trkpt>
      <trkpt lat="45.773836" lon="10.766401"><ele>0</ele></trkpt>
      <trkpt lat="45.773906" lon="10.766384"><ele>0</ele></trkpt>
      <trkpt lat="45.773932" lon="10.766373"><ele>0</ele></trkpt>
      <trkpt lat="45.774119" lon="10.766309"><ele>0</ele></trkpt>
      <trkpt lat="45.774136" lon="10.766299"><ele>0</ele></trkpt>
      <trkpt lat="45.774151" lon="10.766282"><ele>0</ele></trkpt>
      <trkpt lat="45.774166" lon="10.766256"><ele>0</ele></trkpt>
      <trkpt lat="45.774197" lon="10.766175"><ele>0</ele></trkpt>
      <trkpt lat="45.774205" lon="10.766089"><ele>0</ele></trkpt>
      <trkpt lat="45.774213" lon="10.765899"><ele>0</ele></trkpt>
      <trkpt lat="45.774202" lon="10.765707"><ele>0</ele></trkpt>
      <trkpt lat="45.774191" lon="10.765562"><ele>0</ele></trkpt>
      <trkpt lat="45.774178" lon="10.765511"><ele>0</ele></trkpt>
      <trkpt lat="45.774159" lon="10.765445"><ele>0</ele></trkpt>
      <trkpt lat="45.774117" lon="10.765327"><ele>0</ele></trkpt>
      <trkpt lat="45.774089" lon="10.765206"><ele>0</ele></trkpt>
      <trkpt lat="45.774069" lon="10.765089"><ele>0</ele></trkpt>
      <trkpt lat="45.774052" lon="10.764958"><ele>0</ele></trkpt>
      <trkpt lat="45.774045" lon="10.764889"><ele>0</ele></trkpt>
      <trkpt lat="45.774030" lon="10.764716"><ele>0</ele></trkpt>
      <trkpt lat="45.774021" lon="10.764610"><ele>0</ele></trkpt>
      <trkpt lat="45.774011" lon="10.764548"><ele>0</ele></trkpt>
      <trkpt lat="45.774001" lon="10.764522"><ele>0</ele></trkpt>
      <trkpt lat="45.773984" lon="10.764505"><ele>0</ele></trkpt>
      <trkpt lat="45.773923" lon="10.764507"><ele>0</ele></trkpt>
      <trkpt lat="45.773901" lon="10.764520"><ele>0</ele></trkpt>
      <trkpt lat="45.773886" lon="10.764541"><ele>0</ele></trkpt>
      <trkpt lat="45.773879" lon="10.764560"><ele>0</ele></trkpt>
      <trkpt lat="45.773863" lon="10.764644"><ele>0</ele></trkpt>
      <trkpt lat="45.773832" lon="10.764967"><ele>0</ele></trkpt>
      <trkpt lat="45.773826" lon="10.765127"><ele>0</ele></trkpt>
      <trkpt lat="45.773831" lon="10.765180"><ele>0</ele></trkpt>
      <trkpt lat="45.773840" lon="10.765215"><ele>0</ele></trkpt>
      <trkpt lat="45.773873" lon="10.765293"><ele>0</ele></trkpt>
      <trkpt lat="45.773889" lon="10.765318"><ele>0</ele></trkpt>
      <trkpt lat="45.773902" lon="10.765343"><ele>0</ele></trkpt>
      <trkpt lat="45.773910" lon="10.765379"><ele>0</ele></trkpt>
      <trkpt lat="45.773918" lon="10.765457"><ele>0</ele></trkpt>
      <trkpt lat="45.773940" lon="10.765707"><ele>0</ele></trkpt>
      <trkpt lat="45.773941" lon="10.765794"><ele>0</ele></trkpt>
      <trkpt lat="45.773935" lon="10.765831"><ele>0</ele></trkpt>
      <trkpt lat="45.773928" lon="10.765874"><ele>0</ele></trkpt>
      <trkpt lat="45.773865" lon="10.766051"><ele>0</ele></trkpt>
      <trkpt lat="45.773820" lon="10.766175"><ele>0</ele></trkpt>
      <trkpt lat="45.773790" lon="10.766277"><ele>0</ele></trkpt>
      <trkpt lat="45.773781" lon="10.766308"><ele>0</ele></trkpt>
      <trkpt lat="45.773767" lon="10.766337"><ele>0</ele></trkpt>
      <trkpt lat="45.773747" lon="10.766360"><ele>0</ele></trkpt>
      <trkpt lat="45.773720" lon="10.766368"><ele>0</ele></trkpt>
      <trkpt lat="45.773701" lon="10.766358"><ele>0</ele></trkpt>
      <trkpt lat="45.773684" lon="10.766340"><ele>0</ele></trkpt>
      <trkpt lat="45.773673" lon="10.766312"><ele>0</ele></trkpt>
      <trkpt lat="45.773670" lon="10.766287"><ele>0</ele></trkpt>
      <trkpt lat="45.773675" lon="10.766260"><ele>0</ele></trkpt>
      <trkpt lat="45.773703" lon="10.766196"><ele>0</ele></trkpt>
      <trkpt lat="45.773752" lon="10.766083"><ele>0</ele></trkpt>
      <trkpt lat="45.773828" lon="10.765871"><ele>0</ele></trkpt>
      <trkpt lat="45.773864" lon="10.765732"><ele>0</ele></trkpt>
      <trkpt lat="45.773865" lon="10.765692"><ele>0</ele></trkpt>
      <trkpt lat="45.773854" lon="10.765595"><ele>0</ele></trkpt>
      <trkpt lat="45.773835" lon="10.765466"><ele>0</ele></trkpt>
      <trkpt lat="45.773819" lon="10.765414"><ele>0</ele></trkpt>
      <trkpt lat="45.773799" lon="10.765378"><ele>0</ele></trkpt>
      <trkpt lat="45.773754" lon="10.765318"><ele>0</ele></trkpt>
      <trkpt lat="45.773699" lon="10.765240"><ele>0</ele></trkpt>
      <trkpt lat="45.773684" lon="10.765212"><ele>0</ele></trkpt>
      <trkpt lat="45.773673" lon="10.765178"><ele>0</ele></trkpt>
      <trkpt lat="45.773664" lon="10.765062"><ele>0</ele></trkpt>
      <trkpt lat="45.773667" lon="10.764922"><ele>0</ele></trkpt>
      <trkpt lat="45.773675" lon="10.764742"><ele>0</ele></trkpt>
      <trkpt lat="45.773695" lon="10.764545"><ele>0</ele></trkpt>
      <trkpt lat="45.773769" lon="10.764052"><ele>0</ele></trkpt>
      <trkpt lat="45.773808" lon="10.763856"><ele>0</ele></trkpt>
      <trkpt lat="45.773827" lon="10.763793"><ele>0</ele></trkpt>
      <trkpt lat="45.773859" lon="10.763715"><ele>0</ele></trkpt>
      <trkpt lat="45.773895" lon="10.763669"><ele>0</ele></trkpt>
      <trkpt lat="45.773918" lon="10.763637"><ele>0</ele></trkpt>
      <trkpt lat="45.773941" lon="10.763593"><ele>0</ele></trkpt>
      <trkpt lat="45.773955" lon="10.763545"><ele>0</ele></trkpt>
      <trkpt lat="45.773969" lon="10.763490"><ele>0</ele></trkpt>
      <trkpt lat="45.773978" lon="10.763438"><ele>0</ele></trkpt>
      <trkpt lat="45.773986" lon="10.763391"><ele>0</ele></trkpt>
      <trkpt lat="45.773995" lon="10.763302"><ele>0</ele></trkpt>
      <trkpt lat="45.774005" lon="10.763214"><ele>0</ele></trkpt>
      <trkpt lat="45.774015" lon="10.763166"><ele>0</ele></trkpt>
      <trkpt lat="45.774034" lon="10.763094"><ele>0</ele></trkpt>
      <trkpt lat="45.774067" lon="10.763015"><ele>0</ele></trkpt>
      <trkpt lat="45.774093" lon="10.762972"><ele>0</ele></trkpt>
      <trkpt lat="45.774122" lon="10.762941"><ele>0</ele></trkpt>
      <trkpt lat="45.774178" lon="10.762894"><ele>0</ele></trkpt>
      <trkpt lat="45.774310" lon="10.762812"><ele>0</ele></trkpt>
      <trkpt lat="45.774564" lon="10.762663"><ele>0</ele></trkpt>
      <trkpt lat="45.774696" lon="10.762602"><ele>0</ele></trkpt>
      <trkpt lat="45.774726" lon="10.762601"><ele>0</ele></trkpt>
      <trkpt lat="45.774741" lon="10.762604"><ele>0</ele></trkpt>
      <trkpt lat="45.774758" lon="10.762611"><ele>0</ele></trkpt>
      <trkpt lat="45.774914" lon="10.762698"><ele>0</ele></trkpt>
      <trkpt lat="45.774937" lon="10.762701"><ele>0</ele></trkpt>
      <trkpt lat="45.774965" lon="10.762694"><ele>0</ele></trkpt>
      <trkpt lat="45.775133" lon="10.762617"><ele>0</ele></trkpt>
      <trkpt lat="45.775375" lon="10.762498"><ele>0</ele></trkpt>
      <trkpt lat="45.775546" lon="10.762400"><ele>0</ele></trkpt>
      <trkpt lat="45.775676" lon="10.762304"><ele>0</ele></trkpt>
      <trkpt lat="45.775743" lon="10.762240"><ele>0</ele></trkpt>
      <trkpt lat="45.775899" lon="10.762060"><ele>0</ele></trkpt>
      <trkpt lat="45.776012" lon="10.761898"><ele>0</ele></trkpt>
      <trkpt lat="45.776097" lon="10.761768"><ele>0</ele></trkpt>
      <trkpt lat="45.776160" lon="10.761653"><ele>0</ele></trkpt>
      <trkpt lat="45.776221" lon="10.761524"><ele>0</ele></trkpt>
      <trkpt lat="45.776319" lon="10.761280"><ele>0</ele></trkpt>
      <trkpt lat="45.776379" lon="10.761064"><ele>0</ele></trkpt>
      <trkpt lat="45.776437" lon="10.760758"><ele>0</ele></trkpt>
      <trkpt lat="45.776454" lon="10.760682"><ele>0</ele></trkpt>
      <trkpt lat="45.776485" lon="10.760605"><ele>0</ele></trkpt>
      <trkpt lat="45.776539" lon="10.760534"><ele>0</ele></trkpt>
      <trkpt lat="45.776758" lon="10.760256"><ele>0</ele></trkpt>
      <trkpt lat="45.776951" lon="10.760010"><ele>0</ele></trkpt>
      <trkpt lat="45.776979" lon="10.759974"><ele>0</ele></trkpt>
      <trkpt lat="45.777031" lon="10.759933"><ele>0</ele></trkpt>
      <trkpt lat="45.777066" lon="10.759919"><ele>0</ele></trkpt>
      <trkpt lat="45.777100" lon="10.759913"><ele>0</ele></trkpt>
      <trkpt lat="45.777132" lon="10.759920"><ele>0</ele></trkpt>
      <trkpt lat="45.777159" lon="10.759939"><ele>0</ele></trkpt>
      <trkpt lat="45.777177" lon="10.759971"><ele>0</ele></trkpt>
      <trkpt lat="45.777191" lon="10.760010"><ele>0</ele></trkpt>
      <trkpt lat="45.777198" lon="10.760060"><ele>0</ele></trkpt>
      <trkpt lat="45.777194" lon="10.760109"><ele>0</ele></trkpt>
      <trkpt lat="45.777185" lon="10.760160"><ele>0</ele></trkpt>
      <trkpt lat="45.777161" lon="10.760211"><ele>0</ele></trkpt>
      <trkpt lat="45.777126" lon="10.760264"><ele>0</ele></trkpt>
      <trkpt lat="45.776981" lon="10.760433"><ele>0</ele></trkpt>
      <trkpt lat="45.776714" lon="10.760640"><ele>0</ele></trkpt>
      <trkpt lat="45.776674" lon="10.760669"><ele>0</ele></trkpt>
      <trkpt lat="45.776643" lon="10.760700"><ele>0</ele></trkpt>
      <trkpt lat="45.776616" lon="10.760756"><ele>0</ele></trkpt>
      <trkpt lat="45.776580" lon="10.760843"><ele>0</ele></trkpt>
      <trkpt lat="45.776555" lon="10.760890"><ele>0</ele></trkpt>
      <trkpt lat="45.776531" lon="10.760912"><ele>0</ele></trkpt>
      <trkpt lat="45.776513" lon="10.760914"><ele>0</ele></trkpt>
      <trkpt lat="45.776491" lon="10.760913"><ele>0</ele></trkpt>
      <trkpt lat="45.776299" lon="10.760841"><ele>0</ele></trkpt>
      <trkpt lat="45.776286" lon="10.760828"><ele>0</ele></trkpt>
      <trkpt lat="45.776272" lon="10.760802"><ele>0</ele></trkpt>
      <trkpt lat="45.776266" lon="10.760765"><ele>0</ele></trkpt>
      <trkpt lat="45.776263" lon="10.760708"><ele>0</ele></trkpt>
      <trkpt lat="45.776278" lon="10.760588"><ele>0</ele></trkpt>
      <trkpt lat="45.776325" lon="10.760361"><ele>0</ele></trkpt>
      <trkpt lat="45.776355" lon="10.760187"><ele>0</ele></trkpt>
      <trkpt lat="45.776379" lon="10.760118"><ele>0</ele></trkpt>
      <trkpt lat="45.776413" lon="10.760072"><ele>0</ele></trkpt>
      <trkpt lat="45.776435" lon="10.760048"><ele>0</ele></trkpt>
      <trkpt lat="45.776470" lon="10.760018"><ele>0</ele></trkpt>
      <trkpt lat="45.776560" lon="10.759956"><ele>0</ele></trkpt>
      <trkpt lat="45.776744" lon="10.759805"><ele>0</ele></trkpt>
      <trkpt lat="45.776803" lon="10.759750"><ele>0</ele></trkpt>
      <trkpt lat="45.776877" lon="10.759629"><ele>0</ele></trkpt>
      <trkpt lat="45.777011" lon="10.759428"><ele>0</ele></trkpt>
      <trkpt lat="45.777131" lon="10.759238"><ele>0</ele></trkpt>
      <trkpt lat="45.777157" lon="10.759175"><ele>0</ele></trkpt>
      <trkpt lat="45.777188" lon="10.759098"><ele>0</ele></trkpt>
      <trkpt lat="45.777215" lon="10.759035"><ele>0</ele></trkpt>
      <trkpt lat="45.777248" lon="10.758977"><ele>0</ele></trkpt>
      <trkpt lat="45.777285" lon="10.758924"><ele>0</ele></trkpt>
      <trkpt lat="45.777325" lon="10.758879"><ele>0</ele></trkpt>
      <trkpt lat="45.777370" lon="10.758841"><ele>0</ele></trkpt>
      <trkpt lat="45.777530" lon="10.758654"><ele>0</ele></trkpt>
      <trkpt lat="45.777698" lon="10.758424"><ele>0</ele></trkpt>
      <trkpt lat="45.777732" lon="10.758390"><ele>0</ele></trkpt>
      <trkpt lat="45.777758" lon="10.758372"><ele>0</ele></trkpt>
      <trkpt lat="45.777791" lon="10.758351"><ele>0</ele></trkpt>
      <trkpt lat="45.777807" lon="10.758344"><ele>0</ele></trkpt>
      <trkpt lat="45.777825" lon="10.758338"><ele>0</ele></trkpt>
      <trkpt lat="45.777845" lon="10.758333"><ele>0</ele></trkpt>
      <trkpt lat="45.777866" lon="10.758330"><ele>0</ele></trkpt>
      <trkpt lat="45.777879" lon="10.758331"><ele>0</ele></trkpt>
      <trkpt lat="45.777913" lon="10.758338"><ele>0</ele></trkpt>
      <trkpt lat="45.777958" lon="10.758360"><ele>0</ele></trkpt>
      <trkpt lat="45.777991" lon="10.758389"><ele>0</ele></trkpt>
      <trkpt lat="45.778020" lon="10.758425"><ele>0</ele></trkpt>
      <trkpt lat="45.778034" lon="10.758455"><ele>0</ele></trkpt>
      <trkpt lat="45.778046" lon="10.758486"><ele>0</ele></trkpt>
      <trkpt lat="45.778061" lon="10.758543"><ele>0</ele></trkpt>
      <trkpt lat="45.778069" lon="10.758607"><ele>0</ele></trkpt>
      <trkpt lat="45.778068" lon="10.758676"><ele>0</ele></trkpt>
      <trkpt lat="45.778059" lon="10.758744"><ele>0</ele></trkpt>
      <trkpt lat="45.778033" lon="10.758826"><ele>0</ele></trkpt>
      <trkpt lat="45.777984" lon="10.758955"><ele>0</ele></trkpt>
      <trkpt lat="45.777973" lon="10.759007"><ele>0</ele></trkpt>
      <trkpt lat="45.777968" lon="10.759051"><ele>0</ele></trkpt>
      <trkpt lat="45.777970" lon="10.759096"><ele>0</ele></trkpt>
      <trkpt lat="45.777996" lon="10.759164"><ele>0</ele></trkpt>
      <trkpt lat="45.778029" lon="10.759247"><ele>0</ele></trkpt>
      <trkpt lat="45.778153" lon="10.759524"><ele>0</ele></trkpt>
      <trkpt lat="45.778236" lon="10.759647"><ele>0</ele></trkpt>
      <trkpt lat="45.778275" lon="10.759693"><ele>0</ele></trkpt>
      <trkpt lat="45.778296" lon="10.759699"><ele>0</ele></trkpt>
      <trkpt lat="45.778323" lon="10.759698"><ele>0</ele></trkpt>
      <trkpt lat="45.778366" lon="10.759680"><ele>0</ele></trkpt>
      <trkpt lat="45.778769" lon="10.759479"><ele>0</ele></trkpt>
      <trkpt lat="45.778866" lon="10.759427"><ele>0</ele></trkpt>
      <trkpt lat="45.778988" lon="10.759370"><ele>0</ele></trkpt>
      <trkpt lat="45.779043" lon="10.759357"><ele>0</ele></trkpt>
      <trkpt lat="45.779112" lon="10.759354"><ele>0</ele></trkpt>
      <trkpt lat="45.779483" lon="10.759474"><ele>0</ele></trkpt>
      <trkpt lat="45.779574" lon="10.759493"><ele>0</ele></trkpt>
      <trkpt lat="45.779623" lon="10.759491"><ele>0</ele></trkpt>
      <trkpt lat="45.779668" lon="10.759471"><ele>0</ele></trkpt>
      <trkpt lat="45.779700" lon="10.759442"><ele>0</ele></trkpt>
      <trkpt lat="45.779724" lon="10.759401"><ele>0</ele></trkpt>
      <trkpt lat="45.779740" lon="10.759349"><ele>0</ele></trkpt>
      <trkpt lat="45.779746" lon="10.759295"><ele>0</ele></trkpt>
      <trkpt lat="45.779745" lon="10.759238"><ele>0</ele></trkpt>
      <trkpt lat="45.779735" lon="10.759190"><ele>0</ele></trkpt>
      <trkpt lat="45.779721" lon="10.759143"><ele>0</ele></trkpt>
      <trkpt lat="45.779711" lon="10.759123"><ele>0</ele></trkpt>
      <trkpt lat="45.779688" lon="10.759092"><ele>0</ele></trkpt>
      <trkpt lat="45.779650" lon="10.759058"><ele>0</ele></trkpt>
      <trkpt lat="45.779341" lon="10.758851"><ele>0</ele></trkpt>
      <trkpt lat="45.779310" lon="10.758836"><ele>0</ele></trkpt>
      <trkpt lat="45.779260" lon="10.758816"><ele>0</ele></trkpt>
      <trkpt lat="45.779170" lon="10.758796"><ele>0</ele></trkpt>
      <trkpt lat="45.779037" lon="10.758770"><ele>0</ele></trkpt>
      <trkpt lat="45.778857" lon="10.758763"><ele>0</ele></trkpt>
      <trkpt lat="45.778732" lon="10.758729"><ele>0</ele></trkpt>
      <trkpt lat="45.778667" lon="10.758692"><ele>0</ele></trkpt>
      <trkpt lat="45.778552" lon="10.758612"><ele>0</ele></trkpt>
      <trkpt lat="45.778509" lon="10.758574"><ele>0</ele></trkpt>
      <trkpt lat="45.778478" lon="10.758514"><ele>0</ele></trkpt>
      <trkpt lat="45.778472" lon="10.758438"><ele>0</ele></trkpt>
      <trkpt lat="45.778494" lon="10.758149"><ele>0</ele></trkpt>
      <trkpt lat="45.778497" lon="10.758057"><ele>0</ele></trkpt>
      <trkpt lat="45.778491" lon="10.758019"><ele>0</ele></trkpt>
      <trkpt lat="45.778480" lon="10.757985"><ele>0</ele></trkpt>
      <trkpt lat="45.778465" lon="10.757951"><ele>0</ele></trkpt>
      <trkpt lat="45.778445" lon="10.757920"><ele>0</ele></trkpt>
      <trkpt lat="45.778103" lon="10.757567"><ele>0</ele></trkpt>
      <trkpt lat="45.778071" lon="10.757530"><ele>0</ele></trkpt>
      <trkpt lat="45.778054" lon="10.757491"><ele>0</ele></trkpt>
      <trkpt lat="45.778045" lon="10.757433"><ele>0</ele></trkpt>
      <trkpt lat="45.778032" lon="10.757276"><ele>0</ele></trkpt>
      <trkpt lat="45.778027" lon="10.757227"><ele>0</ele></trkpt>
      <trkpt lat="45.778019" lon="10.757200"><ele>0</ele></trkpt>
      <trkpt lat="45.778001" lon="10.757173"><ele>0</ele></trkpt>
      <trkpt lat="45.777967" lon="10.757149"><ele>0</ele></trkpt>
      <trkpt lat="45.777926" lon="10.757124"><ele>0</ele></trkpt>
      <trkpt lat="45.777854" lon="10.757084"><ele>0</ele></trkpt>
      <trkpt lat="45.777815" lon="10.757042"><ele>0</ele></trkpt>
      <trkpt lat="45.777781" lon="10.756985"><ele>0</ele></trkpt>
      <trkpt lat="45.777745" lon="10.756883"><ele>0</ele></trkpt>
      <trkpt lat="45.777730" lon="10.756838"><ele>0</ele></trkpt>
      <trkpt lat="45.777717" lon="10.756820"><ele>0</ele></trkpt>
      <trkpt lat="45.777705" lon="10.756806"><ele>0</ele></trkpt>
      <trkpt lat="45.777687" lon="10.756800"><ele>0</ele></trkpt>
      <trkpt lat="45.777658" lon="10.756799"><ele>0</ele></trkpt>
      <trkpt lat="45.777575" lon="10.756829"><ele>0</ele></trkpt>
      <trkpt lat="45.777562" lon="10.756845"><ele>0</ele></trkpt>
      <trkpt lat="45.777546" lon="10.756874"><ele>0</ele></trkpt>
      <trkpt lat="45.777529" lon="10.756951"><ele>0</ele></trkpt>
      <trkpt lat="45.777527" lon="10.757199"><ele>0</ele></trkpt>
      <trkpt lat="45.777534" lon="10.757415"><ele>0</ele></trkpt>
      <trkpt lat="45.777516" lon="10.757661"><ele>0</ele></trkpt>
      <trkpt lat="45.777489" lon="10.757814"><ele>0</ele></trkpt>
      <trkpt lat="45.777452" lon="10.757926"><ele>0</ele></trkpt>
      <trkpt lat="45.777411" lon="10.758016"><ele>0</ele></trkpt>
      <trkpt lat="45.777349" lon="10.758120"><ele>0</ele></trkpt>
      <trkpt lat="45.777304" lon="10.758177"><ele>0</ele></trkpt>
      <trkpt lat="45.777260" lon="10.758225"><ele>0</ele></trkpt>
      <trkpt lat="45.777163" lon="10.758315"><ele>0</ele></trkpt>
      <trkpt lat="45.777033" lon="10.758424"><ele>0</ele></trkpt>
      <trkpt lat="45.776802" lon="10.758536"><ele>0</ele></trkpt>
      <trkpt lat="45.776665" lon="10.758598"><ele>0</ele></trkpt>
      <trkpt lat="45.776543" lon="10.758673"><ele>0</ele></trkpt>
      <trkpt lat="45.776493" lon="10.758698"><ele>0</ele></trkpt>
      <trkpt lat="45.776444" lon="10.758715"><ele>0</ele></trkpt>
      <trkpt lat="45.776050" lon="10.758791"><ele>0</ele></trkpt>
      <trkpt lat="45.775971" lon="10.758826"><ele>0</ele></trkpt>
      <trkpt lat="45.775947" lon="10.758846"><ele>0</ele></trkpt>
      <trkpt lat="45.775928" lon="10.758870"><ele>0</ele></trkpt>
      <trkpt lat="45.775914" lon="10.758896"><ele>0</ele></trkpt>
      <trkpt lat="45.775903" lon="10.758923"><ele>0</ele></trkpt>
      <trkpt lat="45.775893" lon="10.758964"><ele>0</ele></trkpt>
      <trkpt lat="45.775888" lon="10.759004"><ele>0</ele></trkpt>
      <trkpt lat="45.775890" lon="10.759144"><ele>0</ele></trkpt>
      <trkpt lat="45.775879" lon="10.759263"><ele>0</ele></trkpt>
      <trkpt lat="45.775849" lon="10.759355"><ele>0</ele></trkpt>
      <trkpt lat="45.775652" lon="10.759873"><ele>0</ele></trkpt>
      <trkpt lat="45.775600" lon="10.759974"><ele>0</ele></trkpt>
      <trkpt lat="45.775459" lon="10.760221"><ele>0</ele></trkpt>
      <trkpt lat="45.775317" lon="10.760442"><ele>0</ele></trkpt>
      <trkpt lat="45.775071" lon="10.760852"><ele>0</ele></trkpt>
      <trkpt lat="45.775010" lon="10.760938"><ele>0</ele></trkpt>
      <trkpt lat="45.774962" lon="10.760982"><ele>0</ele></trkpt>
      <trkpt lat="45.774909" lon="10.761006"><ele>0</ele></trkpt>
      <trkpt lat="45.774852" lon="10.761024"><ele>0</ele></trkpt>
      <trkpt lat="45.774669" lon="10.761049"><ele>0</ele></trkpt>
      <trkpt lat="45.774618" lon="10.761065"><ele>0</ele></trkpt>
      <trkpt lat="45.774576" lon="10.761086"><ele>0</ele></trkpt>
      <trkpt lat="45.774502" lon="10.761141"><ele>0</ele></trkpt>
      <trkpt lat="45.774400" lon="10.761219"><ele>0</ele></trkpt>
      <trkpt lat="45.774337" lon="10.761253"><ele>0</ele></trkpt>
      <trkpt lat="45.774269" lon="10.761278"><ele>0</ele></trkpt>
      <trkpt lat="45.774047" lon="10.761324"><ele>0</ele></trkpt>
      <trkpt lat="45.773992" lon="10.761342"><ele>0</ele></trkpt>
      <trkpt lat="45.773934" lon="10.761373"><ele>0</ele></trkpt>
      <trkpt lat="45.773809" lon="10.761455"><ele>0</ele></trkpt>
      <trkpt lat="45.773676" lon="10.761549"><ele>0</ele></trkpt>
      <trkpt lat="45.773597" lon="10.761584"><ele>0</ele></trkpt>
      <trkpt lat="45.773539" lon="10.761591"><ele>0</ele></trkpt>
      <trkpt lat="45.773478" lon="10.761578"><ele>0</ele></trkpt>
      <trkpt lat="45.773415" lon="10.761549"><ele>0</ele></trkpt>
      <trkpt lat="45.773140" lon="10.761319"><ele>0</ele></trkpt>
      <trkpt lat="45.773014" lon="10.761202"><ele>0</ele></trkpt>
      <trkpt lat="45.772909" lon="10.761071"><ele>0</ele></trkpt>
      <trkpt lat="45.772878" lon="10.761027"><ele>0</ele></trkpt>
      <trkpt lat="45.772766" lon="10.760873"><ele>0</ele></trkpt>
      <trkpt lat="45.772697" lon="10.760798"><ele>0</ele></trkpt>
      <trkpt lat="45.772657" lon="10.760769"><ele>0</ele></trkpt>
      <trkpt lat="45.772590" lon="10.760750"><ele>0</ele></trkpt>
      <trkpt lat="45.772553" lon="10.760747"><ele>0</ele></trkpt>
      <trkpt lat="45.772495" lon="10.760763"><ele>0</ele></trkpt>
      <trkpt lat="45.772450" lon="10.760780"><ele>0</ele></trkpt>
      <trkpt lat="45.772404" lon="10.760824"><ele>0</ele></trkpt>
      <trkpt lat="45.772376" lon="10.760861"><ele>0</ele></trkpt>
      <trkpt lat="45.772354" lon="10.760902"><ele>0</ele></trkpt>
      <trkpt lat="45.772266" lon="10.761133"><ele>0</ele></trkpt>
      <trkpt lat="45.772240" lon="10.761209"><ele>0</ele></trkpt>
      <trkpt lat="45.772221" lon="10.761289"><ele>0</ele></trkpt>
      <trkpt lat="45.772201" lon="10.761388"><ele>0</ele></trkpt>
      <trkpt lat="45.772197" lon="10.761422"><ele>0</ele></trkpt>
      <trkpt lat="45.772192" lon="10.761465"><ele>0</ele></trkpt>
      <trkpt lat="45.772190" lon="10.761521"><ele>0</ele></trkpt>
      <trkpt lat="45.772194" lon="10.761580"><ele>0</ele></trkpt>
      <trkpt lat="45.772202" lon="10.761656"><ele>0</ele></trkpt>
      <trkpt lat="45.772228" lon="10.761771"><ele>0</ele></trkpt>
      <trkpt lat="45.772254" lon="10.761898"><ele>0</ele></trkpt>
      <trkpt lat="45.772253" lon="10.761956"><ele>0</ele></trkpt>
      <trkpt lat="45.772242" lon="10.762012"><ele>0</ele></trkpt>
      <trkpt lat="45.772225" lon="10.762041"><ele>0</ele></trkpt>
      <trkpt lat="45.772201" lon="10.762065"><ele>0</ele></trkpt>
      <trkpt lat="45.772172" lon="10.762078"><ele>0</ele></trkpt>
      <trkpt lat="45.772167" lon="10.762078"><ele>0</ele></trkpt>
      <trkpt lat="45.772138" lon="10.762078"><ele>0</ele></trkpt>
      <trkpt lat="45.772101" lon="10.762065"><ele>0</ele></trkpt>
      <trkpt lat="45.772073" lon="10.762037"><ele>0</ele></trkpt>
      <trkpt lat="45.772053" lon="10.762006"><ele>0</ele></trkpt>
      <trkpt lat="45.772043" lon="10.761963"><ele>0</ele></trkpt>
      <trkpt lat="45.772047" lon="10.761889"><ele>0</ele></trkpt>
      <trkpt lat="45.772063" lon="10.761781"><ele>0</ele></trkpt>
      <trkpt lat="45.772080" lon="10.761664"><ele>0</ele></trkpt>
      <trkpt lat="45.772092" lon="10.761562"><ele>0</ele></trkpt>
      <trkpt lat="45.772099" lon="10.761511"><ele>0</ele></trkpt>
      <trkpt lat="45.772124" lon="10.761261"><ele>0</ele></trkpt>
      <trkpt lat="45.772137" lon="10.761121"><ele>0</ele></trkpt>
      <trkpt lat="45.772132" lon="10.761067"><ele>0</ele></trkpt>
      <trkpt lat="45.772122" lon="10.761002"><ele>0</ele></trkpt>
      <trkpt lat="45.772096" lon="10.760904"><ele>0</ele></trkpt>
      <trkpt lat="45.772010" lon="10.760623"><ele>0</ele></trkpt>
      <trkpt lat="45.771999" lon="10.760583"><ele>0</ele></trkpt>
      <trkpt lat="45.771983" lon="10.760519"><ele>0</ele></trkpt>
      <trkpt lat="45.771980" lon="10.760508"><ele>0</ele></trkpt>
      <trkpt lat="45.771966" lon="10.760440"><ele>0</ele></trkpt>
      <trkpt lat="45.771947" lon="10.760323"><ele>0</ele></trkpt>
      <trkpt lat="45.771960" lon="10.760317"><ele>0</ele></trkpt>
      <trkpt lat="45.771970" lon="10.760306"><ele>0</ele></trkpt>
      <trkpt lat="45.771977" lon="10.760291"><ele>0</ele></trkpt>
      <trkpt lat="45.771979" lon="10.760280"><ele>0</ele></trkpt>
      <trkpt lat="45.771980" lon="10.760273"><ele>0</ele></trkpt>
      <trkpt lat="45.771979" lon="10.760254"><ele>0</ele></trkpt>
      <trkpt lat="45.771973" lon="10.760237"><ele>0</ele></trkpt>
      <trkpt lat="45.772016" lon="10.760207"><ele>0</ele></trkpt>
      <trkpt lat="45.772050" lon="10.760186"><ele>0</ele></trkpt>
      <trkpt lat="45.772097" lon="10.760164"><ele>0</ele></trkpt>
      <trkpt lat="45.772246" lon="10.760104"><ele>0</ele></trkpt>
      <trkpt lat="45.772764" lon="10.759920"><ele>0</ele></trkpt>
      <trkpt lat="45.772781" lon="10.759914"><ele>0</ele></trkpt>
      <trkpt lat="45.772863" lon="10.759884"><ele>0</ele></trkpt>
      <trkpt lat="45.773007" lon="10.759833"><ele>0</ele></trkpt>
      <trkpt lat="45.773136" lon="10.759779"><ele>0</ele></trkpt>
      <trkpt lat="45.773208" lon="10.759734"><ele>0</ele></trkpt>
      <trkpt lat="45.773239" lon="10.759710"><ele>0</ele></trkpt>
      <trkpt lat="45.773336" lon="10.759625"><ele>0</ele></trkpt>
      <trkpt lat="45.773392" lon="10.759570"><ele>0</ele></trkpt>
      <trkpt lat="45.773449" lon="10.759511"><ele>0</ele></trkpt>
      <trkpt lat="45.773586" lon="10.759356"><ele>0</ele></trkpt>
      <trkpt lat="45.773730" lon="10.759172"><ele>0</ele></trkpt>
      <trkpt lat="45.773995" lon="10.758822"><ele>0</ele></trkpt>
      <trkpt lat="45.774031" lon="10.758764"><ele>0</ele></trkpt>
      <trkpt lat="45.774065" lon="10.758697"><ele>0</ele></trkpt>
      <trkpt lat="45.774258" lon="10.758168"><ele>0</ele></trkpt>
      <trkpt lat="45.774300" lon="10.758079"><ele>0</ele></trkpt>
      <trkpt lat="45.774592" lon="10.757596"><ele>0</ele></trkpt>
      <trkpt lat="45.774624" lon="10.757541"><ele>0</ele></trkpt>
      <trkpt lat="45.774861" lon="10.757136"><ele>0</ele></trkpt>
      <trkpt lat="45.774909" lon="10.757025"><ele>0</ele></trkpt>
      <trkpt lat="45.774946" lon="10.756905"><ele>0</ele></trkpt>
      <trkpt lat="45.774961" lon="10.756836"><ele>0</ele></trkpt>
      <trkpt lat="45.774973" lon="10.756779"><ele>0</ele></trkpt>
      <trkpt lat="45.774985" lon="10.756671"><ele>0</ele></trkpt>
      <trkpt lat="45.774989" lon="10.756567"><ele>0</ele></trkpt>
      <trkpt lat="45.774961" lon="10.756182"><ele>0</ele></trkpt>
      <trkpt lat="45.774972" lon="10.756105"><ele>0</ele></trkpt>
      <trkpt lat="45.774995" lon="10.756043"><ele>0</ele></trkpt>
      <trkpt lat="45.775052" lon="10.755978"><ele>0</ele></trkpt>
      <trkpt lat="45.775111" lon="10.755938"><ele>0</ele></trkpt>
      <trkpt lat="45.775163" lon="10.755903"><ele>0</ele></trkpt>
      <trkpt lat="45.775218" lon="10.755857"><ele>0</ele></trkpt>
      <trkpt lat="45.775256" lon="10.755789"><ele>0</ele></trkpt>
      <trkpt lat="45.775283" lon="10.755714"><ele>0</ele></trkpt>
      <trkpt lat="45.775318" lon="10.755398"><ele>0</ele></trkpt>
      <trkpt lat="45.775331" lon="10.755119"><ele>0</ele></trkpt>
      <trkpt lat="45.775345" lon="10.755051"><ele>0</ele></trkpt>
      <trkpt lat="45.775383" lon="10.755010"><ele>0</ele></trkpt>
      <trkpt lat="45.775415" lon="10.754983"><ele>0</ele></trkpt>
      <trkpt lat="45.775452" lon="10.754966"><ele>0</ele></trkpt>
      <trkpt lat="45.775525" lon="10.754975"><ele>0</ele></trkpt>
      <trkpt lat="45.775702" lon="10.755036"><ele>0</ele></trkpt>
      <trkpt lat="45.775824" lon="10.755051"><ele>0</ele></trkpt>
      <trkpt lat="45.775940" lon="10.755043"><ele>0</ele></trkpt>
      <trkpt lat="45.776021" lon="10.755003"><ele>0</ele></trkpt>
      <trkpt lat="45.776116" lon="10.754894"><ele>0</ele></trkpt>
      <trkpt lat="45.776255" lon="10.754609"><ele>0</ele></trkpt>
      <trkpt lat="45.776375" lon="10.754398"><ele>0</ele></trkpt>
      <trkpt lat="45.776450" lon="10.754258"><ele>0</ele></trkpt>
      <trkpt lat="45.776467" lon="10.754151"><ele>0</ele></trkpt>
      <trkpt lat="45.776460" lon="10.754053"><ele>0</ele></trkpt>
      <trkpt lat="45.776436" lon="10.753861"><ele>0</ele></trkpt>
      <trkpt lat="45.776422" lon="10.753596"><ele>0</ele></trkpt>
      <trkpt lat="45.776434" lon="10.753427"><ele>0</ele></trkpt>
      <trkpt lat="45.776462" lon="10.753263"><ele>0</ele></trkpt>
      <trkpt lat="45.776523" lon="10.753079"><ele>0</ele></trkpt>
      <trkpt lat="45.776657" lon="10.752783"><ele>0</ele></trkpt>
      <trkpt lat="45.776861" lon="10.752438"><ele>0</ele></trkpt>
      <trkpt lat="45.776932" lon="10.752359"><ele>0</ele></trkpt>
      <trkpt lat="45.777031" lon="10.752293"><ele>0</ele></trkpt>
      <trkpt lat="45.777104" lon="10.752254"><ele>0</ele></trkpt>
      <trkpt lat="45.777189" lon="10.752258"><ele>0</ele></trkpt>
      <trkpt lat="45.777328" lon="10.752303"><ele>0</ele></trkpt>
      <trkpt lat="45.777358" lon="10.752347"><ele>0</ele></trkpt>
      <trkpt lat="45.777376" lon="10.752417"><ele>0</ele></trkpt>
      <trkpt lat="45.777375" lon="10.752665"><ele>0</ele></trkpt>
      <trkpt lat="45.777397" lon="10.752821"><ele>0</ele></trkpt>
      <trkpt lat="45.777445" lon="10.752986"><ele>0</ele></trkpt>
      <trkpt lat="45.777537" lon="10.753154"><ele>0</ele></trkpt>
      <trkpt lat="45.777611" lon="10.753270"><ele>0</ele></trkpt>
      <trkpt lat="45.777698" lon="10.753357"><ele>0</ele></trkpt>
      <trkpt lat="45.777803" lon="10.753372"><ele>0</ele></trkpt>
      <trkpt lat="45.778615" lon="10.753415"><ele>0</ele></trkpt>
      <trkpt lat="45.778770" lon="10.753437"><ele>0</ele></trkpt>
      <trkpt lat="45.778796" lon="10.753440"><ele>0</ele></trkpt>
      <trkpt lat="45.778806" lon="10.753445"><ele>0</ele></trkpt>
      <trkpt lat="45.778972" lon="10.753510"><ele>0</ele></trkpt>
      <trkpt lat="45.779125" lon="10.753608"><ele>0</ele></trkpt>
      <trkpt lat="45.779243" lon="10.753743"><ele>0</ele></trkpt>
      <trkpt lat="45.779396" lon="10.753949"><ele>0</ele></trkpt>
      <trkpt lat="45.779623" lon="10.754383"><ele>0</ele></trkpt>
      <trkpt lat="45.779763" lon="10.754458"><ele>0</ele></trkpt>
      <trkpt lat="45.780096" lon="10.754480"><ele>0</ele></trkpt>
      <trkpt lat="45.780224" lon="10.754503"><ele>0</ele></trkpt>
      <trkpt lat="45.780370" lon="10.754496"><ele>0</ele></trkpt>
      <trkpt lat="45.780741" lon="10.754359"><ele>0</ele></trkpt>
      <trkpt lat="45.780958" lon="10.754258"><ele>0</ele></trkpt>
      <trkpt lat="45.781215" lon="10.754019"><ele>0</ele></trkpt>
      <trkpt lat="45.781377" lon="10.753823"><ele>0</ele></trkpt>
      <trkpt lat="45.781517" lon="10.753604"><ele>0</ele></trkpt>
      <trkpt lat="45.781608" lon="10.753448"><ele>0</ele></trkpt>
      <trkpt lat="45.781753" lon="10.753180"><ele>0</ele></trkpt>
      <trkpt lat="45.781863" lon="10.752911"><ele>0</ele></trkpt>
      <trkpt lat="45.781952" lon="10.752652"><ele>0</ele></trkpt>
      <trkpt lat="45.781957" lon="10.752639"><ele>0</ele></trkpt>
      <trkpt lat="45.782039" lon="10.752212"><ele>0</ele></trkpt>
      <trkpt lat="45.782079" lon="10.751993"><ele>0</ele></trkpt>
      <trkpt lat="45.782106" lon="10.751837"><ele>0</ele></trkpt>
      <trkpt lat="45.782154" lon="10.751697"><ele>0</ele></trkpt>
      <trkpt lat="45.782210" lon="10.751623"><ele>0</ele></trkpt>
      <trkpt lat="45.782309" lon="10.751590"><ele>0</ele></trkpt>
      <trkpt lat="45.782432" lon="10.751560"><ele>0</ele></trkpt>
      <trkpt lat="45.782586" lon="10.751439"><ele>0</ele></trkpt>
      <trkpt lat="45.782679" lon="10.751310"><ele>0</ele></trkpt>
      <trkpt lat="45.782756" lon="10.751146"><ele>0</ele></trkpt>
      <trkpt lat="45.782812" lon="10.750967"><ele>0</ele></trkpt>
      <trkpt lat="45.782820" lon="10.750793"><ele>0</ele></trkpt>
      <trkpt lat="45.782777" lon="10.750661"><ele>0</ele></trkpt>
      <trkpt lat="45.782715" lon="10.750521"><ele>0</ele></trkpt>
      <trkpt lat="45.782636" lon="10.750397"><ele>0</ele></trkpt>
      <trkpt lat="45.782578" lon="10.750208"><ele>0</ele></trkpt>
      <trkpt lat="45.782562" lon="10.750040"><ele>0</ele></trkpt>
      <trkpt lat="45.782572" lon="10.749846"><ele>0</ele></trkpt>
      <trkpt lat="45.782555" lon="10.749592"><ele>0</ele></trkpt>
      <trkpt lat="45.782509" lon="10.749378"><ele>0</ele></trkpt>
      <trkpt lat="45.782465" lon="10.749270"><ele>0</ele></trkpt>
      <trkpt lat="45.782366" lon="10.749025"><ele>0</ele></trkpt>
      <trkpt lat="45.782291" lon="10.748871"><ele>0</ele></trkpt>
      <trkpt lat="45.782242" lon="10.748677"><ele>0</ele></trkpt>
      <trkpt lat="45.782261" lon="10.748559"><ele>0</ele></trkpt>
      <trkpt lat="45.782363" lon="10.748398"><ele>0</ele></trkpt>
      <trkpt lat="45.782413" lon="10.748300"><ele>0</ele></trkpt>
      <trkpt lat="45.782440" lon="10.748206"><ele>0</ele></trkpt>
      <trkpt lat="45.782446" lon="10.748109"><ele>0</ele></trkpt>
      <trkpt lat="45.782409" lon="10.748009"><ele>0</ele></trkpt>
      <trkpt lat="45.782351" lon="10.747929"><ele>0</ele></trkpt>
      <trkpt lat="45.782265" lon="10.747832"><ele>0</ele></trkpt>
      <trkpt lat="45.782207" lon="10.747712"><ele>0</ele></trkpt>
      <trkpt lat="45.782187" lon="10.747525"><ele>0</ele></trkpt>
      <trkpt lat="45.782276" lon="10.747261"><ele>0</ele></trkpt>
      <trkpt lat="45.782706" lon="10.746587"><ele>0</ele></trkpt>
      <trkpt lat="45.783025" lon="10.746321"><ele>0</ele></trkpt>
      <trkpt lat="45.783205" lon="10.746250"><ele>0</ele></trkpt>
      <trkpt lat="45.783337" lon="10.746255"><ele>0</ele></trkpt>
      <trkpt lat="45.783436" lon="10.746254"><ele>0</ele></trkpt>
      <trkpt lat="45.783502" lon="10.746225"><ele>0</ele></trkpt>
      <trkpt lat="45.783627" lon="10.746062"><ele>0</ele></trkpt>
      <trkpt lat="45.783831" lon="10.745654"><ele>0</ele></trkpt>
      <trkpt lat="45.783895" lon="10.745506"><ele>0</ele></trkpt>
      <trkpt lat="45.783929" lon="10.745295"><ele>0</ele></trkpt>
      <trkpt lat="45.783900" lon="10.745022"><ele>0</ele></trkpt>
      <trkpt lat="45.783799" lon="10.744882"><ele>0</ele></trkpt>
      <trkpt lat="45.783399" lon="10.744614"><ele>0</ele></trkpt>
      <trkpt lat="45.783215" lon="10.744308"><ele>0</ele></trkpt>
      <trkpt lat="45.783145" lon="10.744134"><ele>0</ele></trkpt>
      <trkpt lat="45.783138" lon="10.744014"><ele>0</ele></trkpt>
      <trkpt lat="45.783161" lon="10.743923"><ele>0</ele></trkpt>
      <trkpt lat="45.783193" lon="10.743853"><ele>0</ele></trkpt>
      <trkpt lat="45.783259" lon="10.743802"><ele>0</ele></trkpt>
      <trkpt lat="45.783348" lon="10.743788"><ele>0</ele></trkpt>
      <trkpt lat="45.783546" lon="10.743766"><ele>0</ele></trkpt>
      <trkpt lat="45.783604" lon="10.743726"><ele>0</ele></trkpt>
      <trkpt lat="45.783646" lon="10.743641"><ele>0</ele></trkpt>
      <trkpt lat="45.783662" lon="10.743516"><ele>0</ele></trkpt>
      <trkpt lat="45.783660" lon="10.743378"><ele>0</ele></trkpt>
      <trkpt lat="45.783572" lon="10.742736"><ele>0</ele></trkpt>
      <trkpt lat="45.783564" lon="10.742552"><ele>0</ele></trkpt>
      <trkpt lat="45.783584" lon="10.742403"><ele>0</ele></trkpt>
      <trkpt lat="45.783630" lon="10.742299"><ele>0</ele></trkpt>
      <trkpt lat="45.783675" lon="10.742221"><ele>0</ele></trkpt>
      <trkpt lat="45.783743" lon="10.742138"><ele>0</ele></trkpt>
      <trkpt lat="45.783817" lon="10.742104"><ele>0</ele></trkpt>
      <trkpt lat="45.783954" lon="10.742084"><ele>0</ele></trkpt>
      <trkpt lat="45.784057" lon="10.742120"><ele>0</ele></trkpt>
      <trkpt lat="45.784173" lon="10.742222"><ele>0</ele></trkpt>
      <trkpt lat="45.784631" lon="10.742701"><ele>0</ele></trkpt>
      <trkpt lat="45.784810" lon="10.742891"><ele>0</ele></trkpt>
      <trkpt lat="45.785177" lon="10.743236"><ele>0</ele></trkpt>
      <trkpt lat="45.785208" lon="10.743256"><ele>0</ele></trkpt>
      <trkpt lat="45.785233" lon="10.743256"><ele>0</ele></trkpt>
      <trkpt lat="45.785259" lon="10.743248"><ele>0</ele></trkpt>
      <trkpt lat="45.785281" lon="10.743226"><ele>0</ele></trkpt>
      <trkpt lat="45.785320" lon="10.743173"><ele>0</ele></trkpt>
      <trkpt lat="45.785378" lon="10.743075"><ele>0</ele></trkpt>
      <trkpt lat="45.785475" lon="10.742924"><ele>0</ele></trkpt>
      <trkpt lat="45.785566" lon="10.742782"><ele>0</ele></trkpt>
      <trkpt lat="45.785999" lon="10.742222"><ele>0</ele></trkpt>
      <trkpt lat="45.786055" lon="10.742104"><ele>0</ele></trkpt>
      <trkpt lat="45.786090" lon="10.741977"><ele>0</ele></trkpt>
      <trkpt lat="45.786126" lon="10.741891"><ele>0</ele></trkpt>
      <trkpt lat="45.786183" lon="10.741795"><ele>0</ele></trkpt>
      <trkpt lat="45.786226" lon="10.741703"><ele>0</ele></trkpt>
      <trkpt lat="45.786374" lon="10.741278"><ele>0</ele></trkpt>
      <trkpt lat="45.786520" lon="10.740905"><ele>0</ele></trkpt>
      <trkpt lat="45.786607" lon="10.740759"><ele>0</ele></trkpt>
      <trkpt lat="45.786714" lon="10.740567"><ele>0</ele></trkpt>
      <trkpt lat="45.786833" lon="10.740263"><ele>0</ele></trkpt>
      <trkpt lat="45.786947" lon="10.740034"><ele>0</ele></trkpt>
      <trkpt lat="45.787081" lon="10.739866"><ele>0</ele></trkpt>
      <trkpt lat="45.787223" lon="10.739784"><ele>0</ele></trkpt>
      <trkpt lat="45.787366" lon="10.739768"><ele>0</ele></trkpt>
      <trkpt lat="45.787481" lon="10.739805"><ele>0</ele></trkpt>
      <trkpt lat="45.787640" lon="10.739960"><ele>0</ele></trkpt>
      <trkpt lat="45.788212" lon="10.740309"><ele>0</ele></trkpt>
      <trkpt lat="45.788284" lon="10.740368"><ele>0</ele></trkpt>
      <trkpt lat="45.788311" lon="10.740420"><ele>0</ele></trkpt>
      <trkpt lat="45.788329" lon="10.740505"><ele>0</ele></trkpt>
      <trkpt lat="45.788320" lon="10.740595"><ele>0</ele></trkpt>
      <trkpt lat="45.788282" lon="10.740727"><ele>0</ele></trkpt>
      <trkpt lat="45.788233" lon="10.741012"><ele>0</ele></trkpt>
      <trkpt lat="45.788207" lon="10.741306"><ele>0</ele></trkpt>
      <trkpt lat="45.788181" lon="10.741481"><ele>0</ele></trkpt>
      <trkpt lat="45.788132" lon="10.741696"><ele>0</ele></trkpt>
      <trkpt lat="45.788064" lon="10.741906"><ele>0</ele></trkpt>
      <trkpt lat="45.788027" lon="10.742133"><ele>0</ele></trkpt>
      <trkpt lat="45.788004" lon="10.742605"><ele>0</ele></trkpt>
      <trkpt lat="45.788008" lon="10.742775"><ele>0</ele></trkpt>
      <trkpt lat="45.788037" lon="10.742936"><ele>0</ele></trkpt>
      <trkpt lat="45.788045" lon="10.742954"><ele>0</ele></trkpt>
      <trkpt lat="45.788078" lon="10.743003"><ele>0</ele></trkpt>
      <trkpt lat="45.788122" lon="10.743038"><ele>0</ele></trkpt>
      <trkpt lat="45.788197" lon="10.743070"><ele>0</ele></trkpt>
      <trkpt lat="45.788539" lon="10.743194"><ele>0</ele></trkpt>
      <trkpt lat="45.788851" lon="10.743351"><ele>0</ele></trkpt>
      <trkpt lat="45.788941" lon="10.743431"><ele>0</ele></trkpt>
      <trkpt lat="45.789000" lon="10.743518"><ele>0</ele></trkpt>
      <trkpt lat="45.789036" lon="10.743613"><ele>0</ele></trkpt>
      <trkpt lat="45.789097" lon="10.743778"><ele>0</ele></trkpt>
      <trkpt lat="45.789180" lon="10.743989"><ele>0</ele></trkpt>
      <trkpt lat="45.789430" lon="10.744467"><ele>0</ele></trkpt>
      <trkpt lat="45.789474" lon="10.744561"><ele>0</ele></trkpt>
      <trkpt lat="45.789573" lon="10.744842"><ele>0</ele></trkpt>
      <trkpt lat="45.789605" lon="10.745064"><ele>0</ele></trkpt>
      <trkpt lat="45.789739" lon="10.746016"><ele>0</ele></trkpt>
      <trkpt lat="45.789813" lon="10.746543"><ele>0</ele></trkpt>
      <trkpt lat="45.789806" lon="10.746730"><ele>0</ele></trkpt>
      <trkpt lat="45.789799" lon="10.746775"><ele>0</ele></trkpt>
      <trkpt lat="45.789787" lon="10.746867"><ele>0</ele></trkpt>
      <trkpt lat="45.789714" lon="10.747077"><ele>0</ele></trkpt>
      <trkpt lat="45.789367" lon="10.747908"><ele>0</ele></trkpt>
      <trkpt lat="45.789331" lon="10.748030"><ele>0</ele></trkpt>
      <trkpt lat="45.789319" lon="10.748149"><ele>0</ele></trkpt>
      <trkpt lat="45.789333" lon="10.748270"><ele>0</ele></trkpt>
      <trkpt lat="45.789392" lon="10.748561"><ele>0</ele></trkpt>
      <trkpt lat="45.789429" lon="10.748740"><ele>0</ele></trkpt>
      <trkpt lat="45.789461" lon="10.748789"><ele>0</ele></trkpt>
      <trkpt lat="45.789471" lon="10.748920"><ele>0</ele></trkpt>
      <trkpt lat="45.789462" lon="10.749018"><ele>0</ele></trkpt>
      <trkpt lat="45.789402" lon="10.749256"><ele>0</ele></trkpt>
      <trkpt lat="45.789381" lon="10.749417"><ele>0</ele></trkpt>
      <trkpt lat="45.789386" lon="10.749571"><ele>0</ele></trkpt>
      <trkpt lat="45.789431" lon="10.749850"><ele>0</ele></trkpt>
      <trkpt lat="45.789438" lon="10.750000"><ele>0</ele></trkpt>
      <trkpt lat="45.789411" lon="10.750180"><ele>0</ele></trkpt>
      <trkpt lat="45.789284" lon="10.750528"><ele>0</ele></trkpt>
      <trkpt lat="45.789254" lon="10.750646"><ele>0</ele></trkpt>
      <trkpt lat="45.789247" lon="10.750764"><ele>0</ele></trkpt>
      <trkpt lat="45.789270" lon="10.750843"><ele>0</ele></trkpt>
      <trkpt lat="45.789312" lon="10.750902"><ele>0</ele></trkpt>
      <trkpt lat="45.789353" lon="10.750936"><ele>0</ele></trkpt>
      <trkpt lat="45.789434" lon="10.750954"><ele>0</ele></trkpt>
      <trkpt lat="45.789510" lon="10.750923"><ele>0</ele></trkpt>
      <trkpt lat="45.789573" lon="10.750966"><ele>0</ele></trkpt>
      <trkpt lat="45.789674" lon="10.750960"><ele>0</ele></trkpt>
      <trkpt lat="45.789717" lon="10.750905"><ele>0</ele></trkpt>
      <trkpt lat="45.789750" lon="10.750810"><ele>0</ele></trkpt>
      <trkpt lat="45.789772" lon="10.750624"><ele>0</ele></trkpt>
      <trkpt lat="45.789804" lon="10.750261"><ele>0</ele></trkpt>
      <trkpt lat="45.789830" lon="10.750096"><ele>0</ele></trkpt>
      <trkpt lat="45.789877" lon="10.749918"><ele>0</ele></trkpt>
      <trkpt lat="45.789982" lon="10.749679"><ele>0</ele></trkpt>
      <trkpt lat="45.790377" lon="10.749016"><ele>0</ele></trkpt>
      <trkpt lat="45.790468" lon="10.748933"><ele>0</ele></trkpt>
      <trkpt lat="45.790835" lon="10.748429"><ele>0</ele></trkpt>
      <trkpt lat="45.791121" lon="10.748063"><ele>0</ele></trkpt>
      <trkpt lat="45.791430" lon="10.747745"><ele>0</ele></trkpt>
      <trkpt lat="45.791586" lon="10.747552"><ele>0</ele></trkpt>
      <trkpt lat="45.791833" lon="10.747262"><ele>0</ele></trkpt>
      <trkpt lat="45.792377" lon="10.746834"><ele>0</ele></trkpt>
      <trkpt lat="45.792409" lon="10.746809"><ele>0</ele></trkpt>
      <trkpt lat="45.792479" lon="10.746931"><ele>0</ele></trkpt>
      <trkpt lat="45.792584" lon="10.746976"><ele>0</ele></trkpt>
      <trkpt lat="45.792748" lon="10.747033"><ele>0</ele></trkpt>
      <trkpt lat="45.793045" lon="10.747161"><ele>0</ele></trkpt>
      <trkpt lat="45.793249" lon="10.747249"><ele>0</ele></trkpt>
      <trkpt lat="45.793435" lon="10.747330"><ele>0</ele></trkpt>
      <trkpt lat="45.793553" lon="10.747381"><ele>0</ele></trkpt>
      <trkpt lat="45.793590" lon="10.747465"><ele>0</ele></trkpt>
      <trkpt lat="45.793834" lon="10.747737"><ele>0</ele></trkpt>
      <trkpt lat="45.793886" lon="10.747800"><ele>0</ele></trkpt>
      <trkpt lat="45.793939" lon="10.747866"><ele>0</ele></trkpt>
      <trkpt lat="45.794116" lon="10.748082"><ele>0</ele></trkpt>
      <trkpt lat="45.794346" lon="10.748362"><ele>0</ele></trkpt>
      <trkpt lat="45.794376" lon="10.748398"><ele>0</ele></trkpt>
      <trkpt lat="45.794461" lon="10.748514"><ele>0</ele></trkpt>
      <trkpt lat="45.794527" lon="10.748620"><ele>0</ele></trkpt>
      <trkpt lat="45.794576" lon="10.748739"><ele>0</ele></trkpt>
      <trkpt lat="45.794584" lon="10.748843"><ele>0</ele></trkpt>
      <trkpt lat="45.794568" lon="10.748922"><ele>0</ele></trkpt>
      <trkpt lat="45.794314" lon="10.749751"><ele>0</ele></trkpt>
      <trkpt lat="45.794132" lon="10.750349"><ele>0</ele></trkpt>
      <trkpt lat="45.793979" lon="10.750880"><ele>0</ele></trkpt>
      <trkpt lat="45.793929" lon="10.751054"><ele>0</ele></trkpt>
      <trkpt lat="45.793764" lon="10.751611"><ele>0</ele></trkpt>
      <trkpt lat="45.793649" lon="10.751970"><ele>0</ele></trkpt>
      <trkpt lat="45.793628" lon="10.752071"><ele>0</ele></trkpt>
      <trkpt lat="45.793615" lon="10.752198"><ele>0</ele></trkpt>
      <trkpt lat="45.793585" lon="10.752821"><ele>0</ele></trkpt>
      <trkpt lat="45.793563" lon="10.753003"><ele>0</ele></trkpt>
      <trkpt lat="45.793534" lon="10.753184"><ele>0</ele></trkpt>
      <trkpt lat="45.793501" lon="10.753295"><ele>0</ele></trkpt>
      <trkpt lat="45.793454" lon="10.753412"><ele>0</ele></trkpt>
      <trkpt lat="45.793370" lon="10.753570"><ele>0</ele></trkpt>
      <trkpt lat="45.793310" lon="10.753707"><ele>0</ele></trkpt>
      <trkpt lat="45.793254" lon="10.753889"><ele>0</ele></trkpt>
      <trkpt lat="45.793210" lon="10.754053"><ele>0</ele></trkpt>
      <trkpt lat="45.793175" lon="10.754190"><ele>0</ele></trkpt>
      <trkpt lat="45.793127" lon="10.754299"><ele>0</ele></trkpt>
      <trkpt lat="45.793072" lon="10.754408"><ele>0</ele></trkpt>
      <trkpt lat="45.793012" lon="10.754557"><ele>0</ele></trkpt>
      <trkpt lat="45.792960" lon="10.754722"><ele>0</ele></trkpt>
      <trkpt lat="45.792935" lon="10.754863"><ele>0</ele></trkpt>
      <trkpt lat="45.792801" lon="10.755552"><ele>0</ele></trkpt>
      <trkpt lat="45.792756" lon="10.755695"><ele>0</ele></trkpt>
      <trkpt lat="45.792741" lon="10.755830"><ele>0</ele></trkpt>
      <trkpt lat="45.792751" lon="10.755972"><ele>0</ele></trkpt>
      <trkpt lat="45.792787" lon="10.756129"><ele>0</ele></trkpt>
      <trkpt lat="45.792867" lon="10.756434"><ele>0</ele></trkpt>
      <trkpt lat="45.792875" lon="10.756581"><ele>0</ele></trkpt>
      <trkpt lat="45.792853" lon="10.756743"><ele>0</ele></trkpt>
      <trkpt lat="45.792839" lon="10.756924"><ele>0</ele></trkpt>
      <trkpt lat="45.792835" lon="10.757054"><ele>0</ele></trkpt>
      <trkpt lat="45.792855" lon="10.757172"><ele>0</ele></trkpt>
      <trkpt lat="45.792907" lon="10.757307"><ele>0</ele></trkpt>
      <trkpt lat="45.792921" lon="10.757423"><ele>0</ele></trkpt>
      <trkpt lat="45.792899" lon="10.757527"><ele>0</ele></trkpt>
      <trkpt lat="45.792857" lon="10.757631"><ele>0</ele></trkpt>
      <trkpt lat="45.792816" lon="10.757754"><ele>0</ele></trkpt>
      <trkpt lat="45.792785" lon="10.757872"><ele>0</ele></trkpt>
      <trkpt lat="45.792738" lon="10.758003"><ele>0</ele></trkpt>
      <trkpt lat="45.792701" lon="10.758133"><ele>0</ele></trkpt>
      <trkpt lat="45.792691" lon="10.758299"><ele>0</ele></trkpt>
      <trkpt lat="45.792680" lon="10.758477"><ele>0</ele></trkpt>
      <trkpt lat="45.792680" lon="10.758606"><ele>0</ele></trkpt>
      <trkpt lat="45.792690" lon="10.758730"><ele>0</ele></trkpt>
      <trkpt lat="45.792728" lon="10.758917"><ele>0</ele></trkpt>
      <trkpt lat="45.792783" lon="10.759120"><ele>0</ele></trkpt>
      <trkpt lat="45.792855" lon="10.759302"><ele>0</ele></trkpt>
      <trkpt lat="45.792969" lon="10.759438"><ele>0</ele></trkpt>
      <trkpt lat="45.793173" lon="10.759606"><ele>0</ele></trkpt>
      <trkpt lat="45.793770" lon="10.759981"><ele>0</ele></trkpt>
      <trkpt lat="45.794027" lon="10.760135"><ele>0</ele></trkpt>
      <trkpt lat="45.794166" lon="10.760172"><ele>0</ele></trkpt>
      <trkpt lat="45.794212" lon="10.760128"><ele>0</ele></trkpt>
      <trkpt lat="45.794514" lon="10.760191"><ele>0</ele></trkpt>
      <trkpt lat="45.794588" lon="10.760282"><ele>0</ele></trkpt>
      <trkpt lat="45.795014" lon="10.760911"><ele>0</ele></trkpt>
      <trkpt lat="45.795104" lon="10.760963"><ele>0</ele></trkpt>
      <trkpt lat="45.795231" lon="10.761006"><ele>0</ele></trkpt>
      <trkpt lat="45.795354" lon="10.761091"><ele>0</ele></trkpt>
      <trkpt lat="45.795621" lon="10.761380"><ele>0</ele></trkpt>
      <trkpt lat="45.795709" lon="10.761417"><ele>0</ele></trkpt>
      <trkpt lat="45.795760" lon="10.761467"><ele>0</ele></trkpt>
      <trkpt lat="45.795777" lon="10.761515"><ele>0</ele></trkpt>
      <trkpt lat="45.795773" lon="10.761589"><ele>0</ele></trkpt>
      <trkpt lat="45.795745" lon="10.761631"><ele>0</ele></trkpt>
      <trkpt lat="45.795698" lon="10.761670"><ele>0</ele></trkpt>
      <trkpt lat="45.795243" lon="10.761768"><ele>0</ele></trkpt>
      <trkpt lat="45.795120" lon="10.761753"><ele>0</ele></trkpt>
      <trkpt lat="45.794808" lon="10.761687"><ele>0</ele></trkpt>
      <trkpt lat="45.794267" lon="10.761492"><ele>0</ele></trkpt>
      <trkpt lat="45.793913" lon="10.761365"><ele>0</ele></trkpt>
      <trkpt lat="45.793469" lon="10.761418"><ele>0</ele></trkpt>
      <trkpt lat="45.793025" lon="10.761824"><ele>0</ele></trkpt>
      <trkpt lat="45.792643" lon="10.762051"><ele>0</ele></trkpt>
      <trkpt lat="45.791665" lon="10.762023"><ele>0</ele></trkpt>
      <trkpt lat="45.791375" lon="10.761921"><ele>0</ele></trkpt>
      <trkpt lat="45.791089" lon="10.761892"><ele>0</ele></trkpt>
      <trkpt lat="45.790553" lon="10.761900"><ele>0</ele></trkpt>
      <trkpt lat="45.790186" lon="10.761916"><ele>0</ele></trkpt>
      <trkpt lat="45.789823" lon="10.761860"><ele>0</ele></trkpt>
      <trkpt lat="45.789619" lon="10.761839"><ele>0</ele></trkpt>
      <trkpt lat="45.789581" lon="10.761870"><ele>0</ele></trkpt>
      <trkpt lat="45.789553" lon="10.761905"><ele>0</ele></trkpt>
      <trkpt lat="45.789528" lon="10.761883"><ele>0</ele></trkpt>
      <trkpt lat="45.789485" lon="10.761841"><ele>0</ele></trkpt>
      <trkpt lat="45.789429" lon="10.761762"><ele>0</ele></trkpt>
      <trkpt lat="45.789396" lon="10.761680"><ele>0</ele></trkpt>
      <trkpt lat="45.789421" lon="10.761401"><ele>0</ele></trkpt>
      <trkpt lat="45.789415" lon="10.761255"><ele>0</ele></trkpt>
      <trkpt lat="45.789410" lon="10.761202"><ele>0</ele></trkpt>
      <trkpt lat="45.789407" lon="10.761177"><ele>0</ele></trkpt>
      <trkpt lat="45.789390" lon="10.761037"><ele>0</ele></trkpt>
      <trkpt lat="45.789367" lon="10.760922"><ele>0</ele></trkpt>
      <trkpt lat="45.789353" lon="10.760787"><ele>0</ele></trkpt>
      <trkpt lat="45.789343" lon="10.760684"><ele>0</ele></trkpt>
      <trkpt lat="45.789357" lon="10.760563"><ele>0</ele></trkpt>
      <trkpt lat="45.789394" lon="10.760348"><ele>0</ele></trkpt>
      <trkpt lat="45.789429" lon="10.760124"><ele>0</ele></trkpt>
      <trkpt lat="45.789486" lon="10.759902"><ele>0</ele></trkpt>
      <trkpt lat="45.789581" lon="10.759552"><ele>0</ele></trkpt>
      <trkpt lat="45.789642" lon="10.759269"><ele>0</ele></trkpt>
      <trkpt lat="45.789659" lon="10.759009"><ele>0</ele></trkpt>
      <trkpt lat="45.789671" lon="10.758894"><ele>0</ele></trkpt>
      <trkpt lat="45.789698" lon="10.758785"><ele>0</ele></trkpt>
      <trkpt lat="45.789739" lon="10.758670"><ele>0</ele></trkpt>
      <trkpt lat="45.789759" lon="10.758583"><ele>0</ele></trkpt>
      <trkpt lat="45.789777" lon="10.758485"><ele>0</ele></trkpt>
      <trkpt lat="45.789773" lon="10.758424"><ele>0</ele></trkpt>
      <trkpt lat="45.789759" lon="10.758401"><ele>0</ele></trkpt>
      <trkpt lat="45.789740" lon="10.758386"><ele>0</ele></trkpt>
      <trkpt lat="45.789708" lon="10.758390"><ele>0</ele></trkpt>
      <trkpt lat="45.789504" lon="10.758513"><ele>0</ele></trkpt>
      <trkpt lat="45.789488" lon="10.758522"><ele>0</ele></trkpt>
      <trkpt lat="45.789423" lon="10.758594"><ele>0</ele></trkpt>
      <trkpt lat="45.789419" lon="10.758614"><ele>0</ele></trkpt>
      <trkpt lat="45.789398" lon="10.758595"><ele>0</ele></trkpt>
      <trkpt lat="45.789364" lon="10.758564"><ele>0</ele></trkpt>
      <trkpt lat="45.789327" lon="10.758564"><ele>0</ele></trkpt>
      <trkpt lat="45.789292" lon="10.758580"><ele>0</ele></trkpt>
      <trkpt lat="45.789255" lon="10.758609"><ele>0</ele></trkpt>
      <trkpt lat="45.789216" lon="10.758649"><ele>0</ele></trkpt>
      <trkpt lat="45.789178" lon="10.758698"><ele>0</ele></trkpt>
      <trkpt lat="45.789216" lon="10.758649"><ele>0</ele></trkpt>
      <trkpt lat="45.789255" lon="10.758609"><ele>0</ele></trkpt>
      <trkpt lat="45.789292" lon="10.758580"><ele>0</ele></trkpt>
      <trkpt lat="45.789327" lon="10.758564"><ele>0</ele></trkpt>
      <trkpt lat="45.789364" lon="10.758564"><ele>0</ele></trkpt>
      <trkpt lat="45.789398" lon="10.758595"><ele>0</ele></trkpt>
      <trkpt lat="45.789419" lon="10.758614"><ele>0</ele></trkpt>
      <trkpt lat="45.789423" lon="10.758594"><ele>0</ele></trkpt>
      <trkpt lat="45.789488" lon="10.758522"><ele>0</ele></trkpt>
      <trkpt lat="45.789708" lon="10.758390"><ele>0</ele></trkpt>
      <trkpt lat="45.789740" lon="10.758386"><ele>0</ele></trkpt>
      <trkpt lat="45.789759" lon="10.758401"><ele>0</ele></trkpt>
      <trkpt lat="45.789773" lon="10.758424"><ele>0</ele></trkpt>
      <trkpt lat="45.789777" lon="10.758485"><ele>0</ele></trkpt>
      <trkpt lat="45.789759" lon="10.758583"><ele>0</ele></trkpt>
      <trkpt lat="45.789739" lon="10.758670"><ele>0</ele></trkpt>
      <trkpt lat="45.789698" lon="10.758785"><ele>0</ele></trkpt>
      <trkpt lat="45.789671" lon="10.758894"><ele>0</ele></trkpt>
      <trkpt lat="45.789659" lon="10.759009"><ele>0</ele></trkpt>
      <trkpt lat="45.789642" lon="10.759269"><ele>0</ele></trkpt>
      <trkpt lat="45.789581" lon="10.759552"><ele>0</ele></trkpt>
      <trkpt lat="45.789486" lon="10.759902"><ele>0</ele></trkpt>
      <trkpt lat="45.789429" lon="10.760124"><ele>0</ele></trkpt>
      <trkpt lat="45.789394" lon="10.760348"><ele>0</ele></trkpt>
      <trkpt lat="45.789357" lon="10.760563"><ele>0</ele></trkpt>
      <trkpt lat="45.789343" lon="10.760684"><ele>0</ele></trkpt>
      <trkpt lat="45.789353" lon="10.760787"><ele>0</ele></trkpt>
      <trkpt lat="45.789367" lon="10.760922"><ele>0</ele></trkpt>
      <trkpt lat="45.789390" lon="10.761037"><ele>0</ele></trkpt>
      <trkpt lat="45.789407" lon="10.761177"><ele>0</ele></trkpt>
      <trkpt lat="45.789410" lon="10.761202"><ele>0</ele></trkpt>
      <trkpt lat="45.789415" lon="10.761255"><ele>0</ele></trkpt>
      <trkpt lat="45.789421" lon="10.761401"><ele>0</ele></trkpt>
      <trkpt lat="45.789396" lon="10.761680"><ele>0</ele></trkpt>
      <trkpt lat="45.789429" lon="10.761762"><ele>0</ele></trkpt>
      <trkpt lat="45.789485" lon="10.761841"><ele>0</ele></trkpt>
      <trkpt lat="45.789528" lon="10.761883"><ele>0</ele></trkpt>
      <trkpt lat="45.789553" lon="10.761905"><ele>0</ele></trkpt>
      <trkpt lat="45.789581" lon="10.761870"><ele>0</ele></trkpt>
      <trkpt lat="45.789619" lon="10.761839"><ele>0</ele></trkpt>
      <trkpt lat="45.789823" lon="10.761860"><ele>0</ele></trkpt>
      <trkpt lat="45.790186" lon="10.761916"><ele>0</ele></trkpt>
      <trkpt lat="45.790553" lon="10.761900"><ele>0</ele></trkpt>
      <trkpt lat="45.791089" lon="10.761892"><ele>0</ele></trkpt>
      <trkpt lat="45.791375" lon="10.761921"><ele>0</ele></trkpt>
      <trkpt lat="45.791665" lon="10.762023"><ele>0</ele></trkpt>
      <trkpt lat="45.792643" lon="10.762051"><ele>0</ele></trkpt>
      <trkpt lat="45.793025" lon="10.761824"><ele>0</ele></trkpt>
      <trkpt lat="45.793469" lon="10.761418"><ele>0</ele></trkpt>
      <trkpt lat="45.793913" lon="10.761365"><ele>0</ele></trkpt>
      <trkpt lat="45.794267" lon="10.761492"><ele>0</ele></trkpt>
      <trkpt lat="45.794808" lon="10.761687"><ele>0</ele></trkpt>
      <trkpt lat="45.795120" lon="10.761753"><ele>0</ele></trkpt>
      <trkpt lat="45.795243" lon="10.761768"><ele>0</ele></trkpt>
      <trkpt lat="45.795698" lon="10.761670"><ele>0</ele></trkpt>
      <trkpt lat="45.795745" lon="10.761631"><ele>0</ele></trkpt>
      <trkpt lat="45.795773" lon="10.761589"><ele>0</ele></trkpt>
      <trkpt lat="45.795777" lon="10.761515"><ele>0</ele></trkpt>
      <trkpt lat="45.795760" lon="10.761467"><ele>0</ele></trkpt>
      <trkpt lat="45.795709" lon="10.761417"><ele>0</ele></trkpt>
      <trkpt lat="45.795621" lon="10.761380"><ele>0</ele></trkpt>
      <trkpt lat="45.795354" lon="10.761091"><ele>0</ele></trkpt>
      <trkpt lat="45.795231" lon="10.761006"><ele>0</ele></trkpt>
      <trkpt lat="45.795104" lon="10.760963"><ele>0</ele></trkpt>
      <trkpt lat="45.795014" lon="10.760911"><ele>0</ele></trkpt>
      <trkpt lat="45.794588" lon="10.760282"><ele>0</ele></trkpt>
      <trkpt lat="45.794514" lon="10.760191"><ele>0</ele></trkpt>
      <trkpt lat="45.794212" lon="10.760128"><ele>0</ele></trkpt>
      <trkpt lat="45.794166" lon="10.760172"><ele>0</ele></trkpt>
      <trkpt lat="45.794027" lon="10.760135"><ele>0</ele></trkpt>
      <trkpt lat="45.793770" lon="10.759981"><ele>0</ele></trkpt>
      <trkpt lat="45.793173" lon="10.759606"><ele>0</ele></trkpt>
      <trkpt lat="45.792969" lon="10.759438"><ele>0</ele></trkpt>
      <trkpt lat="45.792855" lon="10.759302"><ele>0</ele></trkpt>
      <trkpt lat="45.792783" lon="10.759120"><ele>0</ele></trkpt>
      <trkpt lat="45.792728" lon="10.758917"><ele>0</ele></trkpt>
      <trkpt lat="45.792690" lon="10.758730"><ele>0</ele></trkpt>
      <trkpt lat="45.792680" lon="10.758606"><ele>0</ele></trkpt>
      <trkpt lat="45.792680" lon="10.758477"><ele>0</ele></trkpt>
      <trkpt lat="45.792691" lon="10.758299"><ele>0</ele></trkpt>
      <trkpt lat="45.792701" lon="10.758133"><ele>0</ele></trkpt>
      <trkpt lat="45.792738" lon="10.758003"><ele>0</ele></trkpt>
      <trkpt lat="45.792785" lon="10.757872"><ele>0</ele></trkpt>
      <trkpt lat="45.792816" lon="10.757754"><ele>0</ele></trkpt>
      <trkpt lat="45.792857" lon="10.757631"><ele>0</ele></trkpt>
      <trkpt lat="45.792899" lon="10.757527"><ele>0</ele></trkpt>
      <trkpt lat="45.792921" lon="10.757423"><ele>0</ele></trkpt>
      <trkpt lat="45.792907" lon="10.757307"><ele>0</ele></trkpt>
      <trkpt lat="45.792855" lon="10.757172"><ele>0</ele></trkpt>
      <trkpt lat="45.792835" lon="10.757054"><ele>0</ele></trkpt>
      <trkpt lat="45.792839" lon="10.756924"><ele>0</ele></trkpt>
      <trkpt lat="45.792853" lon="10.756743"><ele>0</ele></trkpt>
      <trkpt lat="45.792875" lon="10.756581"><ele>0</ele></trkpt>
      <trkpt lat="45.792867" lon="10.756434"><ele>0</ele></trkpt>
      <trkpt lat="45.792787" lon="10.756129"><ele>0</ele></trkpt>
      <trkpt lat="45.792751" lon="10.755972"><ele>0</ele></trkpt>
      <trkpt lat="45.792741" lon="10.755830"><ele>0</ele></trkpt>
      <trkpt lat="45.792756" lon="10.755695"><ele>0</ele></trkpt>
      <trkpt lat="45.792801" lon="10.755552"><ele>0</ele></trkpt>
      <trkpt lat="45.792935" lon="10.754863"><ele>0</ele></trkpt>
      <trkpt lat="45.792960" lon="10.754722"><ele>0</ele></trkpt>
      <trkpt lat="45.793012" lon="10.754557"><ele>0</ele></trkpt>
      <trkpt lat="45.793072" lon="10.754408"><ele>0</ele></trkpt>
      <trkpt lat="45.793127" lon="10.754299"><ele>0</ele></trkpt>
      <trkpt lat="45.793175" lon="10.754190"><ele>0</ele></trkpt>
      <trkpt lat="45.793210" lon="10.754053"><ele>0</ele></trkpt>
      <trkpt lat="45.793254" lon="10.753889"><ele>0</ele></trkpt>
      <trkpt lat="45.793310" lon="10.753707"><ele>0</ele></trkpt>
      <trkpt lat="45.793370" lon="10.753570"><ele>0</ele></trkpt>
      <trkpt lat="45.793454" lon="10.753412"><ele>0</ele></trkpt>
      <trkpt lat="45.793501" lon="10.753295"><ele>0</ele></trkpt>
      <trkpt lat="45.793534" lon="10.753184"><ele>0</ele></trkpt>
      <trkpt lat="45.793563" lon="10.753003"><ele>0</ele></trkpt>
      <trkpt lat="45.793585" lon="10.752821"><ele>0</ele></trkpt>
      <trkpt lat="45.793615" lon="10.752198"><ele>0</ele></trkpt>
      <trkpt lat="45.793628" lon="10.752071"><ele>0</ele></trkpt>
      <trkpt lat="45.793649" lon="10.751970"><ele>0</ele></trkpt>
      <trkpt lat="45.793764" lon="10.751611"><ele>0</ele></trkpt>
      <trkpt lat="45.793929" lon="10.751054"><ele>0</ele></trkpt>
      <trkpt lat="45.793979" lon="10.750880"><ele>0</ele></trkpt>
      <trkpt lat="45.794132" lon="10.750349"><ele>0</ele></trkpt>
      <trkpt lat="45.794314" lon="10.749751"><ele>0</ele></trkpt>
      <trkpt lat="45.794568" lon="10.748922"><ele>0</ele></trkpt>
      <trkpt lat="45.794584" lon="10.748843"><ele>0</ele></trkpt>
      <trkpt lat="45.794576" lon="10.748739"><ele>0</ele></trkpt>
      <trkpt lat="45.794527" lon="10.748620"><ele>0</ele></trkpt>
      <trkpt lat="45.794461" lon="10.748514"><ele>0</ele></trkpt>
      <trkpt lat="45.794376" lon="10.748398"><ele>0</ele></trkpt>
      <trkpt lat="45.794346" lon="10.748362"><ele>0</ele></trkpt>
      <trkpt lat="45.794116" lon="10.748082"><ele>0</ele></trkpt>
      <trkpt lat="45.793939" lon="10.747866"><ele>0</ele></trkpt>
      <trkpt lat="45.793886" lon="10.747800"><ele>0</ele></trkpt>
      <trkpt lat="45.793834" lon="10.747737"><ele>0</ele></trkpt>
      <trkpt lat="45.793590" lon="10.747465"><ele>0</ele></trkpt>
      <trkpt lat="45.793553" lon="10.747381"><ele>0</ele></trkpt>
      <trkpt lat="45.793435" lon="10.747330"><ele>0</ele></trkpt>
      <trkpt lat="45.793249" lon="10.747249"><ele>0</ele></trkpt>
      <trkpt lat="45.793045" lon="10.747161"><ele>0</ele></trkpt>
      <trkpt lat="45.792748" lon="10.747033"><ele>0</ele></trkpt>
      <trkpt lat="45.792584" lon="10.746976"><ele>0</ele></trkpt>
      <trkpt lat="45.792479" lon="10.746931"><ele>0</ele></trkpt>
      <trkpt lat="45.792409" lon="10.746809"><ele>0</ele></trkpt>
      <trkpt lat="45.792375" lon="10.746655"><ele>0</ele></trkpt>
      <trkpt lat="45.792367" lon="10.746473"><ele>0</ele></trkpt>
      <trkpt lat="45.792400" lon="10.746240"><ele>0</ele></trkpt>
      <trkpt lat="45.792419" lon="10.746099"><ele>0</ele></trkpt>
      <trkpt lat="45.792458" lon="10.745819"><ele>0</ele></trkpt>
      <trkpt lat="45.792486" lon="10.745617"><ele>0</ele></trkpt>
      <trkpt lat="45.792585" lon="10.744894"><ele>0</ele></trkpt>
      <trkpt lat="45.792593" lon="10.744832"><ele>0</ele></trkpt>
      <trkpt lat="45.792599" lon="10.744435"><ele>0</ele></trkpt>
      <trkpt lat="45.792644" lon="10.744064"><ele>0</ele></trkpt>
      <trkpt lat="45.792666" lon="10.743710"><ele>0</ele></trkpt>
      <trkpt lat="45.792702" lon="10.743200"><ele>0</ele></trkpt>
      <trkpt lat="45.792689" lon="10.743033"><ele>0</ele></trkpt>
      <trkpt lat="45.792625" lon="10.743306"><ele>0</ele></trkpt>
      <trkpt lat="45.792555" lon="10.743487"><ele>0</ele></trkpt>
      <trkpt lat="45.792495" lon="10.743657"><ele>0</ele></trkpt>
      <trkpt lat="45.792381" lon="10.743959"><ele>0</ele></trkpt>
      <trkpt lat="45.792231" lon="10.744315"><ele>0</ele></trkpt>
      <trkpt lat="45.792163" lon="10.744450"><ele>0</ele></trkpt>
      <trkpt lat="45.792060" lon="10.744652"><ele>0</ele></trkpt>
      <trkpt lat="45.792004" lon="10.744763"><ele>0</ele></trkpt>
      <trkpt lat="45.791940" lon="10.744960"><ele>0</ele></trkpt>
    </trkseg>
  </trk>
</gpx>